{
"type": "FeatureCollection",
"name": "mono_bivoltB_gen2_20260819_WGS84",
"crs": { "type": "name", "properties": { "name": "urn:ogc:def:crs:OGC:1.3:CRS84" } },
"features": [
{ "type": "Feature", "properties": { "statut_gen2": 0, "label": "Inactif (gen1 non atteinte)", "couleur": "#E8E8E8", "date_mise_a_jour": "2026-08-19" }, "geometry": { "type": "MultiPolygon", "coordinates": [ [ [ [ 9.121114851759446, 47.076308654085302 ], [ 9.112960968204861, 47.00449849259801 ], [ 9.217925356423546, 46.998880279343034 ], [ 9.209654631527689, 46.927075208371804 ], [ 9.104828735942633, 46.932686088789822 ], [ 9.096718069021771, 46.860871558099078 ], [ 8.992008823585467, 46.86637988537705 ], [ 9.007974928769896, 47.010021227575699 ], [ 8.902967602711316, 47.015448455449082 ], [ 8.895112612143446, 46.943621757431202 ], [ 8.68531313485062, 46.954175780614854 ], [ 8.677755828385909, 46.882333197805977 ], [ 8.782527340855159, 46.877110733165175 ], [ 8.774851964262325, 46.805272996636013 ], [ 8.670218552125311, 46.810488643784055 ], [ 8.662701226677678, 46.738642233588315 ], [ 8.55818568146038, 46.743755977783458 ], [ 8.572964285782724, 46.887460319847527 ], [ 8.468153076525352, 46.892492072579628 ], [ 8.460892237680271, 46.820634254912619 ], [ 8.251489018779337, 46.830398780021945 ], [ 8.203114277847245, 46.32726017460449 ], [ 8.306866545941016, 46.322469561529701 ], [ 8.320868999394751, 46.46621772476125 ], [ 8.424874920827866, 46.461319904963787 ], [ 8.432040385694748, 46.533185761055854 ], [ 8.952461671260179, 46.507243520643037 ], [ 8.944614682501296, 46.435411508030185 ], [ 9.360037416880527, 46.412983259875482 ], [ 9.35166870083094, 46.341179176153801 ], [ 9.455334806178968, 46.335343643415825 ], [ 9.489485835429489, 46.622520865001007 ], [ 9.385276116039263, 46.628386927025574 ], [ 9.376841037313314, 46.556587249929038 ], [ 9.272745543542833, 46.562351013138539 ], [ 9.297707121432756, 46.777767444709887 ], [ 9.193178878996912, 46.783458769436365 ], [ 9.201405834689329, 46.85526799995958 ], [ 9.410715481972316, 46.843775308208002 ], [ 9.427787723130928, 46.987357535762442 ], [ 9.322867729289712, 46.993166617128473 ], [ 9.331299238550855, 47.06496196787397 ], [ 9.121114851759446, 47.076308654085302 ] ], [ [ 8.879465064015635, 46.79996215776962 ], [ 9.193178878996912, 46.783458769436365 ], [ 9.176790145689399, 46.639834702675742 ], [ 9.072514607581205, 46.645416357018526 ], [ 9.08056108966441, 46.717236577124844 ], [ 8.871672341570196, 46.728129486461519 ], [ 8.879465064015635, 46.79996215776962 ] ], [ [ 8.767196900124128, 46.733433394130785 ], [ 8.871672341570196, 46.728129486461519 ], [ 8.863900211003541, 46.65629505415928 ], [ 8.759562068056786, 46.661592040578192 ], [ 8.767196900124128, 46.733433394130785 ] ] ], [ [ [ 7.924161643520372, 46.700547711624033 ], [ 7.91114601877671, 46.55675858159011 ], [ 7.806914309383914, 46.561188541519471 ], [ 7.813276275776126, 46.633089622913282 ], [ 7.708890479947897, 46.637430328509957 ], [ 7.70266582504023, 46.565523578712614 ], [ 7.598400925192993, 46.569763670710167 ], [ 7.592329702655856, 46.497850066112335 ], [ 7.488185827271894, 46.50198977770966 ], [ 7.49411996963171, 46.573908795540419 ], [ 7.389823318480727, 46.577958931719571 ], [ 7.378244592676145, 46.434109136167372 ], [ 7.274206652394446, 46.438053938198834 ], [ 7.268576626595906, 46.366122232184303 ], [ 7.060729679956731, 46.373717535555244 ], [ 7.050058114461182, 46.229831578491037 ], [ 7.153716676387879, 46.226091054189141 ], [ 7.159181332957599, 46.29802955130036 ], [ 7.470476956092907, 46.286226050403179 ], [ 7.476364381974533, 46.358148291289694 ], [ 7.995556110557489, 46.336557999431356 ], [ 8.002140226954367, 46.408451059623708 ], [ 8.106064167894695, 46.403843375678377 ], [ 8.133122590741143, 46.691379189501987 ], [ 7.924161643520372, 46.700547711624033 ] ] ], [ [ [ 6.409894350975894, 45.962404486131156 ], [ 6.405440763608652, 45.890432142957749 ], [ 6.50850216237107, 45.887279269809248 ], [ 6.513090181548763, 45.959247491636965 ], [ 6.409894350975894, 45.962404486131156 ] ] ], [ [ [ 5.85269499738141, 45.184890307545139 ], [ 5.849020622337014, 45.112904527408226 ], [ 5.95067829411647, 45.11025978633004 ], [ 5.954483536376815, 45.182242112284918 ], [ 5.85269499738141, 45.184890307545139 ] ] ], [ [ [ 5.827171537995908, 44.681017939372119 ], [ 5.823562549629442, 44.609042554521501 ], [ 5.924313476592237, 44.606421858360839 ], [ 5.928051009650575, 44.678393822526559 ], [ 5.827171537995908, 44.681017939372119 ] ] ], [ [ [ 7.605999679245372, 44.188385289187529 ], [ 7.600172914107072, 44.116502297050914 ], [ 7.699943148059523, 44.112264478162992 ], [ 7.705895693960318, 44.184141947709321 ], [ 7.605999679245372, 44.188385289187529 ] ] ], [ [ [ 7.995556110557489, 46.336557999431356 ], [ 7.988989281152621, 46.264663938439028 ], [ 7.885319840425729, 46.269165220465531 ], [ 7.878905627343933, 46.19726439901239 ], [ 7.775354784181552, 46.20166552293238 ], [ 7.78163353385374, 46.27357209513022 ], [ 7.574211737647158, 46.282102532071953 ], [ 7.56820410782757, 46.210184826656374 ], [ 7.360990463070037, 46.218326726275187 ], [ 7.355269236910351, 46.146397653179385 ], [ 7.148266347563657, 46.154151845651505 ], [ 7.137408448552316, 46.010271747347574 ], [ 6.930888601955071, 46.01762945338568 ], [ 6.941206372617049, 46.161528798164397 ], [ 6.734092137179768, 46.168528358974818 ], [ 6.724314919198116, 46.024610749735146 ], [ 6.621008766463856, 46.027960199213268 ], [ 6.616274005023085, 45.955996447583196 ], [ 6.822604230001878, 45.949212277912345 ], [ 6.817613202353686, 45.877257155000386 ], [ 6.714588730488791, 45.880691758977868 ], [ 6.709744647522652, 45.808732027440918 ], [ 6.606841505977632, 45.812068377938914 ], [ 6.597458051426908, 45.66814030335118 ], [ 6.494809679693094, 45.671374407991948 ], [ 6.485740539880754, 45.527438792898984 ], [ 6.588123260113775, 45.524213122124657 ], [ 6.583473995106855, 45.452250146621921 ], [ 6.685712378929922, 45.448935504637177 ], [ 6.680943214121934, 45.376977411701667 ], [ 6.37458824138684, 45.386629177263707 ], [ 6.37896149457227, 45.458599876517361 ], [ 6.276688059796779, 45.461634932207325 ], [ 6.268216632485322, 45.317686302805036 ], [ 6.370226286952422, 45.314659160455626 ], [ 6.365875587564789, 45.242689937566062 ], [ 6.467742649036381, 45.239573895668599 ], [ 6.46327216039389, 45.167609641703031 ], [ 6.158030809712513, 45.176667379989119 ], [ 6.170294533427134, 45.39259826427719 ], [ 6.068131581590846, 45.395443134688037 ], [ 6.060208483730178, 45.251480915215915 ], [ 5.958298601315739, 45.254225475709703 ], [ 5.954483536376815, 45.182242112284918 ], [ 6.056262252726238, 45.179501131819634 ], [ 6.04840022974646, 45.035544773415083 ], [ 6.149907541588034, 45.032718408073002 ], [ 6.145861550467172, 44.960745740435385 ], [ 5.94309712634818, 44.966298690624207 ], [ 5.939321125683132, 44.894320142410912 ], [ 6.040578532057795, 44.891593432131216 ], [ 6.036682708416411, 44.819619919595695 ], [ 6.137800653904452, 44.816804595424657 ], [ 6.129780940359493, 44.672869773911792 ], [ 6.230630744000838, 44.669969869766781 ], [ 6.226507801064892, 44.598008885556204 ], [ 6.427918707251834, 44.59194130792973 ], [ 6.432298390813239, 44.663894374295865 ], [ 6.533115579788559, 44.660718813340274 ], [ 6.537635095571541, 44.732669520936163 ], [ 6.638569348496715, 44.729397842005518 ], [ 6.629284990226791, 44.585506727317508 ], [ 6.528607589433906, 44.588769885139463 ], [ 6.515152332037442, 44.372934876767864 ], [ 6.414846421970954, 44.37609391931521 ], [ 6.406186780209438, 44.232206599451565 ], [ 6.60627992871326, 44.225813824283975 ], [ 6.597159302048883, 44.081952918877789 ], [ 6.696936406959426, 44.078628512921753 ], [ 6.701616917910709, 44.150553360140613 ], [ 6.901387172069719, 44.143622927180104 ], [ 6.90633197526507, 44.215541272369471 ], [ 7.106304503439086, 44.208237509615238 ], [ 7.111514727607485, 44.28014874494459 ], [ 7.011408476812939, 44.283850974854538 ], [ 7.016505192459361, 44.355769328505382 ], [ 6.916259249972441, 44.359385093452659 ], [ 6.936265817463797, 44.647098190363515 ], [ 7.137765259478115, 44.639737091148248 ], [ 7.143055604348019, 44.711660425229553 ], [ 7.042184111671066, 44.715391719818655 ], [ 7.052547771735564, 44.859252913154805 ], [ 6.85024983205005, 44.86645858721328 ], [ 6.855192780064873, 44.93840076717018 ], [ 6.753895189128037, 44.941869889949075 ], [ 6.758721020873319, 45.013817916876398 ], [ 6.657281201723473, 45.017199146727414 ], [ 6.661989253504979, 45.08915280207178 ], [ 6.865116818133611, 45.08228897418779 ], [ 6.870098006342197, 45.15423477943029 ], [ 7.073435198258428, 45.14699141644639 ], [ 7.078690711100815, 45.218928752930331 ], [ 7.180469864657511, 45.215163242792137 ], [ 7.196712016853397, 45.430965211078153 ], [ 7.094538860003113, 45.434745487639873 ], [ 7.099848955844022, 45.506685602313411 ], [ 6.997530009244004, 45.510377603173573 ], [ 7.007926436730864, 45.654268615972917 ], [ 6.905328794306381, 45.657876793286178 ], [ 6.910414151383819, 45.729827365882223 ], [ 6.807670114549416, 45.733346642983172 ], [ 6.812635180780552, 45.805301905845361 ], [ 7.224064294712321, 45.790644066061432 ], [ 7.229577549904997, 45.862580164198064 ], [ 7.435474733178733, 45.854678788198562 ], [ 7.441270364297078, 45.926604410664936 ], [ 7.853416115681111, 45.909654596316351 ], [ 7.85976352347495, 45.98155779789991 ], [ 7.962893480713423, 45.977079959532112 ], [ 7.982439670837447, 46.19276899040554 ], [ 8.085956562847622, 46.188179320226091 ], [ 8.099344014771916, 46.331956328640217 ], [ 7.995556110557489, 46.336557999431356 ] ], [ [ 6.700094257453894, 45.664812654638972 ], [ 6.802717953190539, 45.661391478808341 ], [ 6.797778646495786, 45.589436525573682 ], [ 6.695287852353943, 45.592853237985338 ], [ 6.700094257453894, 45.664812654638972 ] ], [ [ 6.592784596539757, 45.596176545012256 ], [ 6.695287852353943, 45.592853237985338 ], [ 6.690493908968238, 45.520894150667822 ], [ 6.588123260113775, 45.524213122124657 ], [ 6.592784596539757, 45.596176545012256 ] ], [ [ 6.56959816181497, 45.236365021620124 ], [ 6.671441788968012, 45.233063331634725 ], [ 6.666709433622494, 45.161107567404649 ], [ 6.564996716899766, 45.164404952139428 ], [ 6.56959816181497, 45.236365021620124 ] ], [ [ 6.445504805560746, 44.879763843268783 ], [ 6.546708880556372, 44.87657583334687 ], [ 6.537635095571541, 44.732669520936163 ], [ 6.436689273028908, 44.735849225791725 ], [ 6.445504805560746, 44.879763843268783 ] ], [ [ 6.620047859129902, 44.441623146768741 ], [ 6.720457992131452, 44.438277006078692 ], [ 6.715729778384159, 44.366342674747408 ], [ 6.615446891384022, 44.369684456526834 ], [ 6.620047859129902, 44.441623146768741 ] ], [ [ 6.515152332037442, 44.372934876767864 ], [ 6.615446891384022, 44.369684456526834 ], [ 6.610857596022164, 44.29774797920259 ], [ 6.510690005605744, 44.300994165275362 ], [ 6.515152332037442, 44.372934876767864 ] ], [ [ 6.811157572620612, 44.290981895238374 ], [ 6.911289318657671, 44.287462030923479 ], [ 6.90633197526507, 44.215541272369471 ], [ 6.806326741804388, 44.219056552720474 ], [ 6.811157572620612, 44.290981895238374 ] ] ], [ [ [ 7.106304503439086, 44.208237509615238 ], [ 7.095923534739075, 44.06442234914887 ], [ 7.494701436134759, 44.048763379847045 ], [ 7.506088901833294, 44.192537691821883 ], [ 7.106304503439086, 44.208237509615238 ] ] ], [ [ [ 6.901387172069719, 44.143622927180104 ], [ 6.896454861587454, 44.071707104596804 ], [ 6.996195578821565, 44.068110136433006 ], [ 7.001253718798541, 44.140021269485764 ], [ 6.901387172069719, 44.143622927180104 ] ] ], [ [ [ -0.819199065877987, 42.921485580061464 ], [ -0.814472092563915, 42.849629210781664 ], [ -0.716811417479781, 42.853058572070246 ], [ -0.721417730780159, 42.924919408592274 ], [ -0.819199065877987, 42.921485580061464 ] ] ], [ [ [ -0.525821089549501, 42.931520094519925 ], [ -0.521456222087022, 42.85965067006277 ], [ -0.716811417479781, 42.853058572070246 ], [ -0.712216484936889, 42.781202204828162 ], [ -0.614664834501719, 42.784538350732717 ], [ -0.610201350141051, 42.712682219042435 ], [ -0.512758807248415, 42.715925369862383 ], [ -0.517102141289675, 42.787785726400763 ], [ -0.224350766504818, 42.796995077315941 ], [ -0.220368117338035, 42.725122738054381 ], [ -0.122884518121285, 42.728011116733896 ], [ -0.119031696861628, 42.656139728341586 ], [ 0.66019390055191, 42.676025519775351 ], [ 0.657302309351567, 42.747922823260119 ], [ 0.267142171509942, 42.73867720907613 ], [ 0.256974644872736, 42.954360990131342 ], [ 0.061219118394101, 42.949185271586458 ], [ 0.072110960170295, 42.73352167375954 ], [ -0.025391393655588, 42.730810766472217 ], [ -0.032884674418407, 42.87457488131929 ], [ -0.326057880363264, 42.865887163091543 ], [ -0.330181141562829, 42.937764713145448 ], [ -0.525821089549501, 42.931520094519925 ] ] ], [ [ [ 2.122351957333064, 42.698005878324992 ], [ 2.123434446867931, 42.62608481290934 ], [ 2.220823902088752, 42.62683886619606 ], [ 2.219861664252083, 42.698760914816326 ], [ 2.122351957333064, 42.698005878324992 ] ] ], [ [ [ 0.75208280670011, 42.821916967115492 ], [ 0.754860970327623, 42.750012190987967 ], [ 0.949998564962769, 42.753924411330715 ], [ 0.95252922854581, 42.682019294985977 ], [ 0.66019390055191, 42.676025519775351 ], [ 0.663078364453017, 42.604133071321577 ], [ 0.85772194755252, 42.608212330484449 ], [ 0.860359898705984, 42.536319532899213 ], [ 0.957571861889044, 42.538223764490276 ], [ 0.955053653175171, 42.610119044138109 ], [ 1.052391574694431, 42.611937134782536 ], [ 1.049987210687278, 42.683839755577637 ], [ 1.342395626688406, 42.688768620959166 ], [ 1.344439681528623, 42.616859583190596 ], [ 1.539164083084133, 42.619697951187042 ], [ 1.542758278073729, 42.475887544127154 ], [ 1.834158976401816, 42.479470714015463 ], [ 1.832722892717333, 42.551378042149238 ], [ 2.027247426831551, 42.553327090689251 ], [ 2.024844927180042, 42.697162026233379 ], [ 1.53736032949955, 42.691610689346653 ], [ 1.53555211658358, 42.763528309761689 ], [ 1.145161207830164, 42.757481215916265 ], [ 1.142865613146046, 42.829395728757547 ], [ 0.75208280670011, 42.821916967115492 ] ] ], [ [ [ 2.41632955931748, 42.556162193256398 ], [ 2.417047718709715, 42.484248635769582 ], [ 2.514203735482024, 42.484735299159141 ], [ 2.513605259342791, 42.556649491176827 ], [ 2.41632955931748, 42.556162193256398 ] ] ], [ [ [ 2.028444243045441, 42.481417224799365 ], [ 2.029638118045012, 42.409512567323226 ], [ 2.320729243948792, 42.411765898404873 ], [ 2.319893467002652, 42.483673493659957 ], [ 2.028444243045441, 42.481417224799365 ] ] ] ] } },
{ "type": "Feature", "properties": { "statut_gen2": 1, "label": "Gen2 en cours", "couleur": "#FDE725FF", "date_mise_a_jour": "2026-08-19" }, "geometry": { "type": "MultiPolygon", "coordinates": [ [ [ [ -1.917153143129824, 48.937060398414829 ], [ -1.910366831792648, 48.865256893381712 ], [ -1.801519395883356, 48.869678495136526 ], [ -1.80815602837857, 48.94148781257033 ], [ -1.917153143129824, 48.937060398414829 ] ] ], [ [ [ -5.013125714227224, 48.407714900138863 ], [ -5.002189448415036, 48.336110278542584 ], [ -4.894775836238065, 48.343343277756382 ], [ -4.905567283699932, 48.414957363566295 ], [ -5.013125714227224, 48.407714900138863 ] ] ], [ [ [ -2.950539840437575, 47.446357940684912 ], [ -2.934597619172898, 47.302731875019546 ], [ -2.829010717436609, 47.308091513269986 ], [ -2.844671389785635, 47.451731612845578 ], [ -2.950539840437575, 47.446357940684912 ] ] ], [ [ [ -3.268015120496779, 47.429659342838079 ], [ -3.251229291004264, 47.286076877327886 ], [ -3.145707276551864, 47.291724528147803 ], [ -3.137487918834808, 47.219921787646662 ], [ -3.03208395034962, 47.225466212368417 ], [ -3.048264203948636, 47.369083500229479 ], [ -3.153948633959956, 47.363524563182807 ], [ -3.162212079322765, 47.435321776618736 ], [ -3.268015120496779, 47.429659342838079 ] ] ], [ [ [ 2.052118656646595, 47.018339704440947 ], [ 2.053381196363932, 46.946317348960712 ], [ 2.15855260345217, 46.947132854877225 ], [ 2.15743031203057, 47.019156279361518 ], [ 2.052118656646595, 47.018339704440947 ] ] ], [ [ [ 8.879465064015635, 46.79996215776962 ], [ 8.871672341570196, 46.728129486461519 ], [ 9.08056108966441, 46.717236577124844 ], [ 9.072514607581205, 46.645416357018526 ], [ 9.176790145689399, 46.639834702675742 ], [ 9.193178878996912, 46.783458769436365 ], [ 8.879465064015635, 46.79996215776962 ] ] ], [ [ [ -2.349096418701765, 46.753698074622427 ], [ -2.342011566186773, 46.681830270137311 ], [ -2.237576255391446, 46.686652267265899 ], [ -2.244523423667931, 46.758526375604696 ], [ -2.349096418701765, 46.753698074622427 ] ] ], [ [ [ 8.767196900124128, 46.733433394130785 ], [ 8.759562068056786, 46.661592040578192 ], [ 8.863900211003541, 46.65629505415928 ], [ 8.871672341570196, 46.728129486461519 ], [ 8.767196900124128, 46.733433394130785 ] ] ], [ [ [ 9.256213903107252, 46.418732003338555 ], [ 9.247980648250007, 46.34692042578444 ], [ 9.35166870083094, 46.341179176153801 ], [ 9.360037416880527, 46.412983259875482 ], [ 9.256213903107252, 46.418732003338555 ] ] ], [ [ [ 8.002140226954367, 46.408451059623708 ], [ 7.995556110557489, 46.336557999431356 ], [ 8.099344014771916, 46.331956328640217 ], [ 8.106064167894695, 46.403843375678377 ], [ 8.002140226954367, 46.408451059623708 ] ] ], [ [ [ -0.228807170973469, 46.400309352848588 ], [ -0.22455620224506, 46.32833204774979 ], [ -0.120648337065262, 46.331225646576812 ], [ -0.124762613612167, 46.403206737495942 ], [ -0.228807170973469, 46.400309352848588 ] ] ], [ [ [ -0.120648337065262, 46.331225646576812 ], [ -0.116544874929746, 46.259243792845943 ], [ -0.012762572001825, 46.262039007419183 ], [ -0.016729657511474, 46.334024518003282 ], [ -0.120648337065262, 46.331225646576812 ] ] ], [ [ [ -0.008805901407207, 46.190052852505801 ], [ -0.004859604787272, 46.118066166366091 ], [ 0.098661347511844, 46.120759711282709 ], [ 0.094850755769568, 46.192749920600662 ], [ -0.008805901407207, 46.190052852505801 ] ] ], [ [ [ -0.315359046037811, 46.109419359779409 ], [ -0.302367753782124, 45.893491072921456 ], [ -0.199283482243117, 45.896456044043582 ], [ -0.195109805972139, 45.824475735202071 ], [ -0.092148836884561, 45.827342984071585 ], [ -0.104298950498502, 46.043294786659203 ], [ -0.207663614116933, 46.040416277105699 ], [ -0.211870155599207, 46.112395976036424 ], [ -0.315359046037811, 46.109419359779409 ] ] ], [ [ [ -0.503926103412843, 45.81531094029409 ], [ -0.499361957998057, 45.743342615574363 ], [ -0.396568376864516, 45.746487263537631 ], [ -0.40099878734501, 45.818459697937826 ], [ -0.503926103412843, 45.81531094029409 ] ] ], [ [ [ 6.700094257453894, 45.664812654638972 ], [ 6.695287852353943, 45.592853237985338 ], [ 6.797778646495786, 45.589436525573682 ], [ 6.802717953190539, 45.661391478808341 ], [ 6.700094257453894, 45.664812654638972 ] ] ], [ [ [ 6.592784596539757, 45.596176545012256 ], [ 6.588123260113775, 45.524213122124657 ], [ 6.690493908968238, 45.520894150667822 ], [ 6.695287852353943, 45.592853237985338 ], [ 6.592784596539757, 45.596176545012256 ] ] ], [ [ [ 6.56959816181497, 45.236365021620124 ], [ 6.564996716899766, 45.164404952139428 ], [ 6.666709433622494, 45.161107567404649 ], [ 6.671441788968012, 45.233063331634725 ], [ 6.56959816181497, 45.236365021620124 ] ] ], [ [ [ -1.105172830179991, 45.578626132189008 ], [ -1.099848955844021, 45.506685602313411 ], [ -1.202154123995117, 45.50290038978838 ], [ -1.169711363705539, 45.071299352917841 ], [ -0.966661573551827, 45.07871826637512 ], [ -0.992351978075954, 45.438432673736457 ], [ -0.890151710648086, 45.442026750673477 ], [ -0.895197625082475, 45.513976373623926 ], [ -0.997530009244003, 45.510377603173573 ], [ -1.002721478018578, 45.582322954587511 ], [ -1.105172830179991, 45.578626132189008 ] ] ], [ [ [ 6.870098006342197, 45.15423477943029 ], [ 6.865116818133611, 45.08228897418779 ], [ 6.966661573551828, 45.07871826637512 ], [ 6.971773192262249, 45.1506594108575 ], [ 6.870098006342197, 45.15423477943029 ] ] ], [ [ [ 1.066283302707204, 45.132535253901963 ], [ 1.068771961668093, 45.060525018551999 ], [ 1.170378156078604, 45.062240218502318 ], [ 1.168020334456475, 45.13425269473035 ], [ 1.066283302707204, 45.132535253901963 ] ] ], [ [ [ -1.271215732468285, 45.067451184625533 ], [ -1.260252860167897, 44.923601627374453 ], [ -1.361483657039709, 44.919671273137361 ], [ -1.355894050350275, 44.847753498466851 ], [ -1.15367694445683, 44.855511876649139 ], [ -1.169711363705539, 45.071299352917841 ], [ -1.271215732468285, 45.067451184625533 ] ] ], [ [ [ 6.445504805560746, 44.879763843268783 ], [ 6.436689273028908, 44.735849225791725 ], [ 6.537635095571541, 44.732669520936163 ], [ 6.546708880556372, 44.87657583334687 ], [ 6.445504805560746, 44.879763843268783 ] ] ], [ [ [ 6.620047859129902, 44.441623146768741 ], [ 6.615446891384022, 44.369684456526834 ], [ 6.715729778384159, 44.366342674747408 ], [ 6.720457992131452, 44.438277006078692 ], [ 6.620047859129902, 44.441623146768741 ] ] ], [ [ [ -0.615446891384022, 44.369684456526834 ], [ -0.610857596022163, 44.29774797920259 ], [ -0.510690005605743, 44.300994165275362 ], [ -0.515152332037443, 44.372934876767864 ], [ -0.615446891384022, 44.369684456526834 ] ] ], [ [ [ 6.515152332037442, 44.372934876767864 ], [ 6.510690005605744, 44.300994165275362 ], [ 6.610857596022164, 44.29774797920259 ], [ 6.615446891384022, 44.369684456526834 ], [ 6.515152332037442, 44.372934876767864 ] ] ], [ [ [ 6.811157572620612, 44.290981895238374 ], [ 6.806326741804388, 44.219056552720474 ], [ 6.90633197526507, 44.215541272369471 ], [ 6.911289318657671, 44.287462030923479 ], [ 6.811157572620612, 44.290981895238374 ] ] ], [ [ [ -0.811157572620612, 44.290981895238374 ], [ -0.806326741804388, 44.219056552720474 ], [ -1.006324668568627, 44.211934918712444 ], [ -0.996195578821565, 44.068110136433006 ], [ -0.896454861587454, 44.071707104596804 ], [ -0.891534996573345, 43.999793913712558 ], [ -0.791907394523296, 44.003295479835245 ], [ -0.796701698924808, 44.075213235868326 ], [ -0.696936406959426, 44.078628512921753 ], [ -0.701616917910708, 44.150553360140613 ], [ -0.601713845350292, 44.153882101111492 ], [ -0.597159302048883, 44.081952918877789 ], [ -0.197939087884586, 44.094341509782517 ], [ -0.210120671462403, 44.310185107858416 ], [ -0.510690005605743, 44.300994165275362 ], [ -0.506238986814384, 44.229055782008487 ], [ -0.606279928713259, 44.225813824283975 ], [ -0.610857596022163, 44.29774797920259 ], [ -0.811157572620612, 44.290981895238374 ] ] ], [ [ [ -1.090752690705627, 43.99251864241517 ], [ -1.085594874299054, 43.920617663368752 ], [ -0.986117534747033, 43.924295855140258 ], [ -0.991150200201803, 43.996201628664117 ], [ -1.090752690705627, 43.99251864241517 ] ] ], [ [ [ -0.393279304312138, 44.016394216143553 ], [ -0.388998510194251, 43.9444621503091 ], [ -0.28943910643153, 43.947505902289258 ], [ -0.293594438760883, 44.019441937343025 ], [ -0.393279304312138, 44.016394216143553 ] ] ], [ [ [ -0.956185850039171, 43.492924716147236 ], [ -0.946308181194767, 43.349161125778835 ], [ -0.847808578607541, 43.352711548719292 ], [ -0.857440495559667, 43.496484397607617 ], [ -0.956185850039171, 43.492924716147236 ] ] ], [ [ [ 1.023142088227857, 43.475066554860433 ], [ 1.025613052108419, 43.403116225421876 ], [ 1.124294290820388, 43.404870651259003 ], [ 1.121946731883064, 43.476823268880381 ], [ 1.023142088227857, 43.475066554860433 ] ] ], [ [ [ 2.54337767645685, 51.19229601135951 ], [ 2.544036852395902, 51.120561695273537 ], [ 2.088104110060261, 51.118076229743899 ], [ 2.08941852985192, 51.046336773950159 ], [ 1.747999903801376, 51.043389342115063 ], [ 1.749801815431142, 50.971645473509881 ], [ 1.636169095629297, 50.970457779480675 ], [ 1.638129074522129, 50.898707281850108 ], [ 1.524665225573346, 50.897418048883807 ], [ 1.541433668040712, 50.32314682074302 ], [ 1.42926479656338, 50.321769145386128 ], [ 1.435930935651433, 50.106302093861999 ], [ 1.21256405072432, 50.103252829369588 ], [ 1.215088881724739, 50.031420818393897 ], [ 1.10357356894796, 50.029746009016392 ], [ 1.106248459282257, 49.957909558882541 ], [ 0.660895688546283, 49.950206127326062 ], [ 0.664189663562354, 49.878373305016957 ], [ 0.441880397368682, 49.873919802830208 ], [ 0.445477313687881, 49.802086423445679 ], [ 0.112558540715218, 49.794657669051517 ], [ 0.12065415702136, 49.65099164115216 ], [ 0.010013957483752, 49.648320548392839 ], [ 0.026685626800661, 49.360930350198288 ], [ -0.413292202223441, 49.349301005327177 ], [ -0.418055407158032, 49.421141962187143 ], [ -1.078533628094329, 49.400669431212243 ], [ -1.084230087720099, 49.472477645708892 ], [ -1.194409881328444, 49.468710192261177 ], [ -1.217972278181537, 49.755862684843464 ], [ -1.55026025015923, 49.743896372282101 ], [ -1.543880869688115, 49.672133323013085 ], [ -1.654453740657732, 49.667948725854735 ], [ -1.660987647149734, 49.739706259780235 ], [ -1.88238696394986, 49.731024160935029 ], [ -1.889248899718237, 49.802763805067187 ], [ -2.00007467852647, 49.798265946857939 ], [ -1.986061006906868, 49.654792026057869 ], [ -1.875544237840183, 49.659278053374692 ], [ -1.868720640939528, 49.587525602325094 ], [ -1.97908354788696, 49.583045476787028 ], [ -1.972125564211458, 49.511292694767413 ], [ -1.861916093246246, 49.515766927597866 ], [ -1.848363827696742, 49.37223138571909 ], [ -1.738441145531495, 49.376593932709874 ], [ -1.725268200947069, 49.233023469638376 ], [ -1.615631353989436, 49.237274865595907 ], [ -1.564863402635403, 48.662733346083357 ], [ -1.781718836683604, 48.654220820564646 ], [ -1.788300875102723, 48.726044880804693 ], [ -2.005380953362786, 48.717126140694802 ], [ -1.998502077105267, 48.645313781724539 ], [ -2.215209893749081, 48.636012422386862 ], [ -2.222385296862581, 48.707812564499953 ], [ -2.547742731543084, 48.693102326408912 ], [ -2.540123149959309, 48.621321475034236 ], [ -2.75662832051345, 48.611035213454123 ], [ -2.764543594134055, 48.682802561589661 ], [ -2.872911589744885, 48.677504880171945 ], [ -2.897233872041636, 48.892756267058331 ], [ -3.658277855893918, 48.852759258024264 ], [ -3.639963975736537, 48.709368168806471 ], [ -3.748290835136779, 48.703275396831025 ], [ -3.757582932131578, 48.774965553403412 ], [ -4.191221703613164, 48.749577813870509 ], [ -4.18133971968386, 48.677920903506958 ], [ -4.613955862239758, 48.650994623805495 ], [ -4.603514397775553, 48.579367797263892 ], [ -4.819359714821564, 48.565334337995054 ], [ -4.776715328656294, 48.278850626489898 ], [ -4.669388124872516, 48.285879444763886 ], [ -4.658943657401163, 48.214237446186104 ], [ -4.551732418229827, 48.221159783699676 ], [ -4.541460285861752, 48.149504236248028 ], [ -4.434365239734261, 48.156320321208511 ], [ -4.424264674945517, 48.084651495630496 ], [ -4.745035067323593, 48.063938752292138 ], [ -4.734532077747205, 47.992292742582649 ], [ -4.627779715519122, 47.99928490310478 ], [ -4.617447841569438, 47.927625600521807 ], [ -4.404145419123339, 47.94130124129321 ], [ -4.374169572165231, 47.726246120488945 ], [ -4.055295566280963, 47.745955558778192 ], [ -4.064834393063702, 47.817670181240679 ], [ -3.851838169159389, 47.830343443077425 ], [ -3.842583993791078, 47.758612263833669 ], [ -3.629772816057248, 47.770882318633113 ], [ -3.620827840354272, 47.699131518005593 ], [ -3.51452813961227, 47.705113642183285 ], [ -3.496993697761641, 47.561586189389793 ], [ -3.284891148522028, 47.573230013598682 ], [ -3.293363214000607, 47.645010634757732 ], [ -3.187135832872451, 47.650695323933412 ], [ -3.162212079322765, 47.435321776618736 ], [ -3.056386861537701, 47.440887985671743 ], [ -3.064531322519703, 47.512689543849284 ], [ -2.852533266907824, 47.523547360839594 ], [ -2.844671389785635, 47.451731612845578 ], [ -2.526941204997794, 47.467274651588092 ], [ -2.504748358380251, 47.251749575285245 ], [ -2.293673685259361, 47.26159098628974 ], [ -2.279537139464267, 47.117869060616101 ], [ -2.174251469766991, 47.122633197875871 ], [ -2.167351013040043, 47.050762533485859 ], [ -2.272497100091139, 47.046004621161309 ], [ -2.258473114027846, 46.902269365728728 ], [ -2.153605089785703, 46.907014855180691 ], [ -2.139932001863536, 46.763259478002439 ], [ -2.035322515522479, 46.767897357207524 ], [ -2.028650933052983, 46.696011012305277 ], [ -1.924161643520373, 46.700547711624033 ], [ -1.91114601877671, 46.55675858159011 ], [ -1.806914309383913, 46.561188541519471 ], [ -1.794240635448247, 46.41738251443654 ], [ -1.586274472520825, 46.425935265534093 ], [ -1.580235171752801, 46.354019382919248 ], [ -1.476364381974532, 46.358148291289694 ], [ -1.470476956092905, 46.286226050403179 ], [ -1.574211737647157, 46.282102532071953 ], [ -1.568204107827569, 46.210184826656374 ], [ -1.464604979963152, 46.214302962634576 ], [ -1.458748392914918, 46.14237914148557 ], [ -1.148266347563656, 46.154151845651505 ], [ -1.132000766797377, 45.938331083755529 ], [ -0.925749931807927, 45.945679187050885 ], [ -0.941206372617049, 46.161528798164397 ], [ -1.044743319328399, 46.157887486567539 ], [ -1.055386882960354, 46.301774965959432 ], [ -1.159181332957598, 46.29802955130036 ], [ -1.16466037379147, 46.369967223547384 ], [ -1.372478081508555, 46.362182581319033 ], [ -1.384026318256851, 46.506034624267194 ], [ -1.175661835815163, 46.513839638999585 ], [ -1.181184371537038, 46.585774154631835 ], [ -0.97248697177328, 46.593209177351284 ], [ -0.967239131429972, 46.521264948659628 ], [ -0.758761086052972, 46.528310399407935 ], [ -0.753801274590595, 46.456355814345322 ], [ -0.545545174365291, 46.463012551119583 ], [ -0.550230585252037, 46.534975845226867 ], [ -0.445946567011411, 46.538166022798656 ], [ -0.441398430517095, 46.466198560004614 ], [ -0.128887747355472, 46.475186952207572 ], [ -0.124762613612167, 46.403206737495942 ], [ 0.18743476220102, 46.411329727186036 ], [ 0.191138711144355, 46.339338021322959 ], [ 0.295087682924365, 46.341852625769576 ], [ 0.298645397247793, 46.269856886319069 ], [ 0.402467215965673, 46.272273546204488 ], [ 0.40928265906792, 46.128273980258314 ], [ 0.719984200643096, 46.134938435076769 ], [ 0.722971937230777, 46.062929289960067 ], [ 0.826419693662226, 46.064959217114335 ], [ 0.829264371365585, 45.992947146002386 ], [ 0.725951855957668, 45.990919870782555 ], [ 0.731888362214691, 45.846900660482476 ], [ 0.628852998027403, 45.844784711573212 ], [ 0.631943802734402, 45.772777908475021 ], [ 0.52905063977224, 45.770570889971296 ], [ 0.538675199323777, 45.554560591128336 ], [ 0.641168072909899, 45.556758976610617 ], [ 0.64422688564213, 45.484753531481466 ], [ 0.746594940390715, 45.486855703135554 ], [ 0.749513405845202, 45.414848133106922 ], [ 0.954006962883714, 45.418767279005074 ], [ 0.956653624192532, 45.346755328079311 ], [ 1.160910272586014, 45.350296833428402 ], [ 1.168020334456475, 45.13425269473035 ], [ 1.26976344995085, 45.135877350143673 ], [ 1.267530742672355, 45.207893141491198 ], [ 1.369410824970256, 45.20942700495219 ], [ 1.367303908093372, 45.281445885156323 ], [ 1.469321000532773, 45.282888709153383 ], [ 1.47129633722461, 45.210867945854716 ], [ 1.573186940588839, 45.212215956913703 ], [ 1.575025925161999, 45.140194524218991 ], [ 1.371512311872616, 45.13740921194055 ], [ 1.375699079491327, 44.993377330737054 ], [ 1.477191879056648, 44.994812638160255 ], [ 1.479146968765459, 44.922796898649473 ], [ 1.073730115570956, 44.916508558006598 ], [ 1.068771961668093, 45.060525018551999 ], [ 0.967172163450138, 45.058717162828962 ], [ 0.969784903014041, 44.986710585887565 ], [ 0.868322287664723, 44.984812562836225 ], [ 0.871058437709112, 44.912809868920235 ], [ 0.769732952252343, 44.910821926001965 ], [ 0.772591845499194, 44.838823339083646 ], [ 1.076199659631253, 44.844502553837394 ], [ 1.078662880966834, 44.772498180848416 ], [ 1.179749072142814, 44.774204448506353 ], [ 1.1774153522669, 44.846211049902656 ], [ 1.379864377351419, 44.849351126600396 ], [ 1.381939026656657, 44.777340429384473 ], [ 1.483042128101699, 44.778770126881824 ], [ 1.486917388533588, 44.634750365839182 ], [ 1.38607242816572, 44.633324395302907 ], [ 1.390184768523052, 44.489316240863552 ], [ 1.792565392412848, 44.4944548795985 ], [ 1.794101913278841, 44.422447330936819 ], [ 1.894579694778067, 44.423501270186918 ], [ 1.895984644622346, 44.351494655131518 ], [ 1.795634528818664, 44.350442090124098 ], [ 1.797163253901335, 44.278439266394038 ], [ 1.897386027949218, 44.279490459054358 ], [ 1.900178149232109, 44.135489760018828 ], [ 1.700243880645766, 44.133301705461136 ], [ 1.701887385547827, 44.061308272393177 ], [ 1.602052687822751, 44.060079134063727 ], [ 1.603818070062165, 43.988090153552506 ], [ 2.301854468219886, 43.994773736988549 ], [ 2.303613591216878, 43.850787344455455 ], [ 2.204136134827763, 43.850107085829301 ], [ 2.206136407954524, 43.7061352062521 ], [ 2.305363871769773, 43.70681369297256 ], [ 2.307105376381134, 43.562853646241173 ], [ 2.208126651909003, 43.562176926596109 ], [ 2.209118036487566, 43.490203156003098 ], [ 2.011416139979119, 43.488581178774332 ], [ 2.012652202119068, 43.416613244179217 ], [ 2.111378182810675, 43.417468166494288 ], [ 2.112487893390128, 43.345502945356138 ], [ 2.506923363574078, 43.348019510520565 ], [ 2.50630680378156, 43.419988014549958 ], [ 2.802520560022835, 43.420932987225761 ], [ 2.802273310439044, 43.492906557292493 ], [ 2.901136500243268, 43.493041730832253 ], [ 2.901012564917245, 43.565019204854288 ], [ 3.0, 43.565064321562112 ], [ 3.0, 43.637045474852684 ], [ 3.099111681529393, 43.637000299277098 ], [ 3.099236240269648, 43.708984906519625 ], [ 3.297707466928751, 43.708623031664594 ], [ 3.298082078827755, 43.78061057177154 ], [ 3.596155662256226, 43.77938766793465 ], [ 3.599171378460408, 44.067363316280165 ], [ 3.699028430161157, 44.06677144059443 ], [ 3.698145531780114, 43.994773736988549 ], [ 3.797874243468197, 43.994091701601015 ], [ 3.800908926244342, 44.210090610394595 ], [ 3.901014334879267, 44.209314616347662 ], [ 3.903304748260436, 44.353325250787087 ], [ 4.003661673068083, 44.352455710279543 ], [ 4.006219469004792, 44.496473761455483 ], [ 4.106828835215242, 44.495510194992022 ], [ 4.108240959058755, 44.567521320172553 ], [ 4.208975048724193, 44.566464626729783 ], [ 4.21206775197315, 44.710490278156797 ], [ 4.414038942246842, 44.708095062947436 ], [ 4.412232714431955, 44.636084371639271 ], [ 4.613927571834281, 44.633324395302907 ], [ 4.620135622648582, 44.849351126600396 ], [ 4.721362964438644, 44.847827243528286 ], [ 4.736952000408538, 45.351927866340866 ], [ 4.634808459827795, 45.353465741564172 ], [ 4.636926299972132, 45.42548646304472 ], [ 4.739202081091878, 45.423946577707461 ], [ 4.743719773820641, 45.567986141920237 ], [ 4.64117848219581, 45.569530055990867 ], [ 4.65406859920754, 46.001669995103683 ], [ 4.550716775935429, 46.003131796835376 ], [ 4.556830799830995, 46.219207117033577 ], [ 4.660589876847324, 46.217739569240656 ], [ 4.664966033622921, 46.361783742392291 ], [ 4.768992619586058, 46.360217464854905 ], [ 4.776012840828068, 46.576271989359903 ], [ 4.984872152535305, 46.572841371630417 ], [ 4.982250196870406, 46.500828580383924 ], [ 5.19080614287717, 46.49702201782209 ], [ 5.187916239361271, 46.425013261982961 ], [ 5.083779323868074, 46.426961541821115 ], [ 5.078296075989042, 46.282936547395508 ], [ 4.870548528068158, 46.286538738850489 ], [ 4.868090467752386, 46.214520569129228 ], [ 4.764343218738027, 46.216177383920851 ], [ 4.755117341090012, 45.928092334824328 ], [ 4.858322478848009, 45.926444162833548 ], [ 4.855896418935058, 45.85442469252127 ], [ 5.062018080318323, 45.850850649196673 ], [ 5.064713352800837, 45.922865444847339 ], [ 5.167898385286008, 45.920934917196163 ], [ 5.165068547194173, 45.848922643139502 ], [ 5.268111637785309, 45.846900660482476 ], [ 5.271076012539874, 45.918910290138463 ], [ 5.374245883072309, 45.916791574050144 ], [ 5.368056197265598, 45.772777908475021 ], [ 5.470949360227761, 45.770570889971296 ], [ 5.516877365650333, 46.778589731805923 ], [ 5.412074117535457, 46.780837529184581 ], [ 5.415280936829433, 46.852834891294293 ], [ 5.520223334189299, 46.850584149618889 ], [ 5.523578207883422, 46.922577037357065 ], [ 5.628651183408195, 46.920227543747274 ], [ 5.54727381458464, 45.192278050702093 ], [ 5.445449355988582, 45.19455497608525 ], [ 5.467732823966649, 45.698567140182192 ], [ 5.262206037406597, 45.702881703254263 ], [ 5.259264751619164, 45.630872599891269 ], [ 4.951318499151832, 45.636633978192698 ], [ 4.946256806018535, 45.492602048016202 ], [ 4.843860503419068, 45.494330740500835 ], [ 4.841472026021346, 45.422313412982746 ], [ 5.045993037116287, 45.418767279005074 ], [ 5.043346375807468, 45.346755328079311 ], [ 4.839089727413986, 45.350296833428402 ], [ 4.834343570930947, 45.206266363226057 ], [ 4.936211777216673, 45.204546678380275 ], [ 4.933716697292797, 45.132535253901963 ], [ 5.137171160897535, 45.128822051144155 ], [ 5.131677712335277, 44.984812562836225 ], [ 5.030215096985959, 44.986710585887565 ], [ 5.017251476654911, 44.626701015297904 ], [ 4.916429547675547, 44.628494768879818 ], [ 4.91154697786811, 44.484499201591419 ], [ 5.012112255631392, 44.482710122665573 ], [ 5.00955245015531, 44.410717887464749 ], [ 5.109983387919869, 44.408839575370926 ], [ 5.107302598531779, 44.336852075424702 ], [ 5.207599247151234, 44.334884774838578 ], [ 5.204798121023321, 44.262902231784082 ], [ 5.104628610915518, 44.264866968102005 ], [ 5.101961399223531, 44.192884362555965 ], [ 5.202004092499652, 44.190922186977389 ], [ 5.196437220660396, 44.046970028023701 ], [ 5.096647200875186, 44.048927092672592 ], [ 5.094000163174266, 43.976952645906792 ], [ 5.392971356625438, 43.97081661206667 ], [ 5.389954446435037, 43.898853097117282 ], [ 5.190898417779867, 43.903029168337532 ], [ 5.188139475958517, 43.831063247061486 ], [ 5.486336766474118, 43.824671431110346 ], [ 5.483210187808198, 43.752716986755196 ], [ 5.780962246364817, 43.745519469529228 ], [ 5.78797284113206, 43.889412709241867 ], [ 5.887456089036294, 43.886825961691493 ], [ 5.89109998494013, 43.958773788164279 ], [ 5.990699360809053, 43.956092913243161 ], [ 5.979420196817073, 43.740269042690016 ], [ 6.078635208764199, 43.737508242708962 ], [ 6.074770038102249, 43.665576852979868 ], [ 6.17385103922731, 43.662729392627291 ], [ 6.16987158128743, 43.590805038533944 ], [ 6.664501110017222, 43.575234704387782 ], [ 6.669099859570597, 43.64713876133478 ], [ 6.966113049176826, 43.636702277494663 ], [ 6.971095339073585, 43.708596027412696 ], [ 7.070199100794683, 43.704932179898115 ], [ 7.080450036391678, 43.84871952083887 ], [ 7.179789608698993, 43.844955669240242 ], [ 7.174533223490616, 43.773065370715337 ], [ 7.472098118237852, 43.761246717022644 ], [ 7.477727630751226, 43.833121615239506 ], [ 7.577012368620105, 43.82899616217167 ], [ 7.582780638270949, 43.90086860269939 ], [ 7.682175416655967, 43.896647306359782 ], [ 7.699943148059523, 44.112264478162992 ], [ 7.600172914107072, 44.116502297050914 ], [ 7.605999679245372, 44.188385289187529 ], [ 7.506088901833294, 44.192537691821883 ], [ 7.494701436134759, 44.048763379847045 ], [ 7.095923534739075, 44.06442234914887 ], [ 7.106304503439086, 44.208237509615238 ], [ 6.90633197526507, 44.215541272369471 ], [ 6.901387172069719, 44.143622927180104 ], [ 6.701616917910709, 44.150553360140613 ], [ 6.696936406959426, 44.078628512921753 ], [ 6.597159302048883, 44.081952918877789 ], [ 6.60627992871326, 44.225813824283975 ], [ 6.406186780209438, 44.232206599451565 ], [ 6.414846421970954, 44.37609391931521 ], [ 6.515152332037442, 44.372934876767864 ], [ 6.528607589433906, 44.588769885139463 ], [ 6.629284990226791, 44.585506727317508 ], [ 6.638569348496715, 44.729397842005518 ], [ 6.537635095571541, 44.732669520936163 ], [ 6.533115579788559, 44.660718813340274 ], [ 6.432298390813239, 44.663894374295865 ], [ 6.427918707251834, 44.59194130792973 ], [ 6.226507801064892, 44.598008885556204 ], [ 6.230630744000838, 44.669969869766781 ], [ 6.129780940359493, 44.672869773911792 ], [ 6.137800653904452, 44.816804595424657 ], [ 6.036682708416411, 44.819619919595695 ], [ 6.040578532057795, 44.891593432131216 ], [ 5.939321125683132, 44.894320142410912 ], [ 5.94309712634818, 44.966298690624207 ], [ 6.145861550467172, 44.960745740435385 ], [ 6.149907541588034, 45.032718408073002 ], [ 6.04840022974646, 45.035544773415083 ], [ 6.056262252726238, 45.179501131819634 ], [ 5.954483536376815, 45.182242112284918 ], [ 5.958298601315739, 45.254225475709703 ], [ 6.060208483730178, 45.251480915215915 ], [ 6.068131581590846, 45.395443134688037 ], [ 6.170294533427134, 45.39259826427719 ], [ 6.158030809712513, 45.176667379989119 ], [ 6.46327216039389, 45.167609641703031 ], [ 6.467742649036381, 45.239573895668599 ], [ 6.365875587564789, 45.242689937566062 ], [ 6.370226286952422, 45.314659160455626 ], [ 6.268216632485322, 45.317686302805036 ], [ 6.276688059796779, 45.461634932207325 ], [ 6.37896149457227, 45.458599876517361 ], [ 6.37458824138684, 45.386629177263707 ], [ 6.680943214121934, 45.376977411701667 ], [ 6.685712378929922, 45.448935504637177 ], [ 6.583473995106855, 45.452250146621921 ], [ 6.588123260113775, 45.524213122124657 ], [ 6.485740539880754, 45.527438792898984 ], [ 6.494809679693094, 45.671374407991948 ], [ 6.597458051426908, 45.66814030335118 ], [ 6.606841505977632, 45.812068377938914 ], [ 6.709744647522652, 45.808732027440918 ], [ 6.714588730488791, 45.880691758977868 ], [ 6.817613202353686, 45.877257155000386 ], [ 6.822604230001878, 45.949212277912345 ], [ 6.616274005023085, 45.955996447583196 ], [ 6.621008766463856, 46.027960199213268 ], [ 6.724314919198116, 46.024610749735146 ], [ 6.734092137179768, 46.168528358974818 ], [ 6.941206372617049, 46.161528798164397 ], [ 6.930888601955071, 46.01762945338568 ], [ 7.137408448552316, 46.010271747347574 ], [ 7.148266347563657, 46.154151845651505 ], [ 7.355269236910351, 46.146397653179385 ], [ 7.360990463070037, 46.218326726275187 ], [ 7.56820410782757, 46.210184826656374 ], [ 7.574211737647158, 46.282102532071953 ], [ 7.78163353385374, 46.27357209513022 ], [ 7.775354784181552, 46.20166552293238 ], [ 7.878905627343933, 46.19726439901239 ], [ 7.885319840425729, 46.269165220465531 ], [ 7.988989281152621, 46.264663938439028 ], [ 7.995556110557489, 46.336557999431356 ], [ 7.476364381974533, 46.358148291289694 ], [ 7.470476956092907, 46.286226050403179 ], [ 7.159181332957599, 46.29802955130036 ], [ 7.153716676387879, 46.226091054189141 ], [ 7.050058114461182, 46.229831578491037 ], [ 7.060729679956731, 46.373717535555244 ], [ 7.268576626595906, 46.366122232184303 ], [ 7.274206652394446, 46.438053938198834 ], [ 7.378244592676145, 46.434109136167372 ], [ 7.389823318480727, 46.577958931719571 ], [ 7.49411996963171, 46.573908795540419 ], [ 7.488185827271894, 46.50198977770966 ], [ 7.592329702655856, 46.497850066112335 ], [ 7.598400925192993, 46.569763670710167 ], [ 7.70266582504023, 46.565523578712614 ], [ 7.708890479947897, 46.637430328509957 ], [ 7.813276275776126, 46.633089622913282 ], [ 7.806914309383914, 46.561188541519471 ], [ 7.91114601877671, 46.55675858159011 ], [ 7.924161643520372, 46.700547711624033 ], [ 8.133122590741143, 46.691379189501987 ], [ 8.146759477585721, 46.83513807148281 ], [ 8.460892237680271, 46.820634254912619 ], [ 8.468153076525352, 46.892492072579628 ], [ 8.572964285782724, 46.887460319847527 ], [ 8.55818568146038, 46.743755977783458 ], [ 8.662701226677678, 46.738642233588315 ], [ 8.670218552125311, 46.810488643784055 ], [ 8.774851964262325, 46.805272996636013 ], [ 8.782527340855159, 46.877110733165175 ], [ 8.677755828385909, 46.882333197805977 ], [ 8.68531313485062, 46.954175780614854 ], [ 8.895112612143446, 46.943621757431202 ], [ 8.902967602711316, 47.015448455449082 ], [ 9.007974928769896, 47.010021227575699 ], [ 8.992008823585467, 46.86637988537705 ], [ 9.096718069021771, 46.860871558099078 ], [ 9.104828735942633, 46.932686088789822 ], [ 9.209654631527689, 46.927075208371804 ], [ 9.217925356423546, 46.998880279343034 ], [ 9.112960968204861, 47.00449849259801 ], [ 9.121114851759446, 47.076308654085302 ], [ 9.331299238550855, 47.06496196787397 ], [ 9.322867729289712, 46.993166617128473 ], [ 9.427787723130928, 46.987357535762442 ], [ 9.410715481972316, 46.843775308208002 ], [ 9.201405834689329, 46.85526799995958 ], [ 9.193178878996912, 46.783458769436365 ], [ 9.297707121432756, 46.777767444709887 ], [ 9.272745543542833, 46.562351013138539 ], [ 9.376841037313314, 46.556587249929038 ], [ 9.385276116039263, 46.628386927025574 ], [ 9.489485835429489, 46.622520865001007 ], [ 9.506696905159485, 46.766099678976154 ], [ 9.611157728964487, 46.760123298549836 ], [ 9.781996386146721, 48.123453861247228 ], [ 9.674861839981785, 48.129580482660309 ], [ 9.683953164921153, 48.201308125099665 ], [ 9.576649388881732, 48.20734528643144 ], [ 9.558780173349467, 48.063870064988535 ], [ 9.45174103786843, 48.069794180283687 ], [ 9.442986628487626, 47.998042726497204 ], [ 9.33606773729146, 48.003861925553416 ], [ 9.32748063018534, 47.932098966258899 ], [ 9.22068217362423, 47.937813481800085 ], [ 9.237591845125142, 48.081350495508907 ], [ 9.023350664943985, 48.09251738556393 ], [ 9.01517287138201, 48.020736204480222 ], [ 8.908163136409511, 48.026166424780492 ], [ 8.900151472228606, 47.954374287330786 ], [ 8.686355405621791, 47.964928914201117 ], [ 8.678652884642569, 47.893119243289604 ], [ 8.358234952504736, 47.908201990477728 ], [ 8.365505616669722, 47.980031427096677 ], [ 8.258515715950017, 47.984870976250754 ], [ 8.265661606247386, 48.056703083409403 ], [ 8.587005000788238, 48.041873062261985 ], [ 8.617528298193223, 48.329084554584888 ], [ 8.509852645303845, 48.334151824193754 ], [ 8.54012314995931, 48.621321475034236 ], [ 8.431839063255605, 48.626316943822864 ], [ 8.439310669106725, 48.698104354070679 ], [ 8.547742731543083, 48.693102326408912 ], [ 8.55538326646202, 48.764878316764971 ], [ 8.446802825307708, 48.769886913164378 ], [ 8.461849128287984, 48.913437003991085 ], [ 8.244030290552113, 48.923183525221646 ], [ 8.251285156315841, 48.994963628552711 ], [ 8.142195698909699, 48.99969454335465 ], [ 8.149320374224834, 49.071475560000778 ], [ 7.930782122037858, 49.080651809946595 ], [ 7.94448676335607, 49.224221631563672 ], [ 7.834886810021583, 49.22867238367575 ], [ 7.855130515203613, 49.444002148877111 ], [ 7.745055165381781, 49.448370439543808 ], [ 7.751687652704025, 49.520140970753779 ], [ 6.979593158559606, 49.547952003633547 ], [ 6.974034373758967, 49.476144883690644 ], [ 7.084230087720099, 49.472477645708892 ], [ 7.067188204840392, 49.257035698298054 ], [ 6.73793029170384, 49.267694509338838 ], [ 6.743137950534714, 49.339528257248588 ], [ 6.633203322963181, 49.342885875880732 ], [ 6.638272568828322, 49.414718380223093 ], [ 6.528170852974871, 49.417980260908784 ], [ 6.533100837010967, 49.489811284572141 ], [ 6.312549635662513, 49.496042692315065 ], [ 6.317185546269556, 49.567876038815811 ], [ 6.096274538721993, 49.573713751548546 ], [ 6.091946706346445, 49.501872718471404 ], [ 5.981626914343622, 49.504637172856299 ], [ 5.989986042516248, 49.648320548392839 ], [ 5.87934584297864, 49.65099164115216 ], [ 5.883387971203948, 49.722827762153493 ], [ 5.661763870420653, 49.727874566228017 ], [ 5.669259245270744, 49.871541377040657 ], [ 5.558119602631319, 49.873919802830208 ], [ 5.561726659008539, 49.945746744242555 ], [ 5.227778965977921, 49.952283919233182 ], [ 5.224641591391514, 49.880448356591032 ], [ 5.113464024424972, 49.882422259540824 ], [ 5.116444761224732, 49.954260429059453 ], [ 5.005102138851874, 49.95613564576697 ], [ 5.013622319660176, 50.17161787760709 ], [ 4.678129741049268, 50.176655586032439 ], [ 4.675755859644373, 50.104828261342682 ], [ 4.564069064348567, 50.106302093861999 ], [ 4.56628481577846, 50.17813136680514 ], [ 4.342576555664148, 50.18077769472405 ], [ 4.344481358272644, 50.252603584462825 ], [ 4.232460267484825, 50.253775664597953 ], [ 4.23421137882322, 50.325596107646014 ], [ 4.346391572975993, 50.324422477225475 ], [ 4.350228331185071, 50.468038791003238 ], [ 4.237728570960302, 50.46921552933722 ], [ 4.23949469447206, 50.541014267284815 ], [ 3.338069709800691, 50.546752422063697 ], [ 3.339037406471588, 50.690342557969821 ], [ 3.226025709292605, 50.69059941877736 ], [ 3.226349665124688, 50.762383329576629 ], [ 3.0, 50.762589091363822 ], [ 3.0, 50.906133861231929 ], [ 3.227000370686739, 50.90592755360948 ], [ 3.227654828295818, 51.049439507198933 ], [ 3.0, 51.049646362406989 ], [ 3.0, 51.121390209159671 ], [ 2.658025976394456, 51.120924168537414 ], [ 2.657531587217659, 51.192658965679037 ], [ 2.54337767645685, 51.19229601135951 ] ], [ [ 7.067188204840392, 49.257035698298054 ], [ 7.176909958979175, 49.253283091228155 ], [ 7.171109026626272, 49.181462744574304 ], [ 7.06153910950767, 49.185210417974574 ], [ 7.067188204840392, 49.257035698298054 ] ], [ [ 2.452951092452761, 49.036639494967616 ], [ 2.562358353335056, 49.03708801132148 ], [ 2.564169993311585, 48.821268717105987 ], [ 2.455215603457105, 48.820821968333782 ], [ 2.455966280064332, 48.748873420702367 ], [ 2.347164081132135, 48.748328117308183 ], [ 2.34626328804343, 48.820275947013705 ], [ 2.237313461854454, 48.819630656119841 ], [ 2.235202939322949, 48.963510671096415 ], [ 2.453708018285857, 48.964705123181758 ], [ 2.452951092452761, 49.036639494967616 ] ], [ [ 8.982682131765966, 47.733574138250852 ], [ 9.08909640551073, 47.728075490342043 ], [ 9.080886006065827, 47.656283412766861 ], [ 8.974614111331706, 47.661774871698711 ], [ 8.982682131765966, 47.733574138250852 ] ], [ [ -0.612286720338307, 47.470354583278379 ], [ -0.293943023058997, 47.479799294393771 ], [ -0.289519029458365, 47.407847199096608 ], [ -0.607436307732356, 47.398414853197821 ], [ -0.612286720338307, 47.470354583278379 ] ], [ [ -0.713383241059514, 47.395077641849404 ], [ -0.607436307732356, 47.398414853197821 ], [ -0.602598894454484, 47.326472621216823 ], [ -0.708404169949882, 47.32313977776154 ], [ -0.713383241059514, 47.395077641849404 ] ], [ [ 0.558754341332255, 47.428749244556116 ], [ 0.87701276342469, 47.434992370321254 ], [ 0.879862182078089, 47.363002244163717 ], [ 0.562030410268369, 47.356767295653846 ], [ 0.558754341332255, 47.428749244556116 ] ], [ [ 2.788220145906392, 47.310128987759668 ], [ 2.894109882528484, 47.310273855477639 ], [ 2.894251692863527, 47.238253980433115 ], [ 3.0, 47.23830220649802 ], [ 3.0, 47.094256295793294 ], [ 2.8945341770854, 47.094208195969799 ], [ 2.894674854003958, 47.022182515715947 ], [ 2.78935008279381, 47.022038405445308 ], [ 2.789630685560725, 46.950011207735592 ], [ 2.579264357394976, 46.949435525109514 ], [ 2.579824057876755, 46.877407488826606 ], [ 2.68486674212695, 46.877742863371729 ], [ 2.685285407315944, 46.805712909003347 ], [ 2.475480616341053, 46.804947344925438 ], [ 2.476176520463104, 46.732917027890942 ], [ 2.371415881670197, 46.732391397524914 ], [ 2.370580812914743, 46.804421025802981 ], [ 1.951007517107546, 46.801358905345396 ], [ 1.949612190887611, 46.873383153808263 ], [ 2.054640377411616, 46.874293394290241 ], [ 2.053381196363932, 46.946317348960712 ], [ 1.948213147933431, 46.945405915484841 ], [ 1.946810373375669, 47.017427076235791 ], [ 2.052118656646595, 47.018339704440947 ], [ 2.050852744804213, 47.0903603464619 ], [ 1.945403852265573, 47.08944652178679 ], [ 1.943993569574443, 47.161464137728949 ], [ 1.83840746851617, 47.16045281436368 ], [ 1.836852061690574, 47.232467159923971 ], [ 2.048310750562444, 47.234396032377141 ], [ 2.049583447309431, 47.162379160619949 ], [ 2.366371965851465, 47.164546380872572 ], [ 2.365523432971259, 47.236566094827637 ], [ 2.788503765048404, 47.238109302492383 ], [ 2.788220145906392, 47.310128987759668 ] ], [ [ 0.040432278163869, 47.200505957289934 ], [ 0.251652727753262, 47.205711039717016 ], [ 0.255325493682817, 47.133731725615768 ], [ 0.360809726493151, 47.13618663501407 ], [ 0.371348816591805, 46.920227543747274 ], [ 0.476421792116578, 46.922577037357065 ], [ 0.473057977681036, 46.994568280750883 ], [ 0.578279783893285, 46.996824923840705 ], [ 0.575047255502095, 47.068817365628206 ], [ 0.680417962656878, 47.070980899704324 ], [ 0.689669996025764, 46.85498994304821 ], [ 0.794629094567129, 46.857049293628052 ], [ 0.797557515041836, 46.785046418105424 ], [ 1.007220206281434, 46.788872960255063 ], [ 1.004570308614678, 46.860880848748728 ], [ 1.529540325243838, 46.868784274363207 ], [ 1.531493450624877, 46.796766044277362 ], [ 1.636365119972863, 46.798057747689697 ], [ 1.638174011561981, 46.726036445998005 ], [ 1.742911420304096, 46.727230929732094 ], [ 1.744576815956337, 46.655206800152577 ], [ 1.430795387122314, 46.651341829952337 ], [ 1.432871328884465, 46.579321606899548 ], [ 1.328426319203809, 46.577844427298601 ], [ 1.330634687108712, 46.505825093321491 ], [ 1.017749803129596, 46.500828580383924 ], [ 1.02036484233512, 46.428814847614859 ], [ 0.916220676131926, 46.426961541821115 ], [ 0.918965911136007, 46.354949403782527 ], [ 0.710973774932289, 46.350963098034242 ], [ 0.713985150534509, 46.278955452055413 ], [ 0.610137450637543, 46.276822840810588 ], [ 0.600668480343445, 46.492835103062703 ], [ 0.496418162106242, 46.490599040431476 ], [ 0.48645973313119, 46.706593898051764 ], [ 0.381804100613133, 46.704253612397295 ], [ 0.385270744197886, 46.632259537153239 ], [ 0.176264096426134, 46.627299224862981 ], [ 0.172520805007571, 46.699286805361552 ], [ 0.067893874369355, 46.6966603098289 ], [ 0.064002017925709, 46.768643135394726 ], [ -0.145497717929903, 46.763096776228373 ], [ -0.153868975549325, 46.907043472564652 ], [ -0.258880524855247, 46.904119434165395 ], [ -0.26322248463422, 46.976086499028057 ], [ -0.368362063682448, 46.973062798879518 ], [ -0.377361004850759, 47.116983505349616 ], [ -0.166509697409726, 47.122950676735108 ], [ -0.162284885806483, 47.050983473426854 ], [ -0.056982495815987, 47.053819204186297 ], [ -0.061066910147017, 47.125790122855669 ], [ 0.044386800507532, 47.128533455891656 ], [ 0.040432278163869, 47.200505957289934 ] ], [ [ -2.167351013040043, 47.050762533485859 ], [ -2.06218657164409, 47.055424725821005 ], [ -2.055443757025365, 46.98354581506689 ], [ -2.160468910722773, 46.978889714194878 ], [ -2.167351013040043, 47.050762533485859 ] ], [ [ 0.466303383290413, 47.138545376748795 ], [ 0.571806088699461, 47.140807938433397 ], [ 0.575047255502095, 47.068817365628206 ], [ 0.469685186728022, 47.066557765395032 ], [ 0.466303383290413, 47.138545376748795 ] ], [ [ 3.0, 47.094256295793294 ], [ 3.105465822914601, 47.094208195969799 ], [ 3.105325145996043, 47.022182515715947 ], [ 3.0, 47.022230552556771 ], [ 3.0, 47.094256295793294 ] ], [ [ 1.420332640659739, 47.011423320983475 ], [ 1.525618448694597, 47.012816133792235 ], [ 1.527581998202168, 46.940801008923408 ], [ 1.422436335342298, 46.939410019242338 ], [ 1.420332640659739, 47.011423320983475 ] ], [ [ 2.894815156135287, 46.950155129333901 ], [ 3.0, 46.950203103283705 ], [ 3.0, 45.14929419140163 ], [ 2.898205143280459, 45.149247760717515 ], [ 2.894815156135287, 46.950155129333901 ] ], [ [ -0.878378713544105, 46.74067797194008 ], [ -0.773719412696355, 46.744166865659707 ], [ -0.768720102927943, 46.672216039048891 ], [ -0.873241193633814, 46.668731705226634 ], [ -0.878378713544105, 46.74067797194008 ] ], [ [ 5.307262367857248, 46.782989761691539 ], [ 5.412074117535457, 46.780837529184581 ], [ 5.405685949974654, 46.636838683895952 ], [ 5.301151463078155, 46.638985290126286 ], [ 5.307262367857248, 46.782989761691539 ] ], [ [ -0.768720102927943, 46.672216039048891 ], [ -0.664185793942457, 46.675605123364839 ], [ -0.659337601264433, 46.603648500760997 ], [ -0.763734011485368, 46.60026384561403 ], [ -0.768720102927943, 46.672216039048891 ] ], [ [ -0.659337601264433, 46.603648500760997 ], [ -0.554928387615909, 46.606938012999372 ], [ -0.550230585252037, 46.534975845226867 ], [ -0.654502212058667, 46.531690631753854 ], [ -0.659337601264433, 46.603648500760997 ] ], [ [ -1.366726724839945, 46.290255073481688 ], [ -1.262961398740251, 46.29418958054157 ], [ -1.257360910618323, 46.222256096869046 ], [ -1.360990463070036, 46.218326726275187 ], [ -1.366726724839945, 46.290255073481688 ] ], [ [ 3.31018163757252, 46.013318330985669 ], [ 3.413573862230577, 46.012988182288154 ], [ 3.413033041648736, 45.940949768836916 ], [ 3.309776017274414, 45.941279486091354 ], [ 3.31018163757252, 46.013318330985669 ] ], [ [ 6.409894350975894, 45.962404486131156 ], [ 6.513090181548763, 45.959247491636965 ], [ 6.50850216237107, 45.887279269809248 ], [ 6.405440763608652, 45.890432142957749 ], [ 6.409894350975894, 45.962404486131156 ] ], [ [ 1.263047999591463, 45.351927866340866 ], [ 1.365191540172206, 45.353465741564172 ], [ 1.367303908093372, 45.281445885156323 ], [ 1.265292266680062, 45.279910017222477 ], [ 1.263047999591463, 45.351927866340866 ] ], [ [ 5.85269499738141, 45.184890307545139 ], [ 5.954483536376815, 45.182242112284918 ], [ 5.95067829411647, 45.11025978633004 ], [ 5.849020622337014, 45.112904527408226 ], [ 5.85269499738141, 45.184890307545139 ] ], [ [ 1.576860175904984, 45.068174294656785 ], [ 1.678493310489136, 45.069426095387151 ], [ 1.680192240487309, 44.997405546244728 ], [ 1.578689711070742, 44.996155378916434 ], [ 1.576860175904984, 45.068174294656785 ] ], [ [ 1.680192240487309, 44.997405546244728 ], [ 1.781699132166939, 44.998563133849956 ], [ 1.783263413082474, 44.926542500989839 ], [ 1.681886808208004, 44.92538642375046 ], [ 1.680192240487309, 44.997405546244728 ] ], [ [ 1.888923956548471, 44.71154973343635 ], [ 1.989919300433705, 44.712517079937165 ], [ 1.991209665557394, 44.640500620949069 ], [ 1.890343309476355, 44.639534536208892 ], [ 1.888923956548471, 44.71154973343635 ] ], [ [ 5.827171537995908, 44.681017939372119 ], [ 5.928051009650575, 44.678393822526559 ], [ 5.924313476592237, 44.606421858360839 ], [ 5.823562549629442, 44.609042554521501 ], [ 5.827171537995908, 44.681017939372119 ] ], [ [ 1.991209665557394, 44.640500620949069 ], [ 2.09207931409245, 44.64137471219415 ], [ 2.093237715360757, 44.569359096098339 ], [ 1.99249673821632, 44.568486144901854 ], [ 1.991209665557394, 44.640500620949069 ] ], [ [ 1.891759040941246, 44.567521320172553 ], [ 1.99249673821632, 44.568486144901854 ], [ 1.993780530995209, 44.496473761455483 ], [ 1.893171164784759, 44.495510194992022 ], [ 1.891759040941246, 44.567521320172553 ] ], [ [ 6.901387172069719, 44.143622927180104 ], [ 7.001253718798541, 44.140021269485764 ], [ 6.996195578821565, 44.068110136433006 ], [ 6.896454861587454, 44.071707104596804 ], [ 6.901387172069719, 44.143622927180104 ] ], [ [ 2.307105376381134, 43.562853646241173 ], [ 2.406086278362197, 43.563440143310615 ], [ 2.406829849470866, 43.491464726796302 ], [ 2.307972858308677, 43.490878993913974 ], [ 2.307105376381134, 43.562853646241173 ] ] ], [ [ [ 5.858632152795244, 43.311360899631488 ], [ 5.855069555320148, 43.239444078035099 ], [ 5.953429962595587, 43.236797909660702 ], [ 5.957115069999644, 43.308711281767962 ], [ 5.858632152795244, 43.311360899631488 ] ] ], [ [ [ 1.441799513013025, 42.618323098461083 ], [ 1.445633140686796, 42.474516269054362 ], [ 1.542758278073729, 42.475887544127154 ], [ 1.539164083084133, 42.619697951187042 ], [ 1.441799513013025, 42.618323098461083 ] ] ], [ [ [ 2.90271987070141, 42.55771270157372 ], [ 2.902839570283977, 42.485797125086734 ], [ 3.0, 42.485841368277072 ], [ 3.0, 42.557757002451403 ], [ 2.90271987070141, 42.55771270157372 ] ] ], [ [ [ -0.462341387655462, 43.509823979887443 ], [ -0.453693356421575, 43.366016430234353 ], [ -0.7492969902058, 43.35617230729612 ], [ -0.744621496613238, 43.284286897171555 ], [ -1.1381051365765, 43.26992465846876 ], [ -1.143270211957695, 43.34179135649488 ], [ -1.340180650880936, 43.33406314316273 ], [ -1.3456037381382, 43.405923469046954 ], [ -1.444161333420961, 43.401919784524978 ], [ -1.438615764568628, 43.330064666789106 ], [ -1.83221511155868, 43.313175422888769 ], [ -1.826195162546486, 43.241345944693023 ], [ -1.727939063096734, 43.245696850519145 ], [ -1.722055741102511, 43.17386546725735 ], [ -1.525743352998431, 43.182288159481779 ], [ -1.520117529658975, 43.110449690820403 ], [ -1.618159404246707, 43.10628840429348 ], [ -1.612426361516195, 43.034459336605259 ], [ -1.51450566033404, 43.038615211763286 ], [ -1.508907693228139, 42.96678482941266 ], [ -1.117572857448258, 42.982496965711888 ], [ -1.112471555786423, 42.91065035290503 ], [ -0.721417730780159, 42.924919408592274 ], [ -0.716811417479781, 42.853058572070246 ], [ -0.521456222087022, 42.85965067006277 ], [ -0.525821089549501, 42.931520094519925 ], [ -0.330181141562829, 42.937764713145448 ], [ -0.326057880363264, 42.865887163091543 ], [ -0.032884674418407, 42.87457488131929 ], [ -0.025391393655588, 42.730810766472217 ], [ 0.072110960170295, 42.73352167375954 ], [ 0.061219118394101, 42.949185271586458 ], [ 0.256974644872736, 42.954360990131342 ], [ 0.267142171509942, 42.73867720907613 ], [ 0.657302309351567, 42.747922823260119 ], [ 0.66019390055191, 42.676025519775351 ], [ 0.95252922854581, 42.682019294985977 ], [ 0.949998564962769, 42.753924411330715 ], [ 0.754860970327623, 42.750012190987967 ], [ 0.75208280670011, 42.821916967115492 ], [ 1.142865613146046, 42.829395728757547 ], [ 1.145161207830164, 42.757481215916265 ], [ 1.53555211658358, 42.763528309761689 ], [ 1.53736032949955, 42.691610689346653 ], [ 2.024844927180042, 42.697162026233379 ], [ 2.027247426831551, 42.553327090689251 ], [ 1.832722892717333, 42.551378042149238 ], [ 1.834158976401816, 42.479470714015463 ], [ 1.737021489616508, 42.478364772563118 ], [ 1.738573365216878, 42.40646408935276 ], [ 1.932613212966926, 42.408584751853944 ], [ 1.933923210550217, 42.336686615958754 ], [ 2.127737834368926, 42.338451595992282 ], [ 2.126665953500228, 42.410352032855386 ], [ 2.029638118045012, 42.409512567323226 ], [ 2.028444243045441, 42.481417224799365 ], [ 2.319893467002652, 42.483673493659957 ], [ 2.321562969308755, 42.33986362066311 ], [ 2.709235431894853, 42.34162870230962 ], [ 2.708878099466887, 42.413533281280117 ], [ 2.805918244439216, 42.413754208119258 ], [ 2.805679434776672, 42.485664395728577 ], [ 2.61136122319103, 42.485133481488006 ], [ 2.610402467164854, 42.628968013438808 ], [ 2.415609628323488, 42.628080858772861 ], [ 2.414887919164314, 42.700004526846904 ], [ 2.512403872442223, 42.70049309638226 ], [ 2.511800950714181, 42.77242229847699 ], [ 2.41416442524407, 42.771933091853349 ], [ 2.413439139934204, 42.843866448014261 ], [ 2.511196536111238, 42.844356292582937 ], [ 2.510590623081904, 42.916294972771773 ], [ 2.608470693591325, 42.91669628059104 ], [ 2.607984753234948, 42.988640064152833 ], [ 2.50998320604713, 42.988238232962949 ], [ 2.509374279400135, 43.060185966924102 ], [ 2.411252468887186, 43.05969420335839 ], [ 2.410519951072977, 43.131645663311929 ], [ 2.312277889663509, 43.131063735840911 ], [ 2.313132476603136, 43.059113033883264 ], [ 2.018786438452114, 43.056833120411326 ], [ 2.017565696223832, 43.128780848846219 ], [ 1.919333975335215, 43.127840863994074 ], [ 1.917987857471023, 43.199791621388712 ], [ 1.819637159570142, 43.198760789846276 ], [ 1.82110559944319, 43.12681137513988 ], [ 1.526443579710278, 43.123185936818381 ], [ 1.524608260252336, 43.195130623324587 ], [ 1.327944704057392, 43.192262512419859 ], [ 1.325859695402462, 43.264207596802983 ], [ 1.030536498498528, 43.259227083797015 ], [ 1.028077847844551, 43.331169699329358 ], [ 0.633909796304888, 43.323263294278533 ], [ 0.630952853664611, 43.395199510018983 ], [ 0.039190619324663, 43.380628524808806 ], [ 0.035487070873774, 43.452549531467412 ], [ -0.063232510327117, 43.449803083112194 ], [ -0.067068725155095, 43.521724165326383 ], [ -0.462341387655462, 43.509823979887443 ] ], [ [ 2.122351957333064, 42.698005878324992 ], [ 2.219861664252083, 42.698760914816326 ], [ 2.220823902088752, 42.62683886619606 ], [ 2.123434446867931, 42.62608481290934 ], [ 2.122351957333064, 42.698005878324992 ] ], [ [ 2.41632955931748, 42.556162193256398 ], [ 2.513605259342791, 42.556649491176827 ], [ 2.514203735482024, 42.484735299159141 ], [ 2.417047718709715, 42.484248635769582 ], [ 2.41632955931748, 42.556162193256398 ] ] ], [ [ [ 8.840553322502986, 42.54193525749622 ], [ 8.826214671220152, 42.398503762145779 ], [ 8.729454426670445, 42.403760629009071 ], [ 8.708430249829915, 42.188629458083057 ], [ 8.901228373848712, 42.178069132039518 ], [ 8.8940206884857, 42.106382635146659 ], [ 8.990276655805213, 42.100978276668798 ], [ 9.034493434772992, 42.531129995029545 ], [ 8.840553322502986, 42.54193525749622 ] ] ], [ [ [ 8.886830555802785, 42.034701386816657 ], [ 8.8796579118784, 41.963025492425267 ], [ 8.975681100449764, 41.95763515701249 ], [ 8.982969993656592, 42.029304044491546 ], [ 8.886830555802785, 42.034701386816657 ] ] ] ] } },
{ "type": "Feature", "properties": { "statut_gen2": 2, "label": "Gen2 viable", "couleur": "#C0392B", "date_mise_a_jour": "2026-08-19" }, "geometry": { "type": "MultiPolygon", "coordinates": [ [ [ [ 2.452951092452761, 49.036639494967616 ], [ 2.453708018285857, 48.964705123181758 ], [ 2.235202939322949, 48.963510671096415 ], [ 2.237313461854454, 48.819630656119841 ], [ 2.34626328804343, 48.820275947013705 ], [ 2.347164081132135, 48.748328117308183 ], [ 2.455966280064332, 48.748873420702367 ], [ 2.455215603457105, 48.820821968333782 ], [ 2.564169993311585, 48.821268717105987 ], [ 2.562358353335056, 49.03708801132148 ], [ 2.452951092452761, 49.036639494967616 ] ] ], [ [ [ -0.612286720338307, 47.470354583278379 ], [ -0.607436307732356, 47.398414853197821 ], [ -0.289519029458365, 47.407847199096608 ], [ -0.293943023058997, 47.479799294393771 ], [ -0.612286720338307, 47.470354583278379 ] ] ], [ [ [ -0.713383241059514, 47.395077641849404 ], [ -0.708404169949882, 47.32313977776154 ], [ -0.602598894454484, 47.326472621216823 ], [ -0.607436307732356, 47.398414853197821 ], [ -0.713383241059514, 47.395077641849404 ] ] ], [ [ [ 0.558754341332255, 47.428749244556116 ], [ 0.562030410268369, 47.356767295653846 ], [ 0.879862182078089, 47.363002244163717 ], [ 0.87701276342469, 47.434992370321254 ], [ 0.558754341332255, 47.428749244556116 ] ] ], [ [ [ 0.466303383290413, 47.138545376748795 ], [ 0.469685186728022, 47.066557765395032 ], [ 0.575047255502095, 47.068817365628206 ], [ 0.571806088699461, 47.140807938433397 ], [ 0.466303383290413, 47.138545376748795 ] ] ], [ [ [ 3.0, 47.094256295793294 ], [ 3.0, 47.022230552556771 ], [ 3.105325145996043, 47.022182515715947 ], [ 3.105465822914601, 47.094208195969799 ], [ 3.0, 47.094256295793294 ] ] ], [ [ [ 1.420332640659739, 47.011423320983475 ], [ 1.422436335342298, 46.939410019242338 ], [ 1.527581998202168, 46.940801008923408 ], [ 1.525618448694597, 47.012816133792235 ], [ 1.420332640659739, 47.011423320983475 ] ] ], [ [ [ 1.946810373375669, 47.017427076235791 ], [ 1.948213147933431, 46.945405915484841 ], [ 2.053381196363932, 46.946317348960712 ], [ 2.052118656646595, 47.018339704440947 ], [ 1.946810373375669, 47.017427076235791 ] ] ], [ [ [ 5.415280936829433, 46.852834891294293 ], [ 5.412074117535457, 46.780837529184581 ], [ 5.516877365650333, 46.778589731805923 ], [ 5.520223334189299, 46.850584149618889 ], [ 5.415280936829433, 46.852834891294293 ] ] ], [ [ [ 2.788220145906392, 47.310128987759668 ], [ 2.788503765048404, 47.238109302492383 ], [ 2.365523432971259, 47.236566094827637 ], [ 2.366371965851465, 47.164546380872572 ], [ 2.049583447309431, 47.162379160619949 ], [ 2.048310750562444, 47.234396032377141 ], [ 1.836852061690574, 47.232467159923971 ], [ 1.83840746851617, 47.16045281436368 ], [ 1.943993569574443, 47.161464137728949 ], [ 1.945403852265573, 47.08944652178679 ], [ 2.050852744804213, 47.0903603464619 ], [ 2.052118656646595, 47.018339704440947 ], [ 2.15743031203057, 47.019156279361518 ], [ 2.15855260345217, 46.947132854877225 ], [ 2.053381196363932, 46.946317348960712 ], [ 2.054640377411616, 46.874293394290241 ], [ 1.949612190887611, 46.873383153808263 ], [ 1.951007517107546, 46.801358905345396 ], [ 2.370580812914743, 46.804421025802981 ], [ 2.371415881670197, 46.732391397524914 ], [ 2.476176520463104, 46.732917027890942 ], [ 2.475480616341053, 46.804947344925438 ], [ 2.685285407315944, 46.805712909003347 ], [ 2.68486674212695, 46.877742863371729 ], [ 2.579824057876755, 46.877407488826606 ], [ 2.579264357394976, 46.949435525109514 ], [ 2.789630685560725, 46.950011207735592 ], [ 2.78935008279381, 47.022038405445308 ], [ 2.894674854003958, 47.022182515715947 ], [ 2.8945341770854, 47.094208195969799 ], [ 3.0, 47.094256295793294 ], [ 3.0, 47.23830220649802 ], [ 2.894251692863527, 47.238253980433115 ], [ 2.894109882528484, 47.310273855477639 ], [ 2.788220145906392, 47.310128987759668 ] ] ], [ [ [ -0.878378713544105, 46.74067797194008 ], [ -0.873241193633814, 46.668731705226634 ], [ -0.768720102927943, 46.672216039048891 ], [ -0.773719412696355, 46.744166865659707 ], [ -0.878378713544105, 46.74067797194008 ] ] ], [ [ [ 5.307262367857248, 46.782989761691539 ], [ 5.301151463078155, 46.638985290126286 ], [ 5.405685949974654, 46.636838683895952 ], [ 5.412074117535457, 46.780837529184581 ], [ 5.307262367857248, 46.782989761691539 ] ] ], [ [ [ -0.768720102927943, 46.672216039048891 ], [ -0.763734011485368, 46.60026384561403 ], [ -0.659337601264433, 46.603648500760997 ], [ -0.664185793942457, 46.675605123364839 ], [ -0.768720102927943, 46.672216039048891 ] ] ], [ [ [ -0.659337601264433, 46.603648500760997 ], [ -0.654502212058667, 46.531690631753854 ], [ -0.550230585252037, 46.534975845226867 ], [ -0.554928387615909, 46.606938012999372 ], [ -0.659337601264433, 46.603648500760997 ] ] ], [ [ [ 0.040432278163869, 47.200505957289934 ], [ 0.044386800507532, 47.128533455891656 ], [ -0.061066910147017, 47.125790122855669 ], [ -0.056982495815987, 47.053819204186297 ], [ -0.162284885806483, 47.050983473426854 ], [ -0.166509697409726, 47.122950676735108 ], [ -0.377361004850759, 47.116983505349616 ], [ -0.368362063682448, 46.973062798879518 ], [ -0.26322248463422, 46.976086499028057 ], [ -0.258880524855247, 46.904119434165395 ], [ -0.153868975549325, 46.907043472564652 ], [ -0.145497717929903, 46.763096776228373 ], [ 0.064002017925709, 46.768643135394726 ], [ 0.067893874369355, 46.6966603098289 ], [ 0.172520805007571, 46.699286805361552 ], [ 0.176264096426134, 46.627299224862981 ], [ 0.385270744197886, 46.632259537153239 ], [ 0.381804100613133, 46.704253612397295 ], [ 0.48645973313119, 46.706593898051764 ], [ 0.496418162106242, 46.490599040431476 ], [ 0.600668480343445, 46.492835103062703 ], [ 0.610137450637543, 46.276822840810588 ], [ 0.713985150534509, 46.278955452055413 ], [ 0.710973774932289, 46.350963098034242 ], [ 0.918965911136007, 46.354949403782527 ], [ 0.916220676131926, 46.426961541821115 ], [ 1.02036484233512, 46.428814847614859 ], [ 1.017749803129596, 46.500828580383924 ], [ 1.330634687108712, 46.505825093321491 ], [ 1.328426319203809, 46.577844427298601 ], [ 1.432871328884465, 46.579321606899548 ], [ 1.430795387122314, 46.651341829952337 ], [ 1.744576815956337, 46.655206800152577 ], [ 1.742911420304096, 46.727230929732094 ], [ 1.638174011561981, 46.726036445998005 ], [ 1.636365119972863, 46.798057747689697 ], [ 1.531493450624877, 46.796766044277362 ], [ 1.529540325243838, 46.868784274363207 ], [ 1.004570308614678, 46.860880848748728 ], [ 1.007220206281434, 46.788872960255063 ], [ 0.797557515041836, 46.785046418105424 ], [ 0.794629094567129, 46.857049293628052 ], [ 0.689669996025764, 46.85498994304821 ], [ 0.680417962656878, 47.070980899704324 ], [ 0.575047255502095, 47.068817365628206 ], [ 0.578279783893285, 46.996824923840705 ], [ 0.473057977681036, 46.994568280750883 ], [ 0.476421792116578, 46.922577037357065 ], [ 0.371348816591805, 46.920227543747274 ], [ 0.360809726493151, 47.13618663501407 ], [ 0.255325493682817, 47.133731725615768 ], [ 0.251652727753262, 47.205711039717016 ], [ 0.040432278163869, 47.200505957289934 ] ] ], [ [ [ 3.31018163757252, 46.013318330985669 ], [ 3.309776017274414, 45.941279486091354 ], [ 3.413033041648736, 45.940949768836916 ], [ 3.413573862230577, 46.012988182288154 ], [ 3.31018163757252, 46.013318330985669 ] ] ], [ [ [ 1.263047999591463, 45.351927866340866 ], [ 1.265292266680062, 45.279910017222477 ], [ 1.367303908093372, 45.281445885156323 ], [ 1.365191540172206, 45.353465741564172 ], [ 1.263047999591463, 45.351927866340866 ] ] ], [ [ [ 1.576860175904984, 45.068174294656785 ], [ 1.578689711070742, 44.996155378916434 ], [ 1.680192240487309, 44.997405546244728 ], [ 1.678493310489136, 45.069426095387151 ], [ 1.576860175904984, 45.068174294656785 ] ] ], [ [ [ 1.367303908093372, 45.281445885156323 ], [ 1.369410824970256, 45.20942700495219 ], [ 1.267530742672355, 45.207893141491198 ], [ 1.26976344995085, 45.135877350143673 ], [ 1.168020334456475, 45.13425269473035 ], [ 1.170378156078604, 45.062240218502318 ], [ 1.068771961668093, 45.060525018551999 ], [ 1.073730115570956, 44.916508558006598 ], [ 1.479146968765459, 44.922796898649473 ], [ 1.477191879056648, 44.994812638160255 ], [ 1.375699079491327, 44.993377330737054 ], [ 1.371512311872616, 45.13740921194055 ], [ 1.575025925161999, 45.140194524218991 ], [ 1.573186940588839, 45.212215956913703 ], [ 1.47129633722461, 45.210867945854716 ], [ 1.469321000532773, 45.282888709153383 ], [ 1.367303908093372, 45.281445885156323 ] ] ], [ [ [ 1.680192240487309, 44.997405546244728 ], [ 1.681886808208004, 44.92538642375046 ], [ 1.783263413082474, 44.926542500989839 ], [ 1.781699132166939, 44.998563133849956 ], [ 1.680192240487309, 44.997405546244728 ] ] ], [ [ [ 1.888923956548471, 44.71154973343635 ], [ 1.890343309476355, 44.639534536208892 ], [ 1.991209665557394, 44.640500620949069 ], [ 1.989919300433705, 44.712517079937165 ], [ 1.888923956548471, 44.71154973343635 ] ] ], [ [ [ 1.991209665557394, 44.640500620949069 ], [ 1.99249673821632, 44.568486144901854 ], [ 2.093237715360757, 44.569359096098339 ], [ 2.09207931409245, 44.64137471219415 ], [ 1.991209665557394, 44.640500620949069 ] ] ], [ [ [ 1.891759040941246, 44.567521320172553 ], [ 1.893171164784759, 44.495510194992022 ], [ 1.993780530995209, 44.496473761455483 ], [ 1.99249673821632, 44.568486144901854 ], [ 1.891759040941246, 44.567521320172553 ] ] ], [ [ [ -0.610857596022163, 44.29774797920259 ], [ -0.606279928713259, 44.225813824283975 ], [ -0.506238986814384, 44.229055782008487 ], [ -0.510690005605743, 44.300994165275362 ], [ -0.610857596022163, 44.29774797920259 ] ] ], [ [ [ 7.477727630751226, 43.833121615239506 ], [ 7.472098118237852, 43.761246717022644 ], [ 7.571258585359778, 43.757126631849161 ], [ 7.577012368620105, 43.82899616217167 ], [ 7.477727630751226, 43.833121615239506 ] ] ], [ [ [ 2.307105376381134, 43.562853646241173 ], [ 2.307972858308677, 43.490878993913974 ], [ 2.406829849470866, 43.491464726796302 ], [ 2.406086278362197, 43.563440143310615 ], [ 2.307105376381134, 43.562853646241173 ] ] ], [ [ [ 6.334314632450079, 43.009646648439784 ], [ 6.330181141562829, 42.937764713145448 ], [ 6.428006379703315, 42.934686919965323 ], [ 6.432260991864223, 43.006564844887095 ], [ 6.334314632450079, 43.009646648439784 ] ] ], [ [ [ -1.181184371537038, 46.585774154631835 ], [ -1.175661835815163, 46.513839638999585 ], [ -1.384026318256851, 46.506034624267194 ], [ -1.372478081508555, 46.362182581319033 ], [ -1.16466037379147, 46.369967223547384 ], [ -1.159181332957598, 46.29802955130036 ], [ -1.055386882960354, 46.301774965959432 ], [ -1.044743319328399, 46.157887486567539 ], [ -0.941206372617049, 46.161528798164397 ], [ -0.925749931807927, 45.945679187050885 ], [ -1.132000766797377, 45.938331083755529 ], [ -1.137408448552315, 46.010271747347574 ], [ -1.240647307120359, 46.00645178755731 ], [ -1.246203922260006, 46.078387087128711 ], [ -1.452907134594759, 46.070454700317413 ], [ -1.447081144964077, 45.99852975235067 ], [ -1.343871655814583, 46.002537782537686 ], [ -1.332533513404009, 45.858676366584902 ], [ -1.229577549904996, 45.862580164198064 ], [ -1.213080750564226, 45.646771859940635 ], [ -1.110510536660205, 45.650566965242206 ], [ -1.105172830179991, 45.578626132189008 ], [ -1.002721478018578, 45.582322954587511 ], [ -0.997530009244003, 45.510377603173573 ], [ -0.895197625082475, 45.513976373623926 ], [ -0.890151710648086, 45.442026750673477 ], [ -0.992351978075954, 45.438432673736457 ], [ -0.966661573551827, 45.07871826637512 ], [ -1.169711363705539, 45.071299352917841 ], [ -1.15367694445683, 44.855511876649139 ], [ -1.355894050350275, 44.847753498466851 ], [ -1.311687230446379, 44.272470837500435 ], [ -1.41175284479867, 44.268495198037975 ], [ -1.389480740106342, 43.980925660387221 ], [ -1.489029236012378, 43.976880055478887 ], [ -1.466482728000848, 43.689374844927045 ], [ -1.565519234047753, 43.685260120352879 ], [ -1.554083610858859, 43.541536587569873 ], [ -1.652858848965127, 43.537342679246777 ], [ -1.647039483971634, 43.465491329790687 ], [ -1.745677214821015, 43.461213130642562 ], [ -1.739749745014856, 43.389370789886463 ], [ -1.838250078457568, 43.385008545986381 ], [ -1.83221511155868, 43.313175422888769 ], [ -1.438615764568628, 43.330064666789106 ], [ -1.444161333420961, 43.401919784524978 ], [ -1.3456037381382, 43.405923469046954 ], [ -1.340180650880936, 43.33406314316273 ], [ -1.143270211957695, 43.34179135649488 ], [ -1.1381051365765, 43.26992465846876 ], [ -0.744621496613238, 43.284286897171555 ], [ -0.7492969902058, 43.35617230729612 ], [ -0.453693356421575, 43.366016430234353 ], [ -0.462341387655462, 43.509823979887443 ], [ -0.067068725155095, 43.521724165326383 ], [ -0.063232510327117, 43.449803083112194 ], [ 0.035487070873774, 43.452549531467412 ], [ 0.039190619324663, 43.380628524808806 ], [ 0.630952853664611, 43.395199510018983 ], [ 0.633909796304888, 43.323263294278533 ], [ 1.028077847844551, 43.331169699329358 ], [ 1.030536498498528, 43.259227083797015 ], [ 1.325859695402462, 43.264207596802983 ], [ 1.327944704057392, 43.192262512419859 ], [ 1.524608260252336, 43.195130623324587 ], [ 1.526443579710278, 43.123185936818381 ], [ 1.82110559944319, 43.12681137513988 ], [ 1.819637159570142, 43.198760789846276 ], [ 1.917987857471023, 43.199791621388712 ], [ 1.919333975335215, 43.127840863994074 ], [ 2.017565696223832, 43.128780848846219 ], [ 2.018786438452114, 43.056833120411326 ], [ 2.313132476603136, 43.059113033883264 ], [ 2.312277889663509, 43.131063735840911 ], [ 2.410519951072977, 43.131645663311929 ], [ 2.411252468887186, 43.05969420335839 ], [ 2.509374279400135, 43.060185966924102 ], [ 2.50998320604713, 42.988238232962949 ], [ 2.607984753234948, 42.988640064152833 ], [ 2.608470693591325, 42.91669628059104 ], [ 2.510590623081904, 42.916294972771773 ], [ 2.511196536111238, 42.844356292582937 ], [ 2.413439139934204, 42.843866448014261 ], [ 2.41416442524407, 42.771933091853349 ], [ 2.511800950714181, 42.77242229847699 ], [ 2.512403872442223, 42.70049309638226 ], [ 2.414887919164314, 42.700004526846904 ], [ 2.415609628323488, 42.628080858772861 ], [ 2.610402467164854, 42.628968013438808 ], [ 2.61136122319103, 42.485133481488006 ], [ 2.805679434776672, 42.485664395728577 ], [ 2.805918244439216, 42.413754208119258 ], [ 2.902958975656933, 42.413886764647259 ], [ 2.90271987070141, 42.55771270157372 ], [ 3.0, 42.557757002451403 ], [ 3.0, 42.413930950227325 ], [ 3.194081755560785, 42.413754208119258 ], [ 3.194559963299746, 42.557579799154041 ], [ 3.09728012929859, 42.55771270157372 ], [ 3.098248449289399, 43.133212421610189 ], [ 3.196496594375203, 43.133078126299345 ], [ 3.196741387464696, 43.205035714663779 ], [ 3.295111317847897, 43.204811597923502 ], [ 3.295479420642223, 43.276773049769332 ], [ 3.590950566472586, 43.275561256479705 ], [ 3.591688579895704, 43.347525176166151 ], [ 3.690298677752777, 43.346940968545248 ], [ 3.69116182911166, 43.418908065584581 ], [ 3.789893058072009, 43.418233108209655 ], [ 3.790881963512434, 43.490203156003098 ], [ 3.889734306203176, 43.489437216373048 ], [ 3.890849584098803, 43.561409987693494 ], [ 4.088793347140292, 43.559605467599141 ], [ 4.087430315275324, 43.48763504739852 ], [ 4.482778959017094, 43.482949683387062 ], [ 4.479076126685044, 43.339032304529006 ], [ 4.873364010693805, 43.332921840086321 ], [ 4.875705709179613, 43.404870651259003 ], [ 4.974386947891581, 43.403116225421876 ], [ 4.97192215215545, 43.331169699329358 ], [ 5.267558480568791, 43.32537455299024 ], [ 5.264731600048892, 43.253439484534013 ], [ 5.363140631108951, 43.251330975139275 ], [ 5.36019840106508, 43.179402659700436 ], [ 5.458477729825283, 43.177207374458469 ], [ 5.45542075880908, 43.105286028015087 ], [ 5.749845824825869, 43.098172426094813 ], [ 5.746431357213305, 43.026264554225733 ], [ 6.040415147626327, 43.018357023566509 ], [ 6.036645244690227, 42.946463752206974 ], [ 6.232345673766006, 42.94075345915688 ], [ 6.236358005285926, 43.012639289006479 ], [ 6.334314632450079, 43.009646648439784 ], [ 6.338458391118883, 43.081532862367148 ], [ 6.436526171552074, 43.078447043041983 ], [ 6.432260991864223, 43.006564844887095 ], [ 6.53019678378388, 43.003393893290408 ], [ 6.534583345095863, 43.075271959739297 ], [ 6.632629611089723, 43.072007627871095 ], [ 6.637148721563671, 43.143885601887376 ], [ 6.735305379304862, 43.140527667965756 ], [ 6.7492969902058, 43.35617230729612 ], [ 6.847808578607541, 43.352711548719292 ], [ 6.852618521691036, 43.424596169758608 ], [ 6.951240847507737, 43.421041120691605 ], [ 6.956185850039171, 43.492924716147236 ], [ 7.15363910522851, 43.485535730453265 ], [ 7.164059978577222, 43.629294023248029 ], [ 7.361954537069164, 43.62152545872182 ], [ 7.367432152739566, 43.693399432687151 ], [ 7.466482728000849, 43.689374844927045 ], [ 7.472098118237852, 43.761246717022644 ], [ 7.174533223490616, 43.773065370715337 ], [ 7.179789608698993, 43.844955669240242 ], [ 7.080450036391678, 43.84871952083887 ], [ 7.070199100794683, 43.704932179898115 ], [ 6.971095339073585, 43.708596027412696 ], [ 6.966113049176826, 43.636702277494663 ], [ 6.669099859570597, 43.64713876133478 ], [ 6.664501110017222, 43.575234704387782 ], [ 6.16987158128743, 43.590805038533944 ], [ 6.17385103922731, 43.662729392627291 ], [ 6.074770038102249, 43.665576852979868 ], [ 6.078635208764199, 43.737508242708962 ], [ 5.979420196817073, 43.740269042690016 ], [ 5.990699360809053, 43.956092913243161 ], [ 5.89109998494013, 43.958773788164279 ], [ 5.887456089036294, 43.886825961691493 ], [ 5.78797284113206, 43.889412709241867 ], [ 5.780962246364817, 43.745519469529228 ], [ 5.483210187808198, 43.752716986755196 ], [ 5.486336766474118, 43.824671431110346 ], [ 5.188139475958517, 43.831063247061486 ], [ 5.190898417779867, 43.903029168337532 ], [ 5.389954446435037, 43.898853097117282 ], [ 5.392971356625438, 43.97081661206667 ], [ 5.094000163174266, 43.976952645906792 ], [ 5.096647200875186, 44.048927092672592 ], [ 5.196437220660396, 44.046970028023701 ], [ 5.202004092499652, 44.190922186977389 ], [ 5.101961399223531, 44.192884362555965 ], [ 5.104628610915518, 44.264866968102005 ], [ 5.204798121023321, 44.262902231784082 ], [ 5.207599247151234, 44.334884774838578 ], [ 5.107302598531779, 44.336852075424702 ], [ 5.109983387919869, 44.408839575370926 ], [ 5.00955245015531, 44.410717887464749 ], [ 5.012112255631392, 44.482710122665573 ], [ 4.91154697786811, 44.484499201591419 ], [ 4.916429547675547, 44.628494768879818 ], [ 5.017251476654911, 44.626701015297904 ], [ 5.030215096985959, 44.986710585887565 ], [ 5.131677712335277, 44.984812562836225 ], [ 5.137171160897535, 45.128822051144155 ], [ 4.933716697292797, 45.132535253901963 ], [ 4.936211777216673, 45.204546678380275 ], [ 4.834343570930947, 45.206266363226057 ], [ 4.839089727413986, 45.350296833428402 ], [ 5.043346375807468, 45.346755328079311 ], [ 5.045993037116287, 45.418767279005074 ], [ 4.841472026021346, 45.422313412982746 ], [ 4.843860503419068, 45.494330740500835 ], [ 4.946256806018535, 45.492602048016202 ], [ 4.951318499151832, 45.636633978192698 ], [ 5.259264751619164, 45.630872599891269 ], [ 5.262206037406597, 45.702881703254263 ], [ 5.467732823966649, 45.698567140182192 ], [ 5.470949360227761, 45.770570889971296 ], [ 5.368056197265598, 45.772777908475021 ], [ 5.374245883072309, 45.916791574050144 ], [ 5.271076012539874, 45.918910290138463 ], [ 5.268111637785309, 45.846900660482476 ], [ 5.165068547194173, 45.848922643139502 ], [ 5.167898385286008, 45.920934917196163 ], [ 5.064713352800837, 45.922865444847339 ], [ 5.062018080318323, 45.850850649196673 ], [ 4.855896418935058, 45.85442469252127 ], [ 4.858322478848009, 45.926444162833548 ], [ 4.755117341090012, 45.928092334824328 ], [ 4.764343218738027, 46.216177383920851 ], [ 4.868090467752386, 46.214520569129228 ], [ 4.870548528068158, 46.286538738850489 ], [ 5.078296075989042, 46.282936547395508 ], [ 5.083779323868074, 46.426961541821115 ], [ 5.187916239361271, 46.425013261982961 ], [ 5.19080614287717, 46.49702201782209 ], [ 4.982250196870406, 46.500828580383924 ], [ 4.984872152535305, 46.572841371630417 ], [ 4.776012840828068, 46.576271989359903 ], [ 4.768992619586058, 46.360217464854905 ], [ 4.664966033622921, 46.361783742392291 ], [ 4.660589876847324, 46.217739569240656 ], [ 4.556830799830995, 46.219207117033577 ], [ 4.550716775935429, 46.003131796835376 ], [ 4.65406859920754, 46.001669995103683 ], [ 4.64117848219581, 45.569530055990867 ], [ 4.743719773820641, 45.567986141920237 ], [ 4.739202081091878, 45.423946577707461 ], [ 4.636926299972132, 45.42548646304472 ], [ 4.634808459827795, 45.353465741564172 ], [ 4.736952000408538, 45.351927866340866 ], [ 4.721362964438644, 44.847827243528286 ], [ 4.620135622648582, 44.849351126600396 ], [ 4.613927571834281, 44.633324395302907 ], [ 4.412232714431955, 44.636084371639271 ], [ 4.414038942246842, 44.708095062947436 ], [ 4.21206775197315, 44.710490278156797 ], [ 4.208975048724193, 44.566464626729783 ], [ 4.108240959058755, 44.567521320172553 ], [ 4.106828835215242, 44.495510194992022 ], [ 4.006219469004792, 44.496473761455483 ], [ 4.003661673068083, 44.352455710279543 ], [ 3.903304748260436, 44.353325250787087 ], [ 3.901014334879267, 44.209314616347662 ], [ 3.800908926244342, 44.210090610394595 ], [ 3.797874243468197, 43.994091701601015 ], [ 3.698145531780114, 43.994773736988549 ], [ 3.699028430161157, 44.06677144059443 ], [ 3.599171378460408, 44.067363316280165 ], [ 3.596155662256226, 43.77938766793465 ], [ 3.298082078827755, 43.78061057177154 ], [ 3.297707466928751, 43.708623031664594 ], [ 3.099236240269648, 43.708984906519625 ], [ 3.099111681529393, 43.637000299277098 ], [ 3.0, 43.637045474852684 ], [ 3.0, 43.565064321562112 ], [ 2.901012564917245, 43.565019204854288 ], [ 2.901136500243268, 43.493041730832253 ], [ 2.802273310439044, 43.492906557292493 ], [ 2.802520560022835, 43.420932987225761 ], [ 2.50630680378156, 43.419988014549958 ], [ 2.506923363574078, 43.348019510520565 ], [ 2.112487893390128, 43.345502945356138 ], [ 2.111378182810675, 43.417468166494288 ], [ 2.012652202119068, 43.416613244179217 ], [ 2.011416139979119, 43.488581178774332 ], [ 2.209118036487566, 43.490203156003098 ], [ 2.208126651909003, 43.562176926596109 ], [ 2.307105376381134, 43.562853646241173 ], [ 2.305363871769773, 43.70681369297256 ], [ 2.206136407954524, 43.7061352062521 ], [ 2.204136134827763, 43.850107085829301 ], [ 2.303613591216878, 43.850787344455455 ], [ 2.301854468219886, 43.994773736988549 ], [ 1.603818070062165, 43.988090153552506 ], [ 1.602052687822751, 44.060079134063727 ], [ 1.701887385547827, 44.061308272393177 ], [ 1.700243880645766, 44.133301705461136 ], [ 1.900178149232109, 44.135489760018828 ], [ 1.897386027949218, 44.279490459054358 ], [ 1.797163253901335, 44.278439266394038 ], [ 1.795634528818664, 44.350442090124098 ], [ 1.895984644622346, 44.351494655131518 ], [ 1.894579694778067, 44.423501270186918 ], [ 1.794101913278841, 44.422447330936819 ], [ 1.792565392412848, 44.4944548795985 ], [ 1.390184768523052, 44.489316240863552 ], [ 1.38607242816572, 44.633324395302907 ], [ 1.486917388533588, 44.634750365839182 ], [ 1.483042128101699, 44.778770126881824 ], [ 1.381939026656657, 44.777340429384473 ], [ 1.379864377351419, 44.849351126600396 ], [ 1.1774153522669, 44.846211049902656 ], [ 1.179749072142814, 44.774204448506353 ], [ 1.078662880966834, 44.772498180848416 ], [ 1.076199659631253, 44.844502553837394 ], [ 0.772591845499194, 44.838823339083646 ], [ 0.769732952252343, 44.910821926001965 ], [ 0.871058437709112, 44.912809868920235 ], [ 0.868322287664723, 44.984812562836225 ], [ 0.969784903014041, 44.986710585887565 ], [ 0.967172163450138, 45.058717162828962 ], [ 1.068771961668093, 45.060525018551999 ], [ 1.066283302707204, 45.132535253901963 ], [ 1.168020334456475, 45.13425269473035 ], [ 1.160910272586014, 45.350296833428402 ], [ 0.956653624192532, 45.346755328079311 ], [ 0.954006962883714, 45.418767279005074 ], [ 0.749513405845202, 45.414848133106922 ], [ 0.746594940390715, 45.486855703135554 ], [ 0.64422688564213, 45.484753531481466 ], [ 0.641168072909899, 45.556758976610617 ], [ 0.538675199323777, 45.554560591128336 ], [ 0.52905063977224, 45.770570889971296 ], [ 0.631943802734402, 45.772777908475021 ], [ 0.628852998027403, 45.844784711573212 ], [ 0.731888362214691, 45.846900660482476 ], [ 0.725951855957668, 45.990919870782555 ], [ 0.829264371365585, 45.992947146002386 ], [ 0.826419693662226, 46.064959217114335 ], [ 0.722971937230777, 46.062929289960067 ], [ 0.719984200643096, 46.134938435076769 ], [ 0.40928265906792, 46.128273980258314 ], [ 0.402467215965673, 46.272273546204488 ], [ 0.298645397247793, 46.269856886319069 ], [ 0.295087682924365, 46.341852625769576 ], [ 0.191138711144355, 46.339338021322959 ], [ 0.18743476220102, 46.411329727186036 ], [ -0.124762613612167, 46.403206737495942 ], [ -0.128887747355472, 46.475186952207572 ], [ -0.441398430517095, 46.466198560004614 ], [ -0.445946567011411, 46.538166022798656 ], [ -0.550230585252037, 46.534975845226867 ], [ -0.545545174365291, 46.463012551119583 ], [ -0.753801274590595, 46.456355814345322 ], [ -0.758761086052972, 46.528310399407935 ], [ -0.967239131429972, 46.521264948659628 ], [ -0.97248697177328, 46.593209177351284 ], [ -1.181184371537038, 46.585774154631835 ] ], [ [ -0.228807170973469, 46.400309352848588 ], [ -0.124762613612167, 46.403206737495942 ], [ -0.120648337065262, 46.331225646576812 ], [ -0.22455620224506, 46.32833204774979 ], [ -0.228807170973469, 46.400309352848588 ] ], [ [ -0.120648337065262, 46.331225646576812 ], [ -0.016729657511474, 46.334024518003282 ], [ -0.012762572001825, 46.262039007419183 ], [ -0.116544874929746, 46.259243792845943 ], [ -0.120648337065262, 46.331225646576812 ] ], [ [ -0.008805901407207, 46.190052852505801 ], [ 0.094850755769568, 46.192749920600662 ], [ 0.098661347511844, 46.120759711282709 ], [ -0.004859604787272, 46.118066166366091 ], [ -0.008805901407207, 46.190052852505801 ] ], [ [ -0.315359046037811, 46.109419359779409 ], [ -0.211870155599207, 46.112395976036424 ], [ -0.207663614116933, 46.040416277105699 ], [ -0.104298950498502, 46.043294786659203 ], [ -0.092148836884561, 45.827342984071585 ], [ -0.195109805972139, 45.824475735202071 ], [ -0.199283482243117, 45.896456044043582 ], [ -0.302367753782124, 45.893491072921456 ], [ -0.315359046037811, 46.109419359779409 ] ], [ [ -0.503926103412843, 45.81531094029409 ], [ -0.40099878734501, 45.818459697937826 ], [ -0.396568376864516, 45.746487263537631 ], [ -0.499361957998057, 45.743342615574363 ], [ -0.503926103412843, 45.81531094029409 ] ], [ [ -0.615446891384022, 44.369684456526834 ], [ -0.515152332037443, 44.372934876767864 ], [ -0.510690005605743, 44.300994165275362 ], [ -0.210120671462403, 44.310185107858416 ], [ -0.197939087884586, 44.094341509782517 ], [ -0.597159302048883, 44.081952918877789 ], [ -0.601713845350292, 44.153882101111492 ], [ -0.701616917910708, 44.150553360140613 ], [ -0.696936406959426, 44.078628512921753 ], [ -0.796701698924808, 44.075213235868326 ], [ -0.791907394523296, 44.003295479835245 ], [ -0.891534996573345, 43.999793913712558 ], [ -0.896454861587454, 44.071707104596804 ], [ -0.996195578821565, 44.068110136433006 ], [ -1.006324668568627, 44.211934918712444 ], [ -0.806326741804388, 44.219056552720474 ], [ -0.811157572620612, 44.290981895238374 ], [ -0.610857596022163, 44.29774797920259 ], [ -0.615446891384022, 44.369684456526834 ] ], [ [ -1.090752690705627, 43.99251864241517 ], [ -0.991150200201803, 43.996201628664117 ], [ -0.986117534747033, 43.924295855140258 ], [ -1.085594874299054, 43.920617663368752 ], [ -1.090752690705627, 43.99251864241517 ] ], [ [ -0.393279304312138, 44.016394216143553 ], [ -0.293594438760883, 44.019441937343025 ], [ -0.28943910643153, 43.947505902289258 ], [ -0.388998510194251, 43.9444621503091 ], [ -0.393279304312138, 44.016394216143553 ] ], [ [ -0.956185850039171, 43.492924716147236 ], [ -0.857440495559667, 43.496484397607617 ], [ -0.847808578607541, 43.352711548719292 ], [ -0.946308181194767, 43.349161125778835 ], [ -0.956185850039171, 43.492924716147236 ] ], [ [ 1.023142088227857, 43.475066554860433 ], [ 1.121946731883064, 43.476823268880381 ], [ 1.124294290820388, 43.404870651259003 ], [ 1.025613052108419, 43.403116225421876 ], [ 1.023142088227857, 43.475066554860433 ] ], [ [ 5.858632152795244, 43.311360899631488 ], [ 5.957115069999644, 43.308711281767962 ], [ 5.953429962595587, 43.236797909660702 ], [ 5.855069555320148, 43.239444078035099 ], [ 5.858632152795244, 43.311360899631488 ] ], [ [ 6.142292213200558, 43.087436649593755 ], [ 6.240380304652747, 43.084529402734113 ], [ 6.236358005285926, 43.012639289006479 ], [ 6.138391410305499, 43.01554275207566 ], [ 6.142292213200558, 43.087436649593755 ] ] ], [ [ [ 8.959529527436457, 42.751737358175795 ], [ 8.952179081698437, 42.680012685270505 ], [ 8.85496259469836, 42.685385241645683 ], [ 8.847749098478053, 42.613657991679986 ], [ 8.65350100112501, 42.624124589805959 ], [ 8.632676942170258, 42.408929633398742 ], [ 8.535882503933051, 42.414010750576495 ], [ 8.502100723755037, 42.055418041367851 ], [ 8.598308432271738, 42.050369834613626 ], [ 8.591484913843077, 41.978673595495273 ], [ 8.495393703017662, 41.983715246219973 ], [ 8.488702987679186, 41.912017945648365 ], [ 8.584677981194792, 41.906982842316474 ], [ 8.577887574029033, 41.835297680071697 ], [ 8.673730164182642, 41.830182132581434 ], [ 8.659967763966938, 41.686842276474152 ], [ 8.755562809142008, 41.681653271176273 ], [ 8.741637200718639, 41.538350465469776 ], [ 8.836985771406724, 41.533088439789367 ], [ 8.829933784746244, 41.46145296011818 ], [ 8.925150989787294, 41.456111416185372 ], [ 8.975681100449764, 41.95763515701249 ], [ 8.8796579118784, 41.963025492425267 ], [ 8.886830555802785, 42.034701386816657 ], [ 8.982969993656592, 42.029304044491546 ], [ 8.990276655805213, 42.100978276668798 ], [ 8.8940206884857, 42.106382635146659 ], [ 8.901228373848712, 42.178069132039518 ], [ 8.708430249829915, 42.188629458083057 ], [ 8.729454426670445, 42.403760629009071 ], [ 8.826214671220152, 42.398503762145779 ], [ 8.840553322502986, 42.54193525749622 ], [ 9.034493434772992, 42.531129995029545 ], [ 9.056847036134316, 42.746269434824093 ], [ 8.959529527436457, 42.751737358175795 ] ] ] ] } }
]
}
