{
"type": "FeatureCollection",
"name": "mono_bivoltB_gen2_20260722_WGS84",
"crs": { "type": "name", "properties": { "name": "urn:ogc:def:crs:OGC:1.3:CRS84" } },
"features": [
{ "type": "Feature", "properties": { "statut_gen2": 0, "label": "Inactif (gen1 non atteinte)", "couleur": "#E8E8E8", "date_mise_a_jour": "2026-07-22" }, "geometry": { "type": "MultiPolygon", "coordinates": [ [ [ [ 6.978645791952724, 48.107243378695557 ], [ 6.973239611505957, 48.035345061732492 ], [ 7.080435903407823, 48.031675320718428 ], [ 7.085987426394398, 48.10356882145917 ], [ 6.978645791952724, 48.107243378695557 ] ] ], [ [ [ 9.251229291004265, 47.286076877327886 ], [ 9.242869975501545, 47.214281512214228 ], [ 9.137487918834809, 47.219921787646662 ], [ 9.129290473013802, 47.148116457673851 ], [ 9.444950933991864, 47.130930664725959 ], [ 9.462205841962898, 47.274493769145479 ], [ 9.251229291004265, 47.286076877327886 ] ] ], [ [ [ 9.558880992516615, 47.196785879752262 ], [ 9.532684974745946, 46.981453065542659 ], [ 9.637559121412027, 46.97545323725609 ], [ 9.664171722230673, 47.190762502045587 ], [ 9.558880992516615, 47.196785879752262 ] ] ], [ [ [ 7.020349279008061, 47.240636543929178 ], [ 7.014974415317454, 47.168707828446685 ], [ 6.909492101296244, 47.17232032568829 ], [ 6.904271944526051, 47.100384702521602 ], [ 7.220254565934531, 47.089273522657038 ], [ 7.225895650375084, 47.161194594754363 ], [ 7.120442389447722, 47.164999244980294 ], [ 7.125957936168368, 47.236923103023493 ], [ 7.020349279008061, 47.240636543929178 ] ] ], [ [ [ 8.160468910722773, 46.978889714194878 ], [ 8.153605089785703, 46.907014855180691 ], [ 8.258473114027847, 46.902269365728728 ], [ 8.265475783104373, 46.974138017797287 ], [ 8.160468910722773, 46.978889714194878 ] ] ], [ [ [ 8.04871885687044, 46.911664873394116 ], [ 8.04201179997786, 46.83978201581597 ], [ 8.146759477585721, 46.83513807148281 ], [ 8.153605089785703, 46.907014855180691 ], [ 8.04871885687044, 46.911664873394116 ] ] ], [ [ [ 9.515336642366401, 46.837886234370487 ], [ 9.506696905159485, 46.766099678976154 ], [ 9.611157728964487, 46.760123298549836 ], [ 9.619934880563566, 46.83190204921943 ], [ 9.515336642366401, 46.837886234370487 ] ] ], [ [ [ 8.700488158065038, 47.097854571740491 ], [ 8.692890551331645, 47.026016277032184 ], [ 8.79793935507081, 47.02078014788249 ], [ 8.790223110712038, 46.948946488649952 ], [ 8.68531313485062, 46.954175780614854 ], [ 8.677755828385909, 46.882333197805977 ], [ 8.572964285782724, 46.887460319847527 ], [ 8.580383049043524, 46.959309606050198 ], [ 8.475433218198924, 46.96434793817177 ], [ 8.468153076525352, 46.892492072579628 ], [ 8.36332256450719, 46.897428429782813 ], [ 8.356200059900635, 46.825564166109558 ], [ 8.251489018779337, 46.830398780021945 ], [ 8.203114277847245, 46.32726017460449 ], [ 8.306866545941016, 46.322469561529701 ], [ 8.320868999394751, 46.46621772476125 ], [ 8.424874920827866, 46.461319904963787 ], [ 8.432040385694748, 46.533185761055854 ], [ 8.952461671260179, 46.507243520643037 ], [ 8.944614682501296, 46.435411508030185 ], [ 9.256213903107252, 46.418732003338555 ], [ 9.247980648250007, 46.34692042578444 ], [ 9.455334806178968, 46.335343643415825 ], [ 9.506696905159485, 46.766099678976154 ], [ 9.402213249812785, 46.7719810712072 ], [ 9.393733490764776, 46.700184905775501 ], [ 9.28936459771108, 46.705963731715244 ], [ 9.306071759287237, 46.849569240114633 ], [ 9.515336642366401, 46.837886234370487 ], [ 9.532684974745946, 46.981453065542659 ], [ 9.427787723130928, 46.987357535762442 ], [ 9.436357912066256, 47.059145295387722 ], [ 9.121114851759446, 47.076308654085302 ], [ 9.112960968204861, 47.00449849259801 ], [ 9.007974928769896, 47.010021227575699 ], [ 9.01598986914647, 47.081838608520577 ], [ 8.700488158065038, 47.097854571740491 ] ] ], [ [ [ 6.798916086990234, 47.103896494877858 ], [ 6.793849891086679, 47.03195421799095 ], [ 6.688620599821818, 47.035365544335406 ], [ 6.683707621106183, 46.963416867005662 ], [ 6.473489693120757, 46.969943282532128 ], [ 6.478123050383925, 47.041900507083916 ], [ 6.37285553552605, 47.045024109264197 ], [ 6.363880541491059, 46.901099688859745 ], [ 6.258880524855247, 46.904119434165395 ], [ 6.254550097787106, 46.832150689921932 ], [ 6.044794358326434, 46.837895521137973 ], [ 6.036722756869577, 46.693938437676863 ], [ 5.932106125630646, 46.6966603098289 ], [ 5.924353270237507, 46.55269081047534 ], [ 5.820002506307373, 46.555310442514156 ], [ 5.805167078658805, 46.267345567841438 ], [ 5.908969854194805, 46.264739603727328 ], [ 5.916641287164496, 46.408716938914793 ], [ 6.124762613612168, 46.403206737495942 ], [ 6.128887747355473, 46.475186952207572 ], [ 6.233069356424845, 46.472285776307487 ], [ 6.237342803028033, 46.544261204576372 ], [ 6.341650518973923, 46.541261147931074 ], [ 6.354953156016334, 46.757168527890265 ], [ 6.459663346824372, 46.754061233569637 ], [ 6.464259890254115, 46.826023531297579 ], [ 6.569096636766552, 46.822816618842367 ], [ 6.573844499544686, 46.894773141121803 ], [ 6.783757897861796, 46.888063961509538 ], [ 6.788797179284139, 46.960010001955261 ], [ 6.893873307129364, 46.956507388962734 ], [ 6.904271944526051, 47.100384702521602 ], [ 6.798916086990234, 47.103896494877858 ] ] ], [ [ [ 6.088119896313838, 45.755358954057201 ], [ 6.080093414617566, 45.611391424181349 ], [ 6.182653825225783, 45.608535388223906 ], [ 6.190946999264509, 45.752495448112811 ], [ 6.088119896313838, 45.755358954057201 ] ] ], [ [ [ 3.719969871141291, 45.723286658493798 ], [ 3.71903331769323, 45.651250907905556 ], [ 3.821745410310949, 45.650548082190923 ], [ 3.82281572990561, 45.72258291356804 ], [ 3.719969871141291, 45.723286658493798 ] ] ], [ [ [ 5.761582420416038, 45.403418881878629 ], [ 5.758011396607568, 45.331426960947326 ], [ 5.860072241528434, 45.328864883629542 ], [ 5.863775184349298, 45.400853457205514 ], [ 5.761582420416038, 45.403418881878629 ] ] ], [ [ [ 5.65594133194832, 45.333895984454536 ], [ 5.652511142852697, 45.26190166674477 ], [ 5.754449592568248, 45.259435864648879 ], [ 5.758011396607568, 45.331426960947326 ], [ 5.65594133194832, 45.333895984454536 ] ] ], [ [ [ 2.59282395656932, 45.148551305146391 ], [ 2.593348184778203, 45.076520169550221 ], [ 2.796672744234753, 45.077076606113707 ], [ 2.796410624909714, 45.149108468899698 ], [ 2.59282395656932, 45.148551305146391 ] ] ], [ [ [ 3.30459787642827, 45.004814526738016 ], [ 3.303816564954734, 44.860758497343227 ], [ 3.405087198519087, 44.860435179053795 ], [ 3.406128935124802, 45.004490363023855 ], [ 3.30459787642827, 45.004814526738016 ] ] ], [ [ [ 4.116789949116252, 44.999628135902839 ], [ 4.115355970495478, 44.927606113448697 ], [ 4.013971676542573, 44.92857725577808 ], [ 4.012671357869572, 44.85655550737286 ], [ 4.215176317562793, 44.854523407280091 ], [ 4.218300867833061, 44.998563133849956 ], [ 4.116789949116252, 44.999628135902839 ] ] ], [ [ [ 5.445449355988582, 45.19455497608525 ], [ 5.426666987037821, 44.76258442635902 ], [ 5.527710430419429, 44.760325261782661 ], [ 5.54727381458464, 45.192278050702093 ], [ 5.445449355988582, 45.19455497608525 ] ] ], [ [ [ 5.527710430419429, 44.760325261782661 ], [ 5.524479034235396, 44.688338503940166 ], [ 5.625385222030431, 44.685990292515854 ], [ 5.628745593526735, 44.757973984651159 ], [ 5.527710430419429, 44.760325261782661 ] ] ], [ [ [ 3.911413715725059, 44.85743302828083 ], [ 3.907920685907551, 44.64137471219415 ], [ 4.008790334442607, 44.640500620949069 ], [ 4.012671357869572, 44.85655550737286 ], [ 3.911413715725059, 44.85743302828083 ] ] ], [ [ [ 2.89898647537016, 44.717077656182347 ], [ 2.899115532761554, 44.645055248285495 ], [ 3.0, 44.645101256540272 ], [ 3.0, 44.717123724532208 ], [ 2.89898647537016, 44.717077656182347 ] ] ], [ [ [ 3.0, 44.645101256540272 ], [ 3.0, 44.573080779823968 ], [ 3.100755739199951, 44.573034831580941 ], [ 3.100884467238447, 44.645055248285495 ], [ 3.0, 44.645101256540272 ] ] ], [ [ [ 5.733270400121778, 44.827512823800078 ], [ 5.726282832732275, 44.6835501002573 ], [ 5.625385222030431, 44.685990292515854 ], [ 5.622033427655298, 44.614008425456866 ], [ 5.722802424343551, 44.611571414431054 ], [ 5.719330887386048, 44.539594659213158 ], [ 5.819962759615987, 44.537069095710891 ], [ 5.816372132848969, 44.465097672754368 ], [ 5.916866949412376, 44.462483803776671 ], [ 5.920585468629215, 44.534451815501889 ], [ 6.021198688927032, 44.531742831641346 ], [ 6.028920919706145, 44.675677762845446 ], [ 5.928051009650575, 44.678393822526559 ], [ 5.931798104339173, 44.750367598026415 ], [ 5.83078976000145, 44.752995140302922 ], [ 5.834417251112764, 44.824974047208741 ], [ 5.733270400121778, 44.827512823800078 ] ] ], [ [ [ 3.405087198519087, 44.860435179053795 ], [ 3.403534575474268, 44.644365129067488 ], [ 3.504415749291257, 44.643951061679765 ], [ 3.503772134280767, 44.571932085226429 ], [ 3.705271802017232, 44.570829360909222 ], [ 3.704373072551879, 44.498813921487788 ], [ 3.603752596489734, 44.499410448741145 ], [ 3.602984201487737, 44.427396437724042 ], [ 3.803966780945428, 44.426113293345374 ], [ 3.808080426811775, 44.714175427683365 ], [ 3.707076158651593, 44.714866420622194 ], [ 3.707981803489239, 44.786887821472263 ], [ 3.606845860071698, 44.787487471286354 ], [ 3.607624134725222, 44.859511422953538 ], [ 3.405087198519087, 44.860435179053795 ] ] ], [ [ [ 7.832463492050621, 46.848783766850829 ], [ 7.826050800052431, 46.776887350057173 ], [ 7.616711182570913, 46.785496167094223 ], [ 7.61059160127941, 46.713586835492798 ], [ 7.819655083705638, 46.704989263895449 ], [ 7.813276275776126, 46.633089622913282 ], [ 7.500069807635804, 46.645826511084287 ], [ 7.506035403570638, 46.717742810141957 ], [ 7.08765604239263, 46.733414136080334 ], [ 7.07145758141699, 46.517599766761826 ], [ 6.863006846122871, 46.524835165707294 ], [ 6.852826398131647, 46.380934044521332 ], [ 6.956784902252504, 46.377373148840448 ], [ 6.946385579216137, 46.233477650513137 ], [ 6.842699425318892, 46.237029251477111 ], [ 6.847756253675201, 46.308982050205294 ], [ 6.743920786781941, 46.312443682617229 ], [ 6.748854525331775, 46.384400204202535 ], [ 6.644869641867933, 46.387771609975104 ], [ 6.640072360448872, 46.315810684580377 ], [ 6.536211331558725, 46.319083038720507 ], [ 6.531562802547751, 46.247117047492182 ], [ 6.427825726215658, 46.250290586116336 ], [ 6.418836541489274, 46.106348416370246 ], [ 6.625755933810676, 46.099923611719994 ], [ 6.616274005023085, 45.955996447583196 ], [ 6.719445471167146, 45.952651370628885 ], [ 6.714588730488791, 45.880691758977868 ], [ 6.50850216237107, 45.887279269809248 ], [ 6.517690207865931, 46.031215493153447 ], [ 6.207663614116933, 46.040416277105699 ], [ 6.199283482243118, 45.896456044043582 ], [ 6.302367753782124, 45.893491072921456 ], [ 6.298059905533266, 45.821514634778573 ], [ 6.195109805972139, 45.824475735202071 ], [ 6.190946999264509, 45.752495448112811 ], [ 6.396568376864517, 45.746487263537631 ], [ 6.387742073146671, 45.602542875756036 ], [ 6.285203492798513, 45.605585867077494 ], [ 6.268216632485322, 45.317686302805036 ], [ 6.166196061697462, 45.320620460915258 ], [ 6.170294533427134, 45.39259826427719 ], [ 6.068131581590846, 45.395443134688037 ], [ 6.064164913495645, 45.323461619933681 ], [ 5.962123526998234, 45.326209765476612 ], [ 5.954483536376815, 45.182242112284918 ], [ 5.85269499738141, 45.184890307545139 ], [ 5.841700183429635, 44.96893653779982 ], [ 5.74029386394068, 44.971481948520847 ], [ 5.736777627718528, 44.899496641186282 ], [ 5.838054046978343, 44.896954549839364 ], [ 5.834417251112764, 44.824974047208741 ], [ 5.935554797379979, 44.822343074742292 ], [ 5.931798104339173, 44.750367598026415 ], [ 6.032796850356057, 44.747647993074857 ], [ 6.028920919706145, 44.675677762845446 ], [ 6.129780940359493, 44.672869773911792 ], [ 6.125786428769342, 44.600905010102778 ], [ 6.226507801064892, 44.598008885556204 ], [ 6.222395362311063, 44.526049807465277 ], [ 6.423550179583961, 44.519990136736965 ], [ 6.419192765266177, 44.448040970615097 ], [ 6.318748450319942, 44.451112621828393 ], [ 6.314529483030421, 44.379161568465591 ], [ 6.214201837274893, 44.382137808967975 ], [ 6.210120671462404, 44.310185107858416 ], [ 6.109909775248419, 44.313066166138825 ], [ 6.102031745369544, 44.169160405286625 ], [ 6.201989335931633, 44.166286849058359 ], [ 6.206049850769167, 44.238234751461526 ], [ 6.406186780209438, 44.232206599451565 ], [ 6.393279304312139, 44.016394216143553 ], [ 6.791907394523296, 44.003295479835245 ], [ 6.796701698924809, 44.075213235868326 ], [ 6.696936406959426, 44.078628512921753 ], [ 6.701616917910709, 44.150553360140613 ], [ 6.901387172069719, 44.143622927180104 ], [ 6.891534996573346, 43.999793913712558 ], [ 6.991150200201804, 43.996201628664117 ], [ 7.001253718798541, 44.140021269485764 ], [ 7.101107455775119, 44.136328674591319 ], [ 7.095923534739075, 44.06442234914887 ], [ 7.295339900296319, 44.056774390536425 ], [ 7.289918274743802, 43.984880639440263 ], [ 7.489029236012377, 43.976880055478887 ], [ 7.500387973286099, 44.1206492950284 ], [ 7.600172914107072, 44.116502297050914 ], [ 7.594360855884103, 44.044621779135241 ], [ 7.694005624312696, 44.040389475287292 ], [ 7.705895693960318, 44.184141947709321 ], [ 7.106304503439086, 44.208237509615238 ], [ 7.111514727607485, 44.28014874494459 ], [ 7.011408476812939, 44.283850974854538 ], [ 7.016505192459361, 44.355769328505382 ], [ 6.916259249972441, 44.359385093452659 ], [ 6.936265817463797, 44.647098190363515 ], [ 7.137765259478115, 44.639737091148248 ], [ 7.143055604348019, 44.711660425229553 ], [ 7.042184111671066, 44.715391719818655 ], [ 7.052547771735564, 44.859252913154805 ], [ 6.85024983205005, 44.86645858721328 ], [ 6.855192780064873, 44.93840076717018 ], [ 6.753895189128037, 44.941869889949075 ], [ 6.758721020873319, 45.013817916876398 ], [ 6.657281201723473, 45.017199146727414 ], [ 6.661989253504979, 45.08915280207178 ], [ 6.966661573551828, 45.07871826637512 ], [ 6.971773192262249, 45.1506594108575 ], [ 7.073435198258428, 45.14699141644639 ], [ 7.078690711100815, 45.218928752930331 ], [ 7.180469864657511, 45.215163242792137 ], [ 7.196712016853397, 45.430965211078153 ], [ 7.094538860003113, 45.434745487639873 ], [ 7.099848955844022, 45.506685602313411 ], [ 6.997530009244004, 45.510377603173573 ], [ 7.007926436730864, 45.654268615972917 ], [ 6.905328794306381, 45.657876793286178 ], [ 6.910414151383819, 45.729827365882223 ], [ 6.807670114549416, 45.733346642983172 ], [ 6.812635180780552, 45.805301905845361 ], [ 7.224064294712321, 45.790644066061432 ], [ 7.229577549904997, 45.862580164198064 ], [ 7.435474733178733, 45.854678788198562 ], [ 7.441270364297078, 45.926604410664936 ], [ 7.853416115681111, 45.909654596316351 ], [ 7.85976352347495, 45.98155779789991 ], [ 7.962893480713423, 45.977079959532112 ], [ 7.982439670837447, 46.19276899040554 ], [ 8.085956562847622, 46.188179320226091 ], [ 8.133122590741143, 46.691379189501987 ], [ 7.924161643520372, 46.700547711624033 ], [ 7.930695327257433, 46.772439989101741 ], [ 8.035322515522481, 46.767897357207524 ], [ 8.04201179997786, 46.83978201581597 ], [ 7.832463492050621, 46.848783766850829 ] ], [ [ 7.262961398740252, 46.29418958054157 ], [ 7.470476956092907, 46.286226050403179 ], [ 7.464604979963153, 46.214302962634576 ], [ 7.360990463070037, 46.218326726275187 ], [ 7.355269236910351, 46.146397653179385 ], [ 7.148266347563657, 46.154151845651505 ], [ 7.153716676387879, 46.226091054189141 ], [ 7.257360910618323, 46.222256096869046 ], [ 7.262961398740252, 46.29418958054157 ] ], [ [ 6.941206372617049, 46.161528798164397 ], [ 7.148266347563657, 46.154151845651505 ], [ 7.142830290261704, 46.08221203898519 ], [ 6.936040731256969, 46.089579361415986 ], [ 6.941206372617049, 46.161528798164397 ] ], [ [ 6.383346090439363, 45.530571146600892 ], [ 6.485740539880754, 45.527438792898984 ], [ 6.481223586704078, 45.45547160936389 ], [ 6.37896149457227, 45.458599876517361 ], [ 6.383346090439363, 45.530571146600892 ] ], [ [ 6.268216632485322, 45.317686302805036 ], [ 6.370226286952422, 45.314659160455626 ], [ 6.365875587564789, 45.242689937566062 ], [ 6.263997314562919, 45.245713131565246 ], [ 6.268216632485322, 45.317686302805036 ] ], [ [ 6.365875587564789, 45.242689937566062 ], [ 6.467742649036381, 45.239573895668599 ], [ 6.46327216039389, 45.167609641703031 ], [ 6.361536099744692, 45.170721619924826 ], [ 6.365875587564789, 45.242689937566062 ] ], [ [ 6.427918707251834, 44.59194130792973 ], [ 6.528607589433906, 44.588769885139463 ], [ 6.524111080505699, 44.516822846392913 ], [ 6.423550179583961, 44.519990136736965 ], [ 6.427918707251834, 44.59194130792973 ] ] ], [ [ [ 8.819071666670938, 42.326795213422599 ], [ 8.811946123880213, 42.255091605367745 ], [ 8.908453676124697, 42.249760771961043 ], [ 8.901228373848712, 42.178069132039518 ], [ 8.997601151825297, 42.172657748146456 ], [ 9.012303906781129, 42.316031986619045 ], [ 8.819071666670938, 42.326795213422599 ] ] ], [ [ [ -0.436526171552073, 43.078447043041983 ], [ -0.432260991864223, 43.006564844887095 ], [ -0.62812170865929, 43.000133809021861 ], [ -0.623624972656949, 42.928264252141759 ], [ -0.721417730780159, 42.924919408592274 ], [ -0.726035467140879, 42.99678460788364 ], [ -0.823937760084688, 42.99334630610764 ], [ -0.814472092563915, 42.849629210781664 ], [ -0.716811417479781, 42.853058572070246 ], [ -0.712216484936889, 42.781202204828162 ], [ -0.614664834501719, 42.784538350732717 ], [ -0.610201350141051, 42.712682219042435 ], [ -0.512758807248415, 42.715925369862383 ], [ -0.517102141289675, 42.787785726400763 ], [ -0.224350766504818, 42.796995077315941 ], [ -0.220368117338035, 42.725122738054381 ], [ -0.122884518121285, 42.728011116733896 ], [ -0.119031696861628, 42.656139728341586 ], [ 0.66019390055191, 42.676025519775351 ], [ 0.663078364453017, 42.604133071321577 ], [ 0.85772194755252, 42.608212330484449 ], [ 0.860359898705984, 42.536319532899213 ], [ 0.957571861889044, 42.538223764490276 ], [ 0.955053653175171, 42.610119044138109 ], [ 1.052391574694431, 42.611937134782536 ], [ 1.049987210687278, 42.683839755577637 ], [ 1.342395626688406, 42.688768620959166 ], [ 1.344439681528623, 42.616859583190596 ], [ 1.441799513013025, 42.618323098461083 ], [ 1.445633140686796, 42.474516269054362 ], [ 1.737021489616508, 42.478364772563118 ], [ 1.738573365216878, 42.40646408935276 ], [ 1.835591531099249, 42.407568590903715 ], [ 1.834158976401816, 42.479470714015463 ], [ 2.028444243045441, 42.481417224799365 ], [ 2.029638118045012, 42.409512567323226 ], [ 1.932613212966926, 42.408584751853944 ], [ 1.933923210550217, 42.336686615958754 ], [ 2.127737834368926, 42.338451595992282 ], [ 2.126665953500228, 42.410352032855386 ], [ 2.417764113031361, 42.412340291631068 ], [ 2.417047718709715, 42.484248635769582 ], [ 2.514203735482024, 42.484735299159141 ], [ 2.513605259342791, 42.556649491176827 ], [ 2.2217837692405, 42.554921817963596 ], [ 2.219861664252083, 42.698760914816326 ], [ 2.317373750642033, 42.699427132062404 ], [ 2.316529691158103, 42.771354944160713 ], [ 2.02363922181735, 42.769086884765748 ], [ 2.02243053138952, 42.841016529468767 ], [ 1.826943006035337, 42.839057295818961 ], [ 1.825489080292118, 42.910989065908396 ], [ 1.629773748849002, 42.908670678485855 ], [ 1.63146986021814, 42.836741927522333 ], [ 1.729204486038022, 42.837944125861924 ], [ 1.730775617652226, 42.766018482149406 ], [ 1.53555211658358, 42.763528309761689 ], [ 1.531922246453674, 42.907377773946955 ], [ 1.336233069511849, 42.904524574533674 ], [ 1.338292339483212, 42.832601222534095 ], [ 1.142865613146046, 42.829395728757547 ], [ 1.140564330302153, 42.901314901465987 ], [ 0.749297760948544, 42.893826390017168 ], [ 0.75208280670011, 42.821916967115492 ], [ 0.654403564410544, 42.819824875893467 ], [ 0.657302309351567, 42.747922823260119 ], [ 0.559750802094372, 42.745744630472565 ], [ 0.553704724359453, 42.889547696695999 ], [ 0.455919315719524, 42.887274775758776 ], [ 0.45276390747296, 42.959180198847072 ], [ 0.354865209058296, 42.956815164218355 ], [ 0.361410111376643, 42.813015000425665 ], [ 0.263761378035499, 42.81056721125119 ], [ 0.256974644872736, 42.954360990131342 ], [ 0.159092514756409, 42.951817688479387 ], [ 0.155565179472088, 43.023717937644633 ], [ -0.040415147626327, 43.018357023566509 ], [ -0.036645244690227, 42.946463752206974 ], [ -0.232345673766005, 42.94075345915688 ], [ -0.236358005285924, 43.012639289006479 ], [ -0.334314632450079, 43.009646648439784 ], [ -0.338458391118883, 43.081532862367148 ], [ -0.436526171552073, 43.078447043041983 ] ] ] ] } },
{ "type": "Feature", "properties": { "statut_gen2": 1, "label": "Gen2 en cours", "couleur": "#FDE725FF", "date_mise_a_jour": "2026-07-22" }, "geometry": { "type": "MultiPolygon", "coordinates": [ [ [ [ -1.917153143129824, 48.937060398414829 ], [ -1.910366831792648, 48.865256893381712 ], [ -1.801519395883356, 48.869678495136526 ], [ -1.80815602837857, 48.94148781257033 ], [ -1.917153143129824, 48.937060398414829 ] ] ], [ [ [ -5.013125714227224, 48.407714900138863 ], [ -5.002189448415036, 48.336110278542584 ], [ -4.894775836238065, 48.343343277756382 ], [ -4.905567283699932, 48.414957363566295 ], [ -5.013125714227224, 48.407714900138863 ] ] ], [ [ [ -2.950539840437575, 47.446357940684912 ], [ -2.934597619172898, 47.302731875019546 ], [ -2.829010717436609, 47.308091513269986 ], [ -2.844671389785635, 47.451731612845578 ], [ -2.950539840437575, 47.446357940684912 ] ] ], [ [ [ -3.268015120496779, 47.429659342838079 ], [ -3.251229291004264, 47.286076877327886 ], [ -3.145707276551864, 47.291724528147803 ], [ -3.137487918834808, 47.219921787646662 ], [ -3.03208395034962, 47.225466212368417 ], [ -3.048264203948636, 47.369083500229479 ], [ -3.153948633959956, 47.363524563182807 ], [ -3.162212079322765, 47.435321776618736 ], [ -3.268015120496779, 47.429659342838079 ] ] ], [ [ [ 9.532684974745946, 46.981453065542659 ], [ 9.515336642366401, 46.837886234370487 ], [ 9.619934880563566, 46.83190204921943 ], [ 9.637559121412027, 46.97545323725609 ], [ 9.532684974745946, 46.981453065542659 ] ] ], [ [ [ 9.306071759287237, 46.849569240114633 ], [ 9.28936459771108, 46.705963731715244 ], [ 9.393733490764776, 46.700184905775501 ], [ 9.402213249812785, 46.7719810712072 ], [ 9.506696905159485, 46.766099678976154 ], [ 9.515336642366401, 46.837886234370487 ], [ 9.306071759287237, 46.849569240114633 ] ] ], [ [ [ -2.349096418701765, 46.753698074622427 ], [ -2.342011566186773, 46.681830270137311 ], [ -2.237576255391446, 46.686652267265899 ], [ -2.244523423667931, 46.758526375604696 ], [ -2.349096418701765, 46.753698074622427 ] ] ], [ [ [ 8.04201179997786, 46.83978201581597 ], [ 8.035322515522481, 46.767897357207524 ], [ 7.930695327257433, 46.772439989101741 ], [ 7.924161643520372, 46.700547711624033 ], [ 8.133122590741143, 46.691379189501987 ], [ 8.146759477585721, 46.83513807148281 ], [ 8.04201179997786, 46.83978201581597 ] ] ], [ [ [ 7.262961398740252, 46.29418958054157 ], [ 7.257360910618323, 46.222256096869046 ], [ 7.153716676387879, 46.226091054189141 ], [ 7.148266347563657, 46.154151845651505 ], [ 7.355269236910351, 46.146397653179385 ], [ 7.360990463070037, 46.218326726275187 ], [ 7.464604979963153, 46.214302962634576 ], [ 7.470476956092907, 46.286226050403179 ], [ 7.262961398740252, 46.29418958054157 ] ] ], [ [ [ 6.941206372617049, 46.161528798164397 ], [ 6.936040731256969, 46.089579361415986 ], [ 7.142830290261704, 46.08221203898519 ], [ 7.148266347563657, 46.154151845651505 ], [ 6.941206372617049, 46.161528798164397 ] ] ], [ [ [ 6.383346090439363, 45.530571146600892 ], [ 6.37896149457227, 45.458599876517361 ], [ 6.481223586704078, 45.45547160936389 ], [ 6.485740539880754, 45.527438792898984 ], [ 6.383346090439363, 45.530571146600892 ] ] ], [ [ [ 6.268216632485322, 45.317686302805036 ], [ 6.263997314562919, 45.245713131565246 ], [ 6.365875587564789, 45.242689937566062 ], [ 6.370226286952422, 45.314659160455626 ], [ 6.268216632485322, 45.317686302805036 ] ] ], [ [ [ 6.365875587564789, 45.242689937566062 ], [ 6.361536099744692, 45.170721619924826 ], [ 6.46327216039389, 45.167609641703031 ], [ 6.467742649036381, 45.239573895668599 ], [ 6.365875587564789, 45.242689937566062 ] ] ], [ [ [ 5.834417251112764, 44.824974047208741 ], [ 5.83078976000145, 44.752995140302922 ], [ 5.931798104339173, 44.750367598026415 ], [ 5.935554797379979, 44.822343074742292 ], [ 5.834417251112764, 44.824974047208741 ] ] ], [ [ [ 5.931798104339173, 44.750367598026415 ], [ 5.928051009650575, 44.678393822526559 ], [ 6.028920919706145, 44.675677762845446 ], [ 6.032796850356057, 44.747647993074857 ], [ 5.931798104339173, 44.750367598026415 ] ] ], [ [ [ 6.427918707251834, 44.59194130792973 ], [ 6.423550179583961, 44.519990136736965 ], [ 6.524111080505699, 44.516822846392913 ], [ 6.528607589433906, 44.588769885139463 ], [ 6.427918707251834, 44.59194130792973 ] ] ], [ [ [ 6.334314632450079, 43.009646648439784 ], [ 6.330181141562829, 42.937764713145448 ], [ 6.428006379703315, 42.934686919965323 ], [ 6.432260991864223, 43.006564844887095 ], [ 6.334314632450079, 43.009646648439784 ] ] ], [ [ [ 1.834158976401816, 42.479470714015463 ], [ 1.835591531099249, 42.407568590903715 ], [ 2.029638118045012, 42.409512567323226 ], [ 2.028444243045441, 42.481417224799365 ], [ 1.834158976401816, 42.479470714015463 ] ] ], [ [ [ 2.54337767645685, 51.19229601135951 ], [ 2.544036852395902, 51.120561695273537 ], [ 2.088104110060261, 51.118076229743899 ], [ 2.08941852985192, 51.046336773950159 ], [ 1.747999903801376, 51.043389342115063 ], [ 1.749801815431142, 50.971645473509881 ], [ 1.636169095629297, 50.970457779480675 ], [ 1.638129074522129, 50.898707281850108 ], [ 1.524665225573346, 50.897418048883807 ], [ 1.541433668040712, 50.32314682074302 ], [ 1.42926479656338, 50.321769145386128 ], [ 1.435930935651433, 50.106302093861999 ], [ 1.21256405072432, 50.103252829369588 ], [ 1.215088881724739, 50.031420818393897 ], [ 1.10357356894796, 50.029746009016392 ], [ 1.106248459282257, 49.957909558882541 ], [ 0.660895688546283, 49.950206127326062 ], [ 0.664189663562354, 49.878373305016957 ], [ 0.441880397368682, 49.873919802830208 ], [ 0.445477313687881, 49.802086423445679 ], [ 0.112558540715218, 49.794657669051517 ], [ 0.12065415702136, 49.65099164115216 ], [ 0.010013957483752, 49.648320548392839 ], [ 0.026685626800661, 49.360930350198288 ], [ -0.413292202223441, 49.349301005327177 ], [ -0.418055407158032, 49.421141962187143 ], [ -1.078533628094329, 49.400669431212243 ], [ -1.084230087720099, 49.472477645708892 ], [ -1.194409881328444, 49.468710192261177 ], [ -1.217972278181537, 49.755862684843464 ], [ -1.55026025015923, 49.743896372282101 ], [ -1.543880869688115, 49.672133323013085 ], [ -1.654453740657732, 49.667948725854735 ], [ -1.660987647149734, 49.739706259780235 ], [ -1.88238696394986, 49.731024160935029 ], [ -1.889248899718237, 49.802763805067187 ], [ -2.00007467852647, 49.798265946857939 ], [ -1.986061006906868, 49.654792026057869 ], [ -1.875544237840183, 49.659278053374692 ], [ -1.868720640939528, 49.587525602325094 ], [ -1.97908354788696, 49.583045476787028 ], [ -1.972125564211458, 49.511292694767413 ], [ -1.861916093246246, 49.515766927597866 ], [ -1.848363827696742, 49.37223138571909 ], [ -1.738441145531495, 49.376593932709874 ], [ -1.725268200947069, 49.233023469638376 ], [ -1.615631353989436, 49.237274865595907 ], [ -1.564863402635403, 48.662733346083357 ], [ -1.781718836683604, 48.654220820564646 ], [ -1.788300875102723, 48.726044880804693 ], [ -2.005380953362786, 48.717126140694802 ], [ -1.998502077105267, 48.645313781724539 ], [ -2.215209893749081, 48.636012422386862 ], [ -2.222385296862581, 48.707812564499953 ], [ -2.547742731543084, 48.693102326408912 ], [ -2.540123149959309, 48.621321475034236 ], [ -2.75662832051345, 48.611035213454123 ], [ -2.764543594134055, 48.682802561589661 ], [ -2.872911589744885, 48.677504880171945 ], [ -2.897233872041636, 48.892756267058331 ], [ -3.658277855893918, 48.852759258024264 ], [ -3.639963975736537, 48.709368168806471 ], [ -3.748290835136779, 48.703275396831025 ], [ -3.757582932131578, 48.774965553403412 ], [ -4.191221703613164, 48.749577813870509 ], [ -4.18133971968386, 48.677920903506958 ], [ -4.613955862239758, 48.650994623805495 ], [ -4.603514397775553, 48.579367797263892 ], [ -4.819359714821564, 48.565334337995054 ], [ -4.776715328656294, 48.278850626489898 ], [ -4.669388124872516, 48.285879444763886 ], [ -4.658943657401163, 48.214237446186104 ], [ -4.551732418229827, 48.221159783699676 ], [ -4.541460285861752, 48.149504236248028 ], [ -4.434365239734261, 48.156320321208511 ], [ -4.424264674945517, 48.084651495630496 ], [ -4.745035067323593, 48.063938752292138 ], [ -4.734532077747205, 47.992292742582649 ], [ -4.627779715519122, 47.99928490310478 ], [ -4.617447841569438, 47.927625600521807 ], [ -4.404145419123339, 47.94130124129321 ], [ -4.374169572165231, 47.726246120488945 ], [ -4.055295566280963, 47.745955558778192 ], [ -4.064834393063702, 47.817670181240679 ], [ -3.851838169159389, 47.830343443077425 ], [ -3.842583993791078, 47.758612263833669 ], [ -3.629772816057248, 47.770882318633113 ], [ -3.620827840354272, 47.699131518005593 ], [ -3.51452813961227, 47.705113642183285 ], [ -3.496993697761641, 47.561586189389793 ], [ -3.284891148522028, 47.573230013598682 ], [ -3.293363214000607, 47.645010634757732 ], [ -3.187135832872451, 47.650695323933412 ], [ -3.162212079322765, 47.435321776618736 ], [ -3.056386861537701, 47.440887985671743 ], [ -3.064531322519703, 47.512689543849284 ], [ -2.852533266907824, 47.523547360839594 ], [ -2.844671389785635, 47.451731612845578 ], [ -2.526941204997794, 47.467274651588092 ], [ -2.504748358380251, 47.251749575285245 ], [ -2.293673685259361, 47.26159098628974 ], [ -2.279537139464267, 47.117869060616101 ], [ -2.174251469766991, 47.122633197875871 ], [ -2.167351013040043, 47.050762533485859 ], [ -2.272497100091139, 47.046004621161309 ], [ -2.258473114027846, 46.902269365728728 ], [ -2.153605089785703, 46.907014855180691 ], [ -2.139932001863536, 46.763259478002439 ], [ -2.035322515522479, 46.767897357207524 ], [ -2.028650933052983, 46.696011012305277 ], [ -1.924161643520373, 46.700547711624033 ], [ -1.91114601877671, 46.55675858159011 ], [ -1.806914309383913, 46.561188541519471 ], [ -1.794240635448247, 46.41738251443654 ], [ -1.586274472520825, 46.425935265534093 ], [ -1.580235171752801, 46.354019382919248 ], [ -1.476364381974532, 46.358148291289694 ], [ -1.470476956092905, 46.286226050403179 ], [ -1.574211737647157, 46.282102532071953 ], [ -1.568204107827569, 46.210184826656374 ], [ -1.464604979963152, 46.214302962634576 ], [ -1.458748392914918, 46.14237914148557 ], [ -1.148266347563656, 46.154151845651505 ], [ -1.137408448552315, 46.010271747347574 ], [ -1.240647307120359, 46.00645178755731 ], [ -1.246203922260006, 46.078387087128711 ], [ -1.452907134594759, 46.070454700317413 ], [ -1.447081144964077, 45.99852975235067 ], [ -1.343871655814583, 46.002537782537686 ], [ -1.332533513404009, 45.858676366584902 ], [ -1.229577549904996, 45.862580164198064 ], [ -1.213080750564226, 45.646771859940635 ], [ -1.110510536660205, 45.650566965242206 ], [ -1.099848955844021, 45.506685602313411 ], [ -1.202154123995117, 45.50290038978838 ], [ -1.169711363705539, 45.071299352917841 ], [ -1.271215732468285, 45.067451184625533 ], [ -1.260252860167897, 44.923601627374453 ], [ -1.361483657039709, 44.919671273137361 ], [ -1.311687230446379, 44.272470837500435 ], [ -1.41175284479867, 44.268495198037975 ], [ -1.389480740106342, 43.980925660387221 ], [ -1.489029236012378, 43.976880055478887 ], [ -1.466482728000848, 43.689374844927045 ], [ -1.565519234047753, 43.685260120352879 ], [ -1.554083610858859, 43.541536587569873 ], [ -1.652858848965127, 43.537342679246777 ], [ -1.647039483971634, 43.465491329790687 ], [ -1.745677214821015, 43.461213130642562 ], [ -1.739749745014856, 43.389370789886463 ], [ -1.838250078457568, 43.385008545986381 ], [ -1.826195162546486, 43.241345944693023 ], [ -1.727939063096734, 43.245696850519145 ], [ -1.722055741102511, 43.17386546725735 ], [ -1.525743352998431, 43.182288159481779 ], [ -1.520117529658975, 43.110449690820403 ], [ -1.618159404246707, 43.10628840429348 ], [ -1.612426361516195, 43.034459336605259 ], [ -1.51450566033404, 43.038615211763286 ], [ -1.508907693228139, 42.96678482941266 ], [ -1.117572857448258, 42.982496965711888 ], [ -1.112471555786423, 42.91065035290503 ], [ -0.819199065877987, 42.921485580061464 ], [ -0.823937760084688, 42.99334630610764 ], [ -0.726035467140879, 42.99678460788364 ], [ -0.721417730780159, 42.924919408592274 ], [ -0.623624972656949, 42.928264252141759 ], [ -0.62812170865929, 43.000133809021861 ], [ -0.432260991864223, 43.006564844887095 ], [ -0.436526171552073, 43.078447043041983 ], [ -0.338458391118883, 43.081532862367148 ], [ -0.334314632450079, 43.009646648439784 ], [ -0.236358005285924, 43.012639289006479 ], [ -0.232345673766005, 42.94075345915688 ], [ -0.036645244690227, 42.946463752206974 ], [ -0.040415147626327, 43.018357023566509 ], [ 0.155565179472088, 43.023717937644633 ], [ 0.159092514756409, 42.951817688479387 ], [ 0.256974644872736, 42.954360990131342 ], [ 0.263761378035499, 42.81056721125119 ], [ 0.361410111376643, 42.813015000425665 ], [ 0.354865209058296, 42.956815164218355 ], [ 0.45276390747296, 42.959180198847072 ], [ 0.455919315719524, 42.887274775758776 ], [ 0.553704724359453, 42.889547696695999 ], [ 0.559750802094372, 42.745744630472565 ], [ 0.657302309351567, 42.747922823260119 ], [ 0.654403564410544, 42.819824875893467 ], [ 0.75208280670011, 42.821916967115492 ], [ 0.749297760948544, 42.893826390017168 ], [ 1.140564330302153, 42.901314901465987 ], [ 1.142865613146046, 42.829395728757547 ], [ 1.338292339483212, 42.832601222534095 ], [ 1.336233069511849, 42.904524574533674 ], [ 1.531922246453674, 42.907377773946955 ], [ 1.53555211658358, 42.763528309761689 ], [ 1.730775617652226, 42.766018482149406 ], [ 1.729204486038022, 42.837944125861924 ], [ 1.63146986021814, 42.836741927522333 ], [ 1.629773748849002, 42.908670678485855 ], [ 1.825489080292118, 42.910989065908396 ], [ 1.826943006035337, 42.839057295818961 ], [ 2.02243053138952, 42.841016529468767 ], [ 2.02363922181735, 42.769086884765748 ], [ 2.316529691158103, 42.771354944160713 ], [ 2.317373750642033, 42.699427132062404 ], [ 2.219861664252083, 42.698760914816326 ], [ 2.2217837692405, 42.554921817963596 ], [ 2.513605259342791, 42.556649491176827 ], [ 2.514203735482024, 42.484735299159141 ], [ 2.417047718709715, 42.484248635769582 ], [ 2.417764113031361, 42.412340291631068 ], [ 2.320729243948792, 42.411765898404873 ], [ 2.321562969308755, 42.33986362066311 ], [ 2.709235431894853, 42.34162870230962 ], [ 2.708878099466887, 42.413533281280117 ], [ 2.902958975656933, 42.413886764647259 ], [ 2.902839570283977, 42.485797125086734 ], [ 3.0, 42.485841368277072 ], [ 3.0, 42.413930950227325 ], [ 3.194081755560785, 42.413754208119258 ], [ 3.194559963299746, 42.557579799154041 ], [ 3.09728012929859, 42.55771270157372 ], [ 3.098248449289399, 43.133212421610189 ], [ 3.196496594375203, 43.133078126299345 ], [ 3.196741387464696, 43.205035714663779 ], [ 3.295111317847897, 43.204811597923502 ], [ 3.295479420642223, 43.276773049769332 ], [ 3.590950566472586, 43.275561256479705 ], [ 3.591688579895704, 43.347525176166151 ], [ 3.690298677752777, 43.346940968545248 ], [ 3.69116182911166, 43.418908065584581 ], [ 3.789893058072009, 43.418233108209655 ], [ 3.790881963512434, 43.490203156003098 ], [ 3.889734306203176, 43.489437216373048 ], [ 3.890849584098803, 43.561409987693494 ], [ 4.088793347140292, 43.559605467599141 ], [ 4.087430315275324, 43.48763504739852 ], [ 4.482778959017094, 43.482949683387062 ], [ 4.479076126685044, 43.339032304529006 ], [ 4.873364010693805, 43.332921840086321 ], [ 4.875705709179613, 43.404870651259003 ], [ 4.974386947891581, 43.403116225421876 ], [ 4.97192215215545, 43.331169699329358 ], [ 5.267558480568791, 43.32537455299024 ], [ 5.264731600048892, 43.253439484534013 ], [ 5.363140631108951, 43.251330975139275 ], [ 5.36019840106508, 43.179402659700436 ], [ 5.458477729825283, 43.177207374458469 ], [ 5.45542075880908, 43.105286028015087 ], [ 5.749845824825869, 43.098172426094813 ], [ 5.746431357213305, 43.026264554225733 ], [ 6.040415147626327, 43.018357023566509 ], [ 6.036645244690227, 42.946463752206974 ], [ 6.232345673766006, 42.94075345915688 ], [ 6.236358005285926, 43.012639289006479 ], [ 6.334314632450079, 43.009646648439784 ], [ 6.338458391118883, 43.081532862367148 ], [ 6.436526171552074, 43.078447043041983 ], [ 6.432260991864223, 43.006564844887095 ], [ 6.53019678378388, 43.003393893290408 ], [ 6.534583345095863, 43.075271959739297 ], [ 6.632629611089723, 43.072007627871095 ], [ 6.637148721563671, 43.143885601887376 ], [ 6.735305379304862, 43.140527667965756 ], [ 6.7492969902058, 43.35617230729612 ], [ 6.847808578607541, 43.352711548719292 ], [ 6.852618521691036, 43.424596169758608 ], [ 6.951240847507737, 43.421041120691605 ], [ 6.956185850039171, 43.492924716147236 ], [ 7.15363910522851, 43.485535730453265 ], [ 7.164059978577222, 43.629294023248029 ], [ 7.361954537069164, 43.62152545872182 ], [ 7.367432152739566, 43.693399432687151 ], [ 7.466482728000849, 43.689374844927045 ], [ 7.472098118237852, 43.761246717022644 ], [ 7.571258585359778, 43.757126631849161 ], [ 7.582780638270949, 43.90086860269939 ], [ 7.682175416655967, 43.896647306359782 ], [ 7.694005624312696, 44.040389475287292 ], [ 7.594360855884103, 44.044621779135241 ], [ 7.600172914107072, 44.116502297050914 ], [ 7.500387973286099, 44.1206492950284 ], [ 7.489029236012377, 43.976880055478887 ], [ 7.289918274743802, 43.984880639440263 ], [ 7.295339900296319, 44.056774390536425 ], [ 7.095923534739075, 44.06442234914887 ], [ 7.101107455775119, 44.136328674591319 ], [ 7.001253718798541, 44.140021269485764 ], [ 6.991150200201804, 43.996201628664117 ], [ 6.891534996573346, 43.999793913712558 ], [ 6.901387172069719, 44.143622927180104 ], [ 6.701616917910709, 44.150553360140613 ], [ 6.696936406959426, 44.078628512921753 ], [ 6.796701698924809, 44.075213235868326 ], [ 6.791907394523296, 44.003295479835245 ], [ 6.393279304312139, 44.016394216143553 ], [ 6.406186780209438, 44.232206599451565 ], [ 6.206049850769167, 44.238234751461526 ], [ 6.201989335931633, 44.166286849058359 ], [ 6.102031745369544, 44.169160405286625 ], [ 6.109909775248419, 44.313066166138825 ], [ 6.210120671462404, 44.310185107858416 ], [ 6.214201837274893, 44.382137808967975 ], [ 6.314529483030421, 44.379161568465591 ], [ 6.318748450319942, 44.451112621828393 ], [ 6.419192765266177, 44.448040970615097 ], [ 6.423550179583961, 44.519990136736965 ], [ 6.222395362311063, 44.526049807465277 ], [ 6.226507801064892, 44.598008885556204 ], [ 6.125786428769342, 44.600905010102778 ], [ 6.129780940359493, 44.672869773911792 ], [ 6.028920919706145, 44.675677762845446 ], [ 6.021198688927032, 44.531742831641346 ], [ 5.920585468629215, 44.534451815501889 ], [ 5.916866949412376, 44.462483803776671 ], [ 5.816372132848969, 44.465097672754368 ], [ 5.819962759615987, 44.537069095710891 ], [ 5.719330887386048, 44.539594659213158 ], [ 5.722802424343551, 44.611571414431054 ], [ 5.622033427655298, 44.614008425456866 ], [ 5.625385222030431, 44.685990292515854 ], [ 5.726282832732275, 44.6835501002573 ], [ 5.733270400121778, 44.827512823800078 ], [ 5.834417251112764, 44.824974047208741 ], [ 5.838054046978343, 44.896954549839364 ], [ 5.736777627718528, 44.899496641186282 ], [ 5.74029386394068, 44.971481948520847 ], [ 5.841700183429635, 44.96893653779982 ], [ 5.85269499738141, 45.184890307545139 ], [ 5.954483536376815, 45.182242112284918 ], [ 5.962123526998234, 45.326209765476612 ], [ 6.064164913495645, 45.323461619933681 ], [ 6.068131581590846, 45.395443134688037 ], [ 6.170294533427134, 45.39259826427719 ], [ 6.166196061697462, 45.320620460915258 ], [ 6.268216632485322, 45.317686302805036 ], [ 6.285203492798513, 45.605585867077494 ], [ 6.387742073146671, 45.602542875756036 ], [ 6.396568376864517, 45.746487263537631 ], [ 6.190946999264509, 45.752495448112811 ], [ 6.195109805972139, 45.824475735202071 ], [ 6.298059905533266, 45.821514634778573 ], [ 6.302367753782124, 45.893491072921456 ], [ 6.199283482243118, 45.896456044043582 ], [ 6.207663614116933, 46.040416277105699 ], [ 6.517690207865931, 46.031215493153447 ], [ 6.50850216237107, 45.887279269809248 ], [ 6.714588730488791, 45.880691758977868 ], [ 6.719445471167146, 45.952651370628885 ], [ 6.616274005023085, 45.955996447583196 ], [ 6.625755933810676, 46.099923611719994 ], [ 6.418836541489274, 46.106348416370246 ], [ 6.427825726215658, 46.250290586116336 ], [ 6.531562802547751, 46.247117047492182 ], [ 6.536211331558725, 46.319083038720507 ], [ 6.640072360448872, 46.315810684580377 ], [ 6.644869641867933, 46.387771609975104 ], [ 6.748854525331775, 46.384400204202535 ], [ 6.743920786781941, 46.312443682617229 ], [ 6.847756253675201, 46.308982050205294 ], [ 6.842699425318892, 46.237029251477111 ], [ 6.946385579216137, 46.233477650513137 ], [ 6.956784902252504, 46.377373148840448 ], [ 6.852826398131647, 46.380934044521332 ], [ 6.863006846122871, 46.524835165707294 ], [ 7.07145758141699, 46.517599766761826 ], [ 7.08765604239263, 46.733414136080334 ], [ 7.506035403570638, 46.717742810141957 ], [ 7.500069807635804, 46.645826511084287 ], [ 7.813276275776126, 46.633089622913282 ], [ 7.819655083705638, 46.704989263895449 ], [ 7.61059160127941, 46.713586835492798 ], [ 7.616711182570913, 46.785496167094223 ], [ 7.826050800052431, 46.776887350057173 ], [ 7.832463492050621, 46.848783766850829 ], [ 8.04201179997786, 46.83978201581597 ], [ 8.04871885687044, 46.911664873394116 ], [ 8.153605089785703, 46.907014855180691 ], [ 8.146759477585721, 46.83513807148281 ], [ 8.356200059900635, 46.825564166109558 ], [ 8.36332256450719, 46.897428429782813 ], [ 8.468153076525352, 46.892492072579628 ], [ 8.475433218198924, 46.96434793817177 ], [ 8.580383049043524, 46.959309606050198 ], [ 8.572964285782724, 46.887460319847527 ], [ 8.677755828385909, 46.882333197805977 ], [ 8.68531313485062, 46.954175780614854 ], [ 8.790223110712038, 46.948946488649952 ], [ 8.79793935507081, 47.02078014788249 ], [ 8.692890551331645, 47.026016277032184 ], [ 8.700488158065038, 47.097854571740491 ], [ 9.01598986914647, 47.081838608520577 ], [ 9.007974928769896, 47.010021227575699 ], [ 9.112960968204861, 47.00449849259801 ], [ 9.121114851759446, 47.076308654085302 ], [ 9.436357912066256, 47.059145295387722 ], [ 9.427787723130928, 46.987357535762442 ], [ 9.532684974745946, 46.981453065542659 ], [ 9.558880992516615, 47.196785879752262 ], [ 9.664171722230673, 47.190762502045587 ], [ 9.781996386146721, 48.123453861247228 ], [ 9.674861839981785, 48.129580482660309 ], [ 9.683953164921153, 48.201308125099665 ], [ 9.576649388881732, 48.20734528643144 ], [ 9.558780173349467, 48.063870064988535 ], [ 9.45174103786843, 48.069794180283687 ], [ 9.442986628487626, 47.998042726497204 ], [ 9.33606773729146, 48.003861925553416 ], [ 9.32748063018534, 47.932098966258899 ], [ 9.22068217362423, 47.937813481800085 ], [ 9.237591845125142, 48.081350495508907 ], [ 9.023350664943985, 48.09251738556393 ], [ 9.01517287138201, 48.020736204480222 ], [ 8.908163136409511, 48.026166424780492 ], [ 8.900151472228606, 47.954374287330786 ], [ 8.686355405621791, 47.964928914201117 ], [ 8.678652884642569, 47.893119243289604 ], [ 8.358234952504736, 47.908201990477728 ], [ 8.365505616669722, 47.980031427096677 ], [ 8.258515715950017, 47.984870976250754 ], [ 8.265661606247386, 48.056703083409403 ], [ 8.587005000788238, 48.041873062261985 ], [ 8.617528298193223, 48.329084554584888 ], [ 8.509852645303845, 48.334151824193754 ], [ 8.54012314995931, 48.621321475034236 ], [ 8.431839063255605, 48.626316943822864 ], [ 8.439310669106725, 48.698104354070679 ], [ 8.547742731543083, 48.693102326408912 ], [ 8.55538326646202, 48.764878316764971 ], [ 8.446802825307708, 48.769886913164378 ], [ 8.461849128287984, 48.913437003991085 ], [ 8.244030290552113, 48.923183525221646 ], [ 8.251285156315841, 48.994963628552711 ], [ 8.142195698909699, 48.99969454335465 ], [ 8.149320374224834, 49.071475560000778 ], [ 7.930782122037858, 49.080651809946595 ], [ 7.94448676335607, 49.224221631563672 ], [ 7.834886810021583, 49.22867238367575 ], [ 7.855130515203613, 49.444002148877111 ], [ 7.745055165381781, 49.448370439543808 ], [ 7.751687652704025, 49.520140970753779 ], [ 6.979593158559606, 49.547952003633547 ], [ 6.974034373758967, 49.476144883690644 ], [ 7.084230087720099, 49.472477645708892 ], [ 7.067188204840392, 49.257035698298054 ], [ 6.73793029170384, 49.267694509338838 ], [ 6.743137950534714, 49.339528257248588 ], [ 6.633203322963181, 49.342885875880732 ], [ 6.638272568828322, 49.414718380223093 ], [ 6.528170852974871, 49.417980260908784 ], [ 6.533100837010967, 49.489811284572141 ], [ 6.312549635662513, 49.496042692315065 ], [ 6.317185546269556, 49.567876038815811 ], [ 6.096274538721993, 49.573713751548546 ], [ 6.091946706346445, 49.501872718471404 ], [ 5.981626914343622, 49.504637172856299 ], [ 5.989986042516248, 49.648320548392839 ], [ 5.87934584297864, 49.65099164115216 ], [ 5.883387971203948, 49.722827762153493 ], [ 5.661763870420653, 49.727874566228017 ], [ 5.669259245270744, 49.871541377040657 ], [ 5.558119602631319, 49.873919802830208 ], [ 5.561726659008539, 49.945746744242555 ], [ 5.227778965977921, 49.952283919233182 ], [ 5.224641591391514, 49.880448356591032 ], [ 5.113464024424972, 49.882422259540824 ], [ 5.116444761224732, 49.954260429059453 ], [ 5.005102138851874, 49.95613564576697 ], [ 5.013622319660176, 50.17161787760709 ], [ 4.678129741049268, 50.176655586032439 ], [ 4.675755859644373, 50.104828261342682 ], [ 4.564069064348567, 50.106302093861999 ], [ 4.56628481577846, 50.17813136680514 ], [ 4.342576555664148, 50.18077769472405 ], [ 4.344481358272644, 50.252603584462825 ], [ 4.232460267484825, 50.253775664597953 ], [ 4.23421137882322, 50.325596107646014 ], [ 4.346391572975993, 50.324422477225475 ], [ 4.350228331185071, 50.468038791003238 ], [ 4.237728570960302, 50.46921552933722 ], [ 4.23949469447206, 50.541014267284815 ], [ 3.338069709800691, 50.546752422063697 ], [ 3.339037406471588, 50.690342557969821 ], [ 3.226025709292605, 50.69059941877736 ], [ 3.226349665124688, 50.762383329576629 ], [ 3.0, 50.762589091363822 ], [ 3.0, 50.906133861231929 ], [ 3.227000370686739, 50.90592755360948 ], [ 3.227654828295818, 51.049439507198933 ], [ 3.0, 51.049646362406989 ], [ 3.0, 51.121390209159671 ], [ 2.658025976394456, 51.120924168537414 ], [ 2.657531587217659, 51.192658965679037 ], [ 2.54337767645685, 51.19229601135951 ] ], [ [ 7.067188204840392, 49.257035698298054 ], [ 7.176909958979175, 49.253283091228155 ], [ 7.171109026626272, 49.181462744574304 ], [ 7.06153910950767, 49.185210417974574 ], [ 7.067188204840392, 49.257035698298054 ] ], [ [ 6.978645791952724, 48.107243378695557 ], [ 7.085987426394398, 48.10356882145917 ], [ 7.080435903407823, 48.031675320718428 ], [ 6.973239611505957, 48.035345061732492 ], [ 6.978645791952724, 48.107243378695557 ] ], [ [ 8.982682131765966, 47.733574138250852 ], [ 9.08909640551073, 47.728075490342043 ], [ 9.080886006065827, 47.656283412766861 ], [ 8.974614111331706, 47.661774871698711 ], [ 8.982682131765966, 47.733574138250852 ] ], [ [ 9.251229291004265, 47.286076877327886 ], [ 9.462205841962898, 47.274493769145479 ], [ 9.444950933991864, 47.130930664725959 ], [ 9.129290473013802, 47.148116457673851 ], [ 9.137487918834809, 47.219921787646662 ], [ 9.242869975501545, 47.214281512214228 ], [ 9.251229291004265, 47.286076877327886 ] ], [ [ 7.020349279008061, 47.240636543929178 ], [ 7.125957936168368, 47.236923103023493 ], [ 7.120442389447722, 47.164999244980294 ], [ 7.225895650375084, 47.161194594754363 ], [ 7.220254565934531, 47.089273522657038 ], [ 6.904271944526051, 47.100384702521602 ], [ 6.909492101296244, 47.17232032568829 ], [ 7.014974415317454, 47.168707828446685 ], [ 7.020349279008061, 47.240636543929178 ] ], [ [ -2.167351013040043, 47.050762533485859 ], [ -2.06218657164409, 47.055424725821005 ], [ -2.055443757025365, 46.98354581506689 ], [ -2.160468910722773, 46.978889714194878 ], [ -2.167351013040043, 47.050762533485859 ] ], [ [ 6.798916086990234, 47.103896494877858 ], [ 6.904271944526051, 47.100384702521602 ], [ 6.893873307129364, 46.956507388962734 ], [ 6.788797179284139, 46.960010001955261 ], [ 6.783757897861796, 46.888063961509538 ], [ 6.573844499544686, 46.894773141121803 ], [ 6.569096636766552, 46.822816618842367 ], [ 6.464259890254115, 46.826023531297579 ], [ 6.459663346824372, 46.754061233569637 ], [ 6.354953156016334, 46.757168527890265 ], [ 6.341650518973923, 46.541261147931074 ], [ 6.237342803028033, 46.544261204576372 ], [ 6.233069356424845, 46.472285776307487 ], [ 6.128887747355473, 46.475186952207572 ], [ 6.124762613612168, 46.403206737495942 ], [ 5.916641287164496, 46.408716938914793 ], [ 5.908969854194805, 46.264739603727328 ], [ 5.805167078658805, 46.267345567841438 ], [ 5.820002506307373, 46.555310442514156 ], [ 5.924353270237507, 46.55269081047534 ], [ 5.932106125630646, 46.6966603098289 ], [ 6.036722756869577, 46.693938437676863 ], [ 6.044794358326434, 46.837895521137973 ], [ 6.254550097787106, 46.832150689921932 ], [ 6.258880524855247, 46.904119434165395 ], [ 6.363880541491059, 46.901099688859745 ], [ 6.37285553552605, 47.045024109264197 ], [ 6.478123050383925, 47.041900507083916 ], [ 6.473489693120757, 46.969943282532128 ], [ 6.683707621106183, 46.963416867005662 ], [ 6.688620599821818, 47.035365544335406 ], [ 6.793849891086679, 47.03195421799095 ], [ 6.798916086990234, 47.103896494877858 ] ], [ [ 8.160468910722773, 46.978889714194878 ], [ 8.265475783104373, 46.974138017797287 ], [ 8.258473114027847, 46.902269365728728 ], [ 8.153605089785703, 46.907014855180691 ], [ 8.160468910722773, 46.978889714194878 ] ], [ [ 2.894815156135287, 46.950155129333901 ], [ 3.0, 46.950203103283705 ], [ 3.0, 45.14929419140163 ], [ 2.898205143280459, 45.149247760717515 ], [ 2.894815156135287, 46.950155129333901 ] ], [ [ 5.523578207883422, 46.922577037357065 ], [ 5.628651183408195, 46.920227543747274 ], [ 5.527710430419429, 44.760325261782661 ], [ 5.426666987037821, 44.76258442635902 ], [ 5.523578207883422, 46.922577037357065 ] ], [ [ -1.366726724839945, 46.290255073481688 ], [ -1.262961398740251, 46.29418958054157 ], [ -1.257360910618323, 46.222256096869046 ], [ -1.360990463070036, 46.218326726275187 ], [ -1.366726724839945, 46.290255073481688 ] ], [ [ 6.088119896313838, 45.755358954057201 ], [ 6.190946999264509, 45.752495448112811 ], [ 6.182653825225783, 45.608535388223906 ], [ 6.080093414617566, 45.611391424181349 ], [ 6.088119896313838, 45.755358954057201 ] ], [ [ 3.719969871141291, 45.723286658493798 ], [ 3.82281572990561, 45.72258291356804 ], [ 3.821745410310949, 45.650548082190923 ], [ 3.71903331769323, 45.651250907905556 ], [ 3.719969871141291, 45.723286658493798 ] ], [ [ 5.761582420416038, 45.403418881878629 ], [ 5.863775184349298, 45.400853457205514 ], [ 5.860072241528434, 45.328864883629542 ], [ 5.758011396607568, 45.331426960947326 ], [ 5.761582420416038, 45.403418881878629 ] ], [ [ 5.65594133194832, 45.333895984454536 ], [ 5.758011396607568, 45.331426960947326 ], [ 5.754449592568248, 45.259435864648879 ], [ 5.652511142852697, 45.26190166674477 ], [ 5.65594133194832, 45.333895984454536 ] ], [ [ 2.59282395656932, 45.148551305146391 ], [ 2.796410624909714, 45.149108468899698 ], [ 2.796672744234753, 45.077076606113707 ], [ 2.593348184778203, 45.076520169550221 ], [ 2.59282395656932, 45.148551305146391 ] ], [ [ 3.30459787642827, 45.004814526738016 ], [ 3.406128935124802, 45.004490363023855 ], [ 3.405087198519087, 44.860435179053795 ], [ 3.303816564954734, 44.860758497343227 ], [ 3.30459787642827, 45.004814526738016 ] ], [ [ 4.116789949116252, 44.999628135902839 ], [ 4.218300867833061, 44.998563133849956 ], [ 4.215176317562793, 44.854523407280091 ], [ 4.012671357869572, 44.85655550737286 ], [ 4.013971676542573, 44.92857725577808 ], [ 4.115355970495478, 44.927606113448697 ], [ 4.116789949116252, 44.999628135902839 ] ], [ [ 3.405087198519087, 44.860435179053795 ], [ 3.607624134725222, 44.859511422953538 ], [ 3.606845860071698, 44.787487471286354 ], [ 3.707981803489239, 44.786887821472263 ], [ 3.707076158651593, 44.714866420622194 ], [ 3.808080426811775, 44.714175427683365 ], [ 3.803966780945428, 44.426113293345374 ], [ 3.602984201487737, 44.427396437724042 ], [ 3.603752596489734, 44.499410448741145 ], [ 3.704373072551879, 44.498813921487788 ], [ 3.705271802017232, 44.570829360909222 ], [ 3.503772134280767, 44.571932085226429 ], [ 3.504415749291257, 44.643951061679765 ], [ 3.403534575474268, 44.644365129067488 ], [ 3.405087198519087, 44.860435179053795 ] ], [ [ 3.911413715725059, 44.85743302828083 ], [ 4.012671357869572, 44.85655550737286 ], [ 4.008790334442607, 44.640500620949069 ], [ 3.907920685907551, 44.64137471219415 ], [ 3.911413715725059, 44.85743302828083 ] ], [ [ 5.527710430419429, 44.760325261782661 ], [ 5.628745593526735, 44.757973984651159 ], [ 5.625385222030431, 44.685990292515854 ], [ 5.524479034235396, 44.688338503940166 ], [ 5.527710430419429, 44.760325261782661 ] ], [ [ 2.89898647537016, 44.717077656182347 ], [ 3.0, 44.717123724532208 ], [ 3.0, 44.645101256540272 ], [ 2.899115532761554, 44.645055248285495 ], [ 2.89898647537016, 44.717077656182347 ] ], [ [ 3.0, 44.645101256540272 ], [ 3.100884467238447, 44.645055248285495 ], [ 3.100755739199951, 44.573034831580941 ], [ 3.0, 44.573080779823968 ], [ 3.0, 44.645101256540272 ] ], [ [ 6.142292213200558, 43.087436649593755 ], [ 6.240380304652747, 43.084529402734113 ], [ 6.236358005285926, 43.012639289006479 ], [ 6.138391410305499, 43.01554275207566 ], [ 6.142292213200558, 43.087436649593755 ] ] ], [ [ [ 8.959529527436457, 42.751737358175795 ], [ 8.952179081698437, 42.680012685270505 ], [ 8.85496259469836, 42.685385241645683 ], [ 8.847749098478053, 42.613657991679986 ], [ 8.65350100112501, 42.624124589805959 ], [ 8.632676942170258, 42.408929633398742 ], [ 8.535882503933051, 42.414010750576495 ], [ 8.502100723755037, 42.055418041367851 ], [ 8.598308432271738, 42.050369834613626 ], [ 8.591484913843077, 41.978673595495273 ], [ 8.495393703017662, 41.983715246219973 ], [ 8.488702987679186, 41.912017945648365 ], [ 8.584677981194792, 41.906982842316474 ], [ 8.577887574029033, 41.835297680071697 ], [ 8.673730164182642, 41.830182132581434 ], [ 8.659967763966938, 41.686842276474152 ], [ 8.755562809142008, 41.681653271176273 ], [ 8.741637200718639, 41.538350465469776 ], [ 8.836985771406724, 41.533088439789367 ], [ 8.829933784746244, 41.46145296011818 ], [ 8.925150989787294, 41.456111416185372 ], [ 8.997601151825297, 42.172657748146456 ], [ 8.901228373848712, 42.178069132039518 ], [ 8.908453676124697, 42.249760771961043 ], [ 8.811946123880213, 42.255091605367745 ], [ 8.819071666670938, 42.326795213422599 ], [ 9.012303906781129, 42.316031986619045 ], [ 9.056847036134316, 42.746269434824093 ], [ 8.959529527436457, 42.751737358175795 ] ] ] ] } }
]
}
