{
"type": "FeatureCollection",
"name": "phenips_generations_20260722",
"crs": { "type": "name", "properties": { "name": "urn:ogc:def:crs:OGC:1.3:CRS84" } },
"features": [
{ "type": "Feature", "properties": { "generation": "-", "label": "Gen -", "couleur": "#cccccc", "date_calcul": "2026-07-22", "annee": 2026 }, "geometry": { "type": "MultiPolygon", "coordinates": [ [ [ [ 8.02519, 46.61534 ], [ 8.02519, 46.52526 ], [ 7.66485, 46.52526 ], [ 7.66485, 46.43517 ], [ 7.75493, 46.43517 ], [ 7.75493, 46.34509 ], [ 7.9351, 46.34509 ], [ 7.9351, 46.43517 ], [ 8.11527, 46.43517 ], [ 8.11527, 46.61534 ], [ 8.02519, 46.61534 ] ] ], [ [ [ 7.57476, 46.16492 ], [ 7.57476, 46.07483 ], [ 7.48468, 46.07483 ], [ 7.48468, 45.98475 ], [ 7.30451, 45.98475 ], [ 7.30451, 46.07483 ], [ 7.21442, 46.07483 ], [ 7.21442, 45.89466 ], [ 7.84502, 45.89466 ], [ 7.84502, 45.98475 ], [ 7.9351, 45.98475 ], [ 7.9351, 46.07483 ], [ 7.84502, 46.07483 ], [ 7.84502, 46.16492 ], [ 7.75493, 46.16492 ], [ 7.75493, 45.98475 ], [ 7.66485, 45.98475 ], [ 7.66485, 46.16492 ], [ 7.57476, 46.16492 ] ] ], [ [ [ 6.94417, 45.98475 ], [ 6.94417, 45.89466 ], [ 7.03425, 45.89466 ], [ 7.03425, 45.98475 ], [ 6.94417, 45.98475 ] ] ], [ [ [ 6.85408, 45.89466 ], [ 6.85408, 45.80458 ], [ 6.94417, 45.80458 ], [ 6.94417, 45.89466 ], [ 6.85408, 45.89466 ] ] ], [ [ [ 6.67391, 45.80458 ], [ 6.67391, 45.71449 ], [ 6.85408, 45.71449 ], [ 6.85408, 45.80458 ], [ 6.67391, 45.80458 ] ] ], [ [ [ 6.76399, 45.44424 ], [ 6.76399, 45.35415 ], [ 6.67391, 45.35415 ], [ 6.67391, 45.26407 ], [ 6.85408, 45.26407 ], [ 6.85408, 45.44424 ], [ 6.76399, 45.44424 ] ] ], [ [ [ 6.85408, 45.53432 ], [ 6.85408, 45.44424 ], [ 7.03425, 45.44424 ], [ 7.03425, 45.35415 ], [ 6.94417, 45.35415 ], [ 6.94417, 45.26407 ], [ 7.12434, 45.26407 ], [ 7.12434, 45.53432 ], [ 6.85408, 45.53432 ] ] ], [ [ [ 6.85408, 44.63347 ], [ 6.85408, 44.54339 ], [ 6.94417, 44.54339 ], [ 6.94417, 44.63347 ], [ 6.85408, 44.63347 ] ] ] ] } },
{ "type": "Feature", "properties": { "generation": "1", "label": "Generation 1 complete", "couleur": "#35B779FF", "date_calcul": "2026-07-22", "annee": 2026 }, "geometry": { "type": "MultiPolygon", "coordinates": [ [ [ [ 8.20536, 46.70543 ], [ 8.20536, 46.61534 ], [ 8.47561, 46.61534 ], [ 8.47561, 46.70543 ], [ 8.20536, 46.70543 ] ] ], [ [ [ 8.92604, 46.61534 ], [ 8.92604, 46.52526 ], [ 9.10621, 46.52526 ], [ 9.10621, 46.61534 ], [ 8.92604, 46.61534 ] ] ], [ [ [ 7.48468, 46.16492 ], [ 7.48468, 46.07483 ], [ 7.57476, 46.07483 ], [ 7.57476, 46.16492 ], [ 7.48468, 46.16492 ] ] ], [ [ [ 7.84502, 46.16492 ], [ 7.84502, 46.07483 ], [ 7.9351, 46.07483 ], [ 7.9351, 46.16492 ], [ 7.84502, 46.16492 ] ] ], [ [ [ 7.30451, 46.07483 ], [ 7.30451, 45.98475 ], [ 7.48468, 45.98475 ], [ 7.48468, 46.07483 ], [ 7.30451, 46.07483 ] ] ], [ [ [ 7.12434, 45.98475 ], [ 7.12434, 45.89466 ], [ 7.21442, 45.89466 ], [ 7.21442, 45.98475 ], [ 7.12434, 45.98475 ] ] ], [ [ [ 6.67391, 45.89466 ], [ 6.67391, 45.80458 ], [ 6.85408, 45.80458 ], [ 6.85408, 45.89466 ], [ 6.67391, 45.89466 ] ] ], [ [ [ 6.94417, 45.62441 ], [ 6.94417, 45.53432 ], [ 7.03425, 45.53432 ], [ 7.03425, 45.62441 ], [ 6.94417, 45.62441 ] ] ], [ [ [ 6.04331, 45.17398 ], [ 6.04331, 45.0839 ], [ 6.1334, 45.0839 ], [ 6.1334, 45.17398 ], [ 6.04331, 45.17398 ] ] ], [ [ [ 6.76399, 45.17398 ], [ 6.76399, 45.0839 ], [ 6.85408, 45.0839 ], [ 6.85408, 45.17398 ], [ 6.76399, 45.17398 ] ] ], [ [ [ 6.22348, 44.99381 ], [ 6.22348, 44.90373 ], [ 6.31357, 44.90373 ], [ 6.31357, 44.99381 ], [ 6.22348, 44.99381 ] ] ] ] } },
{ "type": "Feature", "properties": { "generation": "1s", "label": "Gen 1s", "couleur": "#cccccc", "date_calcul": "2026-07-22", "annee": 2026 }, "geometry": { "type": "MultiPolygon", "coordinates": [ [ [ [ 5.23255, 49.94849 ], [ 5.23255, 49.76832 ], [ 5.41272, 49.76832 ], [ 5.41272, 49.67824 ], [ 5.68297, 49.67824 ], [ 5.68297, 49.58815 ], [ 5.77306, 49.58815 ], [ 5.77306, 49.76832 ], [ 5.68297, 49.76832 ], [ 5.68297, 49.85841 ], [ 5.59289, 49.85841 ], [ 5.59289, 49.94849 ], [ 5.23255, 49.94849 ] ] ], [ [ [ 6.94417, 49.58815 ], [ 6.94417, 49.49807 ], [ 7.12434, 49.49807 ], [ 7.12434, 49.58815 ], [ 6.94417, 49.58815 ] ] ], [ [ [ 5.05238, 49.40798 ], [ 5.05238, 49.3179 ], [ 4.96229, 49.3179 ], [ 4.96229, 49.04764 ], [ 5.32263, 49.04764 ], [ 5.32263, 49.22781 ], [ 5.23255, 49.22781 ], [ 5.23255, 49.40798 ], [ 5.05238, 49.40798 ] ] ], [ [ [ 7.39459, 49.13773 ], [ 7.39459, 48.95756 ], [ 7.48468, 48.95756 ], [ 7.48468, 49.13773 ], [ 7.39459, 49.13773 ] ] ], [ [ [ 2.98042, 49.22781 ], [ 2.98042, 49.13773 ], [ 3.07051, 49.13773 ], [ 3.07051, 49.04764 ], [ 3.25068, 49.04764 ], [ 3.25068, 48.86747 ], [ 3.34076, 48.86747 ], [ 3.34076, 49.22781 ], [ 2.98042, 49.22781 ] ] ], [ [ [ 6.31357, 49.49807 ], [ 6.31357, 49.04764 ], [ 6.40365, 49.04764 ], [ 6.40365, 48.77739 ], [ 6.49374, 48.77739 ], [ 6.49374, 48.95756 ], [ 6.67391, 48.95756 ], [ 6.67391, 49.04764 ], [ 7.12434, 49.04764 ], [ 7.12434, 49.22781 ], [ 7.21442, 49.22781 ], [ 7.21442, 49.40798 ], [ 7.30451, 49.40798 ], [ 7.30451, 49.49807 ], [ 7.12434, 49.49807 ], [ 7.12434, 49.40798 ], [ 7.03425, 49.40798 ], [ 7.03425, 49.22781 ], [ 6.76399, 49.22781 ], [ 6.76399, 49.3179 ], [ 6.67391, 49.3179 ], [ 6.67391, 49.40798 ], [ 6.49374, 49.40798 ], [ 6.49374, 49.49807 ], [ 6.31357, 49.49807 ] ] ], [ [ [ 6.1334, 48.86747 ], [ 6.1334, 48.6873 ], [ 6.22348, 48.6873 ], [ 6.22348, 48.77739 ], [ 6.31357, 48.77739 ], [ 6.31357, 48.86747 ], [ 6.1334, 48.86747 ] ] ], [ [ [ 5.41272, 49.04764 ], [ 5.41272, 48.86747 ], [ 5.5028, 48.86747 ], [ 5.5028, 48.6873 ], [ 5.59289, 48.6873 ], [ 5.59289, 48.59722 ], [ 5.68297, 48.59722 ], [ 5.68297, 48.86747 ], [ 5.77306, 48.86747 ], [ 5.77306, 48.95756 ], [ 5.86314, 48.95756 ], [ 5.86314, 49.04764 ], [ 5.41272, 49.04764 ] ] ], [ [ [ 6.04331, 48.6873 ], [ 6.04331, 48.59722 ], [ 6.1334, 48.59722 ], [ 6.1334, 48.6873 ], [ 6.04331, 48.6873 ] ] ], [ [ [ 5.68297, 48.59722 ], [ 5.68297, 48.50713 ], [ 5.77306, 48.50713 ], [ 5.77306, 48.41705 ], [ 5.95323, 48.41705 ], [ 5.95323, 48.59722 ], [ 5.68297, 48.59722 ] ] ], [ [ [ -1.61392, 47.69636 ], [ -1.61392, 47.60628 ], [ -1.43375, 47.60628 ], [ -1.43375, 47.69636 ], [ -1.61392, 47.69636 ] ] ], [ [ [ -1.97426, 47.69636 ], [ -1.97426, 47.60628 ], [ -2.15443, 47.60628 ], [ -2.15443, 47.51619 ], [ -1.97426, 47.51619 ], [ -1.97426, 47.42611 ], [ -1.52383, 47.42611 ], [ -1.52383, 47.24594 ], [ -1.43375, 47.24594 ], [ -1.43375, 47.33602 ], [ -1.34366, 47.33602 ], [ -1.34366, 47.51619 ], [ -1.79409, 47.51619 ], [ -1.79409, 47.60628 ], [ -1.704, 47.60628 ], [ -1.704, 47.69636 ], [ -1.97426, 47.69636 ] ] ], [ [ [ -1.97426, 47.33602 ], [ -1.97426, 47.24594 ], [ -1.88417, 47.24594 ], [ -1.88417, 47.33602 ], [ -1.97426, 47.33602 ] ] ], [ [ [ 0.18778, 45.62441 ], [ 0.18778, 45.53432 ], [ 0.27787, 45.53432 ], [ 0.27787, 45.44424 ], [ 0.45804, 45.44424 ], [ 0.45804, 45.62441 ], [ 0.18778, 45.62441 ] ] ], [ [ [ 1.35889, 45.35415 ], [ 1.35889, 45.26407 ], [ 1.44897, 45.26407 ], [ 1.44897, 45.35415 ], [ 1.35889, 45.35415 ] ] ], [ [ [ 1.44897, 45.26407 ], [ 1.44897, 45.17398 ], [ 1.53906, 45.17398 ], [ 1.53906, 45.26407 ], [ 1.44897, 45.26407 ] ] ], [ [ [ 1.35889, 45.17398 ], [ 1.35889, 44.90373 ], [ 1.53906, 44.90373 ], [ 1.53906, 44.99381 ], [ 1.71923, 44.99381 ], [ 1.71923, 45.0839 ], [ 1.44897, 45.0839 ], [ 1.44897, 45.17398 ], [ 1.35889, 45.17398 ] ] ], [ [ [ 1.08863, 44.72356 ], [ 1.08863, 44.63347 ], [ 1.17872, 44.63347 ], [ 1.17872, 44.72356 ], [ 1.08863, 44.72356 ] ] ], [ [ [ 0.18778, 44.72356 ], [ 0.18778, 44.63347 ], [ 0.00761, 44.63347 ], [ 0.00761, 44.54339 ], [ 0.18778, 44.54339 ], [ 0.18778, 44.4533 ], [ 0.27787, 44.4533 ], [ 0.27787, 44.36322 ], [ 0.18778, 44.36322 ], [ 0.18778, 44.27313 ], [ 0.36795, 44.27313 ], [ 0.36795, 44.4533 ], [ 0.45804, 44.4533 ], [ 0.45804, 44.63347 ], [ 0.54812, 44.63347 ], [ 0.54812, 44.72356 ], [ 0.18778, 44.72356 ] ] ], [ [ [ 0.45804, 44.27313 ], [ 0.45804, 44.18305 ], [ 0.63821, 44.18305 ], [ 0.63821, 44.09296 ], [ 1.2688, 44.09296 ], [ 1.2688, 44.18305 ], [ 1.08863, 44.18305 ], [ 1.08863, 44.27313 ], [ 0.99855, 44.27313 ], [ 0.99855, 44.18305 ], [ 0.72829, 44.18305 ], [ 0.72829, 44.27313 ], [ 0.45804, 44.27313 ] ] ], [ [ [ -1.07341, 43.10202 ], [ -1.07341, 43.01194 ], [ -0.98332, 43.01194 ], [ -0.98332, 43.10202 ], [ -1.07341, 43.10202 ] ] ], [ [ [ 8.92604, 42.74168 ], [ 8.92604, 42.6516 ], [ 9.01612, 42.6516 ], [ 9.01612, 42.74168 ], [ 8.92604, 42.74168 ] ] ], [ [ [ 8.65578, 42.6516 ], [ 8.65578, 42.56151 ], [ 8.83595, 42.56151 ], [ 8.83595, 42.6516 ], [ 8.65578, 42.6516 ] ] ], [ [ [ 7.48468, 49.40798 ], [ 7.48468, 49.3179 ], [ 7.57476, 49.3179 ], [ 7.57476, 49.22781 ], [ 7.48468, 49.22781 ], [ 7.48468, 49.13773 ], [ 7.66485, 49.13773 ], [ 7.66485, 49.04764 ], [ 7.57476, 49.04764 ], [ 7.57476, 48.95756 ], [ 7.66485, 48.95756 ], [ 7.66485, 48.86747 ], [ 7.48468, 48.86747 ], [ 7.48468, 48.77739 ], [ 7.39459, 48.77739 ], [ 7.39459, 48.95756 ], [ 7.21442, 48.95756 ], [ 7.21442, 48.86747 ], [ 7.12434, 48.86747 ], [ 7.12434, 48.77739 ], [ 7.21442, 48.77739 ], [ 7.21442, 48.59722 ], [ 7.12434, 48.59722 ], [ 7.12434, 48.50713 ], [ 6.85408, 48.50713 ], [ 6.85408, 48.41705 ], [ 6.22348, 48.41705 ], [ 6.22348, 48.32696 ], [ 5.77306, 48.32696 ], [ 5.77306, 48.41705 ], [ 5.5028, 48.41705 ], [ 5.5028, 48.32696 ], [ 5.41272, 48.32696 ], [ 5.41272, 48.41705 ], [ 5.23255, 48.41705 ], [ 5.23255, 48.50713 ], [ 5.14246, 48.50713 ], [ 5.14246, 48.59722 ], [ 4.96229, 48.59722 ], [ 4.96229, 48.77739 ], [ 4.60195, 48.77739 ], [ 4.60195, 48.50713 ], [ 4.3317, 48.50713 ], [ 4.3317, 48.6873 ], [ 4.06144, 48.6873 ], [ 4.06144, 48.59722 ], [ 3.97136, 48.59722 ], [ 3.97136, 48.50713 ], [ 3.88127, 48.50713 ], [ 3.88127, 48.41705 ], [ 3.61102, 48.41705 ], [ 3.61102, 48.50713 ], [ 3.52093, 48.50713 ], [ 3.52093, 48.59722 ], [ 3.79119, 48.59722 ], [ 3.79119, 48.77739 ], [ 3.97136, 48.77739 ], [ 3.97136, 48.95756 ], [ 3.79119, 48.95756 ], [ 3.79119, 49.04764 ], [ 3.61102, 49.04764 ], [ 3.61102, 48.86747 ], [ 3.52093, 48.86747 ], [ 3.52093, 48.77739 ], [ 3.43085, 48.77739 ], [ 3.43085, 48.6873 ], [ 3.07051, 48.6873 ], [ 3.07051, 48.59722 ], [ 2.98042, 48.59722 ], [ 2.98042, 48.6873 ], [ 2.53, 48.6873 ], [ 2.53, 48.59722 ], [ 2.43991, 48.59722 ], [ 2.43991, 48.32696 ], [ 2.34983, 48.32696 ], [ 2.34983, 48.41705 ], [ 1.98948, 48.41705 ], [ 1.98948, 48.50713 ], [ 1.8994, 48.50713 ], [ 1.8994, 48.41705 ], [ 1.80931, 48.41705 ], [ 1.80931, 48.59722 ], [ 1.71923, 48.59722 ], [ 1.71923, 48.6873 ], [ 1.80931, 48.6873 ], [ 1.80931, 48.77739 ], [ 1.44897, 48.77739 ], [ 1.44897, 48.6873 ], [ 1.2688, 48.6873 ], [ 1.2688, 48.59722 ], [ 1.35889, 48.59722 ], [ 1.35889, 48.50713 ], [ 1.17872, 48.50713 ], [ 1.17872, 48.59722 ], [ 1.08863, 48.59722 ], [ 1.08863, 48.6873 ], [ 0.99855, 48.6873 ], [ 0.99855, 48.77739 ], [ 0.90846, 48.77739 ], [ 0.90846, 48.6873 ], [ 0.81838, 48.6873 ], [ 0.81838, 48.77739 ], [ 0.72829, 48.77739 ], [ 0.72829, 48.6873 ], [ -0.17256, 48.6873 ], [ -0.17256, 48.41705 ], [ 0.00761, 48.41705 ], [ 0.00761, 48.32696 ], [ -0.17256, 48.32696 ], [ -0.17256, 48.23687 ], [ -0.26264, 48.23687 ], [ -0.26264, 48.0567 ], [ -0.35273, 48.0567 ], [ -0.35273, 47.87653 ], [ -0.44281, 47.87653 ], [ -0.44281, 47.78645 ], [ -0.35273, 47.78645 ], [ -0.35273, 47.69636 ], [ -0.08247, 47.69636 ], [ -0.08247, 47.60628 ], [ -0.17256, 47.60628 ], [ -0.17256, 47.51619 ], [ 0.0977, 47.51619 ], [ 0.0977, 47.42611 ], [ 0.00761, 47.42611 ], [ 0.00761, 47.33602 ], [ 0.0977, 47.33602 ], [ 0.0977, 47.24594 ], [ -0.08247, 47.24594 ], [ -0.08247, 47.33602 ], [ -0.17256, 47.33602 ], [ -0.17256, 47.42611 ], [ -0.26264, 47.42611 ], [ -0.26264, 47.51619 ], [ -0.62298, 47.51619 ], [ -0.62298, 47.42611 ], [ -1.25358, 47.42611 ], [ -1.25358, 47.24594 ], [ -1.16349, 47.24594 ], [ -1.16349, 47.15585 ], [ -1.25358, 47.15585 ], [ -1.25358, 46.97568 ], [ -1.52383, 46.97568 ], [ -1.52383, 46.8856 ], [ -1.704, 46.8856 ], [ -1.704, 46.52526 ], [ -1.52383, 46.52526 ], [ -1.52383, 46.43517 ], [ -1.34366, 46.43517 ], [ -1.34366, 46.52526 ], [ -1.16349, 46.52526 ], [ -1.16349, 46.61534 ], [ -0.89324, 46.61534 ], [ -0.89324, 46.52526 ], [ -0.5329, 46.52526 ], [ -0.5329, 46.34509 ], [ -1.07341, 46.34509 ], [ -1.07341, 46.16492 ], [ -0.89324, 46.16492 ], [ -0.89324, 45.98475 ], [ -0.71307, 45.98475 ], [ -0.71307, 45.89466 ], [ -0.62298, 45.89466 ], [ -0.62298, 45.71449 ], [ -0.26264, 45.71449 ], [ -0.26264, 45.80458 ], [ -0.08247, 45.80458 ], [ -0.08247, 45.71449 ], [ 0.00761, 45.71449 ], [ 0.00761, 45.80458 ], [ 0.45804, 45.80458 ], [ 0.45804, 45.62441 ], [ 0.54812, 45.62441 ], [ 0.54812, 45.71449 ], [ 0.63821, 45.71449 ], [ 0.63821, 45.62441 ], [ 0.72829, 45.62441 ], [ 0.72829, 45.53432 ], [ 0.90846, 45.53432 ], [ 0.90846, 45.44424 ], [ 1.08863, 45.44424 ], [ 1.08863, 45.35415 ], [ 1.17872, 45.35415 ], [ 1.17872, 45.26407 ], [ 1.08863, 45.26407 ], [ 1.08863, 45.17398 ], [ 1.35889, 45.17398 ], [ 1.35889, 45.26407 ], [ 1.2688, 45.26407 ], [ 1.2688, 45.53432 ], [ 1.35889, 45.53432 ], [ 1.35889, 45.44424 ], [ 1.44897, 45.44424 ], [ 1.44897, 45.53432 ], [ 1.62914, 45.53432 ], [ 1.62914, 45.44424 ], [ 1.53906, 45.44424 ], [ 1.53906, 45.35415 ], [ 1.80931, 45.35415 ], [ 1.80931, 45.17398 ], [ 1.8994, 45.17398 ], [ 1.8994, 45.0839 ], [ 1.80931, 45.0839 ], [ 1.80931, 44.99381 ], [ 1.71923, 44.99381 ], [ 1.71923, 44.90373 ], [ 1.53906, 44.90373 ], [ 1.53906, 44.81364 ], [ 1.35889, 44.81364 ], [ 1.35889, 44.72356 ], [ 1.2688, 44.72356 ], [ 1.2688, 44.54339 ], [ 1.35889, 44.54339 ], [ 1.35889, 44.4533 ], [ 1.71923, 44.4533 ], [ 1.71923, 44.36322 ], [ 1.62914, 44.36322 ], [ 1.62914, 44.00288 ], [ 1.53906, 44.00288 ], [ 1.53906, 43.91279 ], [ 1.44897, 43.91279 ], [ 1.44897, 43.82271 ], [ 1.53906, 43.82271 ], [ 1.53906, 43.73262 ], [ 1.62914, 43.73262 ], [ 1.62914, 43.64253 ], [ 1.71923, 43.64253 ], [ 1.71923, 43.55245 ], [ 1.80931, 43.55245 ], [ 1.80931, 43.64253 ], [ 1.98948, 43.64253 ], [ 1.98948, 43.55245 ], [ 1.8994, 43.55245 ], [ 1.8994, 43.46236 ], [ 1.80931, 43.46236 ], [ 1.80931, 43.37228 ], [ 1.71923, 43.37228 ], [ 1.71923, 43.10202 ], [ 1.8994, 43.10202 ], [ 1.8994, 43.01194 ], [ 1.71923, 43.01194 ], [ 1.71923, 42.92185 ], [ 1.35889, 42.92185 ], [ 1.35889, 42.83177 ], [ 1.2688, 42.83177 ], [ 1.2688, 42.92185 ], [ 0.36795, 42.92185 ], [ 0.36795, 43.01194 ], [ -0.08247, 43.01194 ], [ -0.08247, 42.92185 ], [ -0.17256, 42.92185 ], [ -0.17256, 43.01194 ], [ -0.44281, 43.01194 ], [ -0.44281, 42.92185 ], [ -0.71307, 42.92185 ], [ -0.71307, 43.01194 ], [ -0.98332, 43.01194 ], [ -0.98332, 42.92185 ], [ -0.80315, 42.92185 ], [ -0.80315, 42.83177 ], [ -0.71307, 42.83177 ], [ -0.71307, 42.74168 ], [ -0.5329, 42.74168 ], [ -0.5329, 42.83177 ], [ -0.26264, 42.83177 ], [ -0.26264, 42.74168 ], [ -0.08247, 42.74168 ], [ -0.08247, 42.6516 ], [ 0.63821, 42.6516 ], [ 0.63821, 42.56151 ], [ 0.99855, 42.56151 ], [ 0.99855, 42.6516 ], [ 1.44897, 42.6516 ], [ 1.44897, 42.47143 ], [ 1.71923, 42.47143 ], [ 1.71923, 42.38134 ], [ 2.89034, 42.38134 ], [ 2.89034, 42.56151 ], [ 2.98042, 42.56151 ], [ 2.98042, 42.6516 ], [ 3.07051, 42.6516 ], [ 3.07051, 42.74168 ], [ 2.98042, 42.74168 ], [ 2.98042, 42.83177 ], [ 3.07051, 42.83177 ], [ 3.07051, 43.10202 ], [ 3.16059, 43.10202 ], [ 3.16059, 43.19211 ], [ 3.25068, 43.19211 ], [ 3.25068, 43.28219 ], [ 3.61102, 43.28219 ], [ 3.61102, 43.37228 ], [ 3.7011, 43.37228 ], [ 3.7011, 43.46236 ], [ 3.52093, 43.46236 ], [ 3.52093, 43.55245 ], [ 3.79119, 43.55245 ], [ 3.79119, 43.46236 ], [ 3.88127, 43.46236 ], [ 3.88127, 43.55245 ], [ 4.06144, 43.55245 ], [ 4.06144, 43.46236 ], [ 4.51187, 43.46236 ], [ 4.51187, 43.37228 ], [ 4.78212, 43.37228 ], [ 4.78212, 43.55245 ], [ 4.96229, 43.55245 ], [ 4.96229, 43.37228 ], [ 5.14246, 43.37228 ], [ 5.14246, 43.28219 ], [ 5.32263, 43.28219 ], [ 5.32263, 43.19211 ], [ 5.41272, 43.19211 ], [ 5.41272, 43.10202 ], [ 5.77306, 43.10202 ], [ 5.77306, 43.01194 ], [ 6.1334, 43.01194 ], [ 6.1334, 43.10202 ], [ 6.31357, 43.10202 ], [ 6.31357, 43.19211 ], [ 6.58382, 43.19211 ], [ 6.58382, 43.46236 ], [ 6.67391, 43.46236 ], [ 6.67391, 43.64253 ], [ 6.94417, 43.64253 ], [ 6.94417, 43.73262 ], [ 7.03425, 43.73262 ], [ 7.03425, 43.64253 ], [ 7.39459, 43.64253 ], [ 7.39459, 43.73262 ], [ 7.57476, 43.73262 ], [ 7.57476, 43.82271 ], [ 7.48468, 43.82271 ], [ 7.48468, 44.09296 ], [ 7.57476, 44.09296 ], [ 7.57476, 43.91279 ], [ 7.66485, 43.91279 ], [ 7.66485, 44.18305 ], [ 7.12434, 44.18305 ], [ 7.12434, 44.27313 ], [ 7.03425, 44.27313 ], [ 7.03425, 44.36322 ], [ 6.94417, 44.36322 ], [ 6.94417, 44.54339 ], [ 6.85408, 44.54339 ], [ 6.85408, 44.63347 ], [ 7.12434, 44.63347 ], [ 7.12434, 44.72356 ], [ 7.03425, 44.72356 ], [ 7.03425, 44.90373 ], [ 6.76399, 44.90373 ], [ 6.76399, 44.99381 ], [ 6.67391, 44.99381 ], [ 6.67391, 45.0839 ], [ 6.76399, 45.0839 ], [ 6.76399, 45.17398 ], [ 6.85408, 45.17398 ], [ 6.85408, 45.0839 ], [ 6.94417, 45.0839 ], [ 6.94417, 45.17398 ], [ 7.21442, 45.17398 ], [ 7.21442, 45.44424 ], [ 7.12434, 45.44424 ], [ 7.12434, 45.26407 ], [ 6.94417, 45.26407 ], [ 6.94417, 45.35415 ], [ 7.03425, 45.35415 ], [ 7.03425, 45.44424 ], [ 6.85408, 45.44424 ], [ 6.85408, 45.53432 ], [ 6.94417, 45.53432 ], [ 6.94417, 45.71449 ], [ 6.67391, 45.71449 ], [ 6.67391, 45.89466 ], [ 6.94417, 45.89466 ], [ 6.94417, 45.80458 ], [ 7.21442, 45.80458 ], [ 7.21442, 45.89466 ], [ 7.12434, 45.89466 ], [ 7.12434, 45.98475 ], [ 7.21442, 45.98475 ], [ 7.21442, 46.07483 ], [ 7.48468, 46.07483 ], [ 7.48468, 46.16492 ], [ 7.66485, 46.16492 ], [ 7.66485, 45.98475 ], [ 7.75493, 45.98475 ], [ 7.75493, 46.16492 ], [ 8.11527, 46.16492 ], [ 8.11527, 46.43517 ], [ 7.9351, 46.43517 ], [ 7.9351, 46.34509 ], [ 7.75493, 46.34509 ], [ 7.75493, 46.43517 ], [ 7.66485, 46.43517 ], [ 7.66485, 46.52526 ], [ 8.02519, 46.52526 ], [ 8.02519, 46.61534 ], [ 8.11527, 46.61534 ], [ 8.11527, 46.79551 ], [ 8.20536, 46.79551 ], [ 8.20536, 46.70543 ], [ 8.47561, 46.70543 ], [ 8.47561, 46.61534 ], [ 8.20536, 46.61534 ], [ 8.20536, 46.34509 ], [ 8.29544, 46.34509 ], [ 8.29544, 46.43517 ], [ 8.38553, 46.43517 ], [ 8.38553, 46.52526 ], [ 8.92604, 46.52526 ], [ 8.92604, 46.43517 ], [ 9.28638, 46.43517 ], [ 9.28638, 46.34509 ], [ 9.46655, 46.34509 ], [ 9.46655, 46.79551 ], [ 9.64672, 46.79551 ], [ 9.64672, 47.15585 ], [ 9.46655, 47.15585 ], [ 9.46655, 47.24594 ], [ 9.55663, 47.24594 ], [ 9.55663, 47.42611 ], [ 9.7368, 47.42611 ], [ 9.7368, 48.14679 ], [ 9.64672, 48.14679 ], [ 9.64672, 48.23687 ], [ 9.55663, 48.23687 ], [ 9.55663, 48.0567 ], [ 9.46655, 48.0567 ], [ 9.46655, 47.96662 ], [ 9.19629, 47.96662 ], [ 9.19629, 48.0567 ], [ 8.92604, 48.0567 ], [ 8.92604, 47.96662 ], [ 8.65578, 47.96662 ], [ 8.65578, 47.87653 ], [ 8.38553, 47.87653 ], [ 8.38553, 47.96662 ], [ 8.29544, 47.96662 ], [ 8.29544, 48.0567 ], [ 8.5657, 48.0567 ], [ 8.5657, 48.23687 ], [ 8.65578, 48.23687 ], [ 8.65578, 48.32696 ], [ 8.47561, 48.32696 ], [ 8.47561, 48.41705 ], [ 8.5657, 48.41705 ], [ 8.5657, 48.59722 ], [ 8.47561, 48.59722 ], [ 8.47561, 48.6873 ], [ 8.5657, 48.6873 ], [ 8.5657, 48.77739 ], [ 8.47561, 48.77739 ], [ 8.47561, 48.95756 ], [ 8.11527, 48.95756 ], [ 8.11527, 49.04764 ], [ 7.9351, 49.04764 ], [ 7.9351, 49.22781 ], [ 7.84502, 49.22781 ], [ 7.84502, 49.40798 ], [ 7.48468, 49.40798 ] ], [ [ 7.75493, 49.13773 ], [ 7.84502, 49.13773 ], [ 7.84502, 49.04764 ], [ 7.75493, 49.04764 ], [ 7.75493, 49.13773 ] ], [ [ 7.84502, 49.04764 ], [ 7.9351, 49.04764 ], [ 7.9351, 48.95756 ], [ 7.84502, 48.95756 ], [ 7.84502, 49.04764 ] ], [ [ 7.57476, 48.6873 ], [ 7.84502, 48.6873 ], [ 7.84502, 48.50713 ], [ 8.02519, 48.50713 ], [ 8.02519, 48.41705 ], [ 8.11527, 48.41705 ], [ 8.11527, 48.23687 ], [ 8.02519, 48.23687 ], [ 8.02519, 48.32696 ], [ 7.9351, 48.32696 ], [ 7.9351, 48.23687 ], [ 7.84502, 48.23687 ], [ 7.84502, 48.14679 ], [ 7.9351, 48.14679 ], [ 7.9351, 47.96662 ], [ 7.84502, 47.96662 ], [ 7.84502, 47.87653 ], [ 7.66485, 47.87653 ], [ 7.66485, 47.60628 ], [ 8.29544, 47.60628 ], [ 8.29544, 47.69636 ], [ 8.65578, 47.69636 ], [ 8.65578, 47.78645 ], [ 8.83595, 47.78645 ], [ 8.83595, 47.60628 ], [ 8.92604, 47.60628 ], [ 8.92604, 47.42611 ], [ 8.83595, 47.42611 ], [ 8.83595, 47.51619 ], [ 8.65578, 47.51619 ], [ 8.65578, 47.42611 ], [ 8.5657, 47.42611 ], [ 8.5657, 47.51619 ], [ 8.47561, 47.51619 ], [ 8.47561, 47.42611 ], [ 8.38553, 47.42611 ], [ 8.38553, 47.33602 ], [ 7.9351, 47.33602 ], [ 7.9351, 47.15585 ], [ 7.84502, 47.15585 ], [ 7.84502, 47.24594 ], [ 7.75493, 47.24594 ], [ 7.75493, 47.33602 ], [ 7.57476, 47.33602 ], [ 7.57476, 47.42611 ], [ 7.48468, 47.42611 ], [ 7.48468, 47.33602 ], [ 7.12434, 47.33602 ], [ 7.12434, 47.51619 ], [ 7.03425, 47.51619 ], [ 7.03425, 47.78645 ], [ 7.21442, 47.78645 ], [ 7.21442, 48.0567 ], [ 7.30451, 48.0567 ], [ 7.30451, 48.50713 ], [ 7.39459, 48.50713 ], [ 7.39459, 48.41705 ], [ 7.57476, 48.41705 ], [ 7.57476, 48.50713 ], [ 7.66485, 48.50713 ], [ 7.66485, 48.59722 ], [ 7.57476, 48.59722 ], [ 7.57476, 48.6873 ] ], [ [ 0.36795, 48.59722 ], [ 0.54812, 48.59722 ], [ 0.54812, 48.50713 ], [ 0.81838, 48.50713 ], [ 0.81838, 48.41705 ], [ 0.90846, 48.41705 ], [ 0.90846, 48.32696 ], [ 0.81838, 48.32696 ], [ 0.81838, 48.23687 ], [ 0.63821, 48.23687 ], [ 0.63821, 48.41705 ], [ 0.36795, 48.41705 ], [ 0.36795, 48.59722 ] ], [ [ 5.5028, 48.32696 ], [ 5.59289, 48.32696 ], [ 5.59289, 48.23687 ], [ 5.5028, 48.23687 ], [ 5.5028, 48.32696 ] ], [ [ 5.41272, 48.23687 ], [ 5.5028, 48.23687 ], [ 5.5028, 48.14679 ], [ 5.41272, 48.14679 ], [ 5.41272, 48.23687 ] ], [ [ 6.94417, 48.23687 ], [ 7.12434, 48.23687 ], [ 7.12434, 48.14679 ], [ 6.94417, 48.14679 ], [ 6.94417, 48.23687 ] ], [ [ 6.67391, 48.14679 ], [ 6.76399, 48.14679 ], [ 6.76399, 47.96662 ], [ 6.67391, 47.96662 ], [ 6.67391, 48.14679 ] ], [ [ 6.40365, 48.0567 ], [ 6.58382, 48.0567 ], [ 6.58382, 47.96662 ], [ 6.49374, 47.96662 ], [ 6.49374, 47.87653 ], [ 6.40365, 47.87653 ], [ 6.40365, 48.0567 ] ], [ [ 6.76399, 47.96662 ], [ 6.85408, 47.96662 ], [ 6.85408, 47.78645 ], [ 6.76399, 47.78645 ], [ 6.76399, 47.96662 ] ], [ [ 9.28638, 47.60628 ], [ 9.37646, 47.60628 ], [ 9.37646, 47.51619 ], [ 9.46655, 47.51619 ], [ 9.46655, 47.42611 ], [ 9.28638, 47.42611 ], [ 9.28638, 47.60628 ] ], [ [ 4.69204, 47.51619 ], [ 4.87221, 47.51619 ], [ 4.87221, 47.33602 ], [ 4.78212, 47.33602 ], [ 4.78212, 47.42611 ], [ 4.69204, 47.42611 ], [ 4.69204, 47.51619 ] ], [ [ 9.01612, 47.51619 ], [ 9.19629, 47.51619 ], [ 9.19629, 47.33602 ], [ 9.01612, 47.33602 ], [ 9.01612, 47.51619 ] ], [ [ 6.04331, 47.33602 ], [ 6.40365, 47.33602 ], [ 6.40365, 47.24594 ], [ 6.1334, 47.24594 ], [ 6.1334, 47.15585 ], [ 6.04331, 47.15585 ], [ 6.04331, 47.33602 ] ], [ [ 8.47561, 47.33602 ], [ 8.65578, 47.33602 ], [ 8.65578, 47.24594 ], [ 8.74587, 47.24594 ], [ 8.74587, 47.15585 ], [ 8.5657, 47.15585 ], [ 8.5657, 47.06577 ], [ 8.47561, 47.06577 ], [ 8.47561, 47.15585 ], [ 8.38553, 47.15585 ], [ 8.38553, 47.06577 ], [ 7.9351, 47.06577 ], [ 7.9351, 47.15585 ], [ 8.11527, 47.15585 ], [ 8.11527, 47.24594 ], [ 8.47561, 47.24594 ], [ 8.47561, 47.33602 ] ], [ [ 8.83595, 47.33602 ], [ 8.92604, 47.33602 ], [ 8.92604, 47.24594 ], [ 8.83595, 47.24594 ], [ 8.83595, 47.33602 ] ], [ [ 5.68297, 47.24594 ], [ 5.95323, 47.24594 ], [ 5.95323, 46.97568 ], [ 5.86314, 46.97568 ], [ 5.86314, 47.06577 ], [ 5.68297, 47.06577 ], [ 5.68297, 47.24594 ] ], [ [ 7.48468, 47.24594 ], [ 7.75493, 47.24594 ], [ 7.75493, 46.97568 ], [ 7.66485, 46.97568 ], [ 7.66485, 46.8856 ], [ 7.30451, 46.8856 ], [ 7.30451, 47.06577 ], [ 7.21442, 47.06577 ], [ 7.21442, 47.15585 ], [ 7.48468, 47.15585 ], [ 7.48468, 47.24594 ] ], [ [ 8.92604, 47.24594 ], [ 9.10621, 47.24594 ], [ 9.10621, 47.15585 ], [ 8.92604, 47.15585 ], [ 8.92604, 47.24594 ] ], [ [ -0.98332, 47.06577 ], [ -0.89324, 47.06577 ], [ -0.89324, 46.97568 ], [ -0.98332, 46.97568 ], [ -0.98332, 47.06577 ] ], [ [ 2.89034, 46.97568 ], [ 2.98042, 46.97568 ], [ 2.98042, 45.80458 ], [ 3.07051, 45.80458 ], [ 3.07051, 45.71449 ], [ 2.98042, 45.71449 ], [ 2.98042, 45.62441 ], [ 3.07051, 45.62441 ], [ 3.07051, 45.53432 ], [ 2.98042, 45.53432 ], [ 2.98042, 45.44424 ], [ 3.07051, 45.44424 ], [ 3.07051, 45.35415 ], [ 2.98042, 45.35415 ], [ 2.98042, 45.17398 ], [ 2.89034, 45.17398 ], [ 2.89034, 45.62441 ], [ 2.71017, 45.62441 ], [ 2.71017, 45.71449 ], [ 2.16966, 45.71449 ], [ 2.16966, 45.80458 ], [ 2.25974, 45.80458 ], [ 2.25974, 45.89466 ], [ 2.43991, 45.89466 ], [ 2.43991, 45.98475 ], [ 2.62008, 45.98475 ], [ 2.62008, 46.07483 ], [ 2.71017, 46.07483 ], [ 2.71017, 45.98475 ], [ 2.89034, 45.98475 ], [ 2.89034, 46.97568 ] ], [ [ 5.5028, 46.8856 ], [ 5.59289, 46.8856 ], [ 5.59289, 45.44424 ], [ 5.68297, 45.44424 ], [ 5.68297, 45.35415 ], [ 5.59289, 45.35415 ], [ 5.59289, 45.17398 ], [ 5.68297, 45.17398 ], [ 5.68297, 45.0839 ], [ 5.77306, 45.0839 ], [ 5.77306, 45.17398 ], [ 5.86314, 45.17398 ], [ 5.86314, 44.99381 ], [ 5.77306, 44.99381 ], [ 5.77306, 44.90373 ], [ 5.95323, 44.90373 ], [ 5.95323, 44.72356 ], [ 5.5028, 44.72356 ], [ 5.5028, 45.17398 ], [ 5.41272, 45.17398 ], [ 5.41272, 45.44424 ], [ 5.23255, 45.44424 ], [ 5.23255, 45.53432 ], [ 5.5028, 45.53432 ], [ 5.5028, 46.8856 ] ], [ [ 7.39459, 46.79551 ], [ 7.57476, 46.79551 ], [ 7.57476, 46.70543 ], [ 7.39459, 46.70543 ], [ 7.39459, 46.79551 ] ], [ [ 8.92604, 46.61534 ], [ 9.10621, 46.61534 ], [ 9.10621, 46.52526 ], [ 8.92604, 46.52526 ], [ 8.92604, 46.61534 ] ], [ [ 4.24161, 46.255 ], [ 4.42178, 46.255 ], [ 4.42178, 45.98475 ], [ 4.3317, 45.98475 ], [ 4.3317, 46.07483 ], [ 4.24161, 46.07483 ], [ 4.24161, 46.255 ] ], [ [ 7.12434, 46.255 ], [ 7.21442, 46.255 ], [ 7.21442, 46.16492 ], [ 7.12434, 46.16492 ], [ 7.12434, 46.255 ] ], [ [ 6.94417, 46.16492 ], [ 7.12434, 46.16492 ], [ 7.12434, 46.07483 ], [ 6.94417, 46.07483 ], [ 6.94417, 46.16492 ] ], [ [ 1.2688, 46.07483 ], [ 1.53906, 46.07483 ], [ 1.53906, 45.98475 ], [ 1.2688, 45.98475 ], [ 1.2688, 46.07483 ] ], [ [ 1.71923, 45.98475 ], [ 1.8994, 45.98475 ], [ 1.8994, 45.89466 ], [ 1.71923, 45.89466 ], [ 1.71923, 45.98475 ] ], [ [ 4.24161, 45.98475 ], [ 4.3317, 45.98475 ], [ 4.3317, 45.89466 ], [ 4.24161, 45.89466 ], [ 4.24161, 45.98475 ] ], [ [ 6.49374, 45.98475 ], [ 6.67391, 45.98475 ], [ 6.67391, 45.89466 ], [ 6.49374, 45.89466 ], [ 6.49374, 45.98475 ] ], [ [ 6.94417, 45.98475 ], [ 7.03425, 45.98475 ], [ 7.03425, 45.89466 ], [ 6.94417, 45.89466 ], [ 6.94417, 45.98475 ] ], [ [ 3.61102, 45.80458 ], [ 3.7011, 45.80458 ], [ 3.7011, 45.62441 ], [ 3.61102, 45.62441 ], [ 3.61102, 45.80458 ] ], [ [ 4.42178, 45.71449 ], [ 4.51187, 45.71449 ], [ 4.51187, 45.62441 ], [ 4.42178, 45.62441 ], [ 4.42178, 45.71449 ] ], [ [ 2.62008, 45.62441 ], [ 2.71017, 45.62441 ], [ 2.71017, 45.53432 ], [ 2.62008, 45.53432 ], [ 2.62008, 45.62441 ] ], [ [ 3.43085, 45.62441 ], [ 3.52093, 45.62441 ], [ 3.52093, 45.53432 ], [ 3.61102, 45.53432 ], [ 3.61102, 45.44424 ], [ 3.7011, 45.44424 ], [ 3.7011, 45.35415 ], [ 3.52093, 45.35415 ], [ 3.52093, 45.44424 ], [ 3.43085, 45.44424 ], [ 3.43085, 45.62441 ] ], [ [ 3.7011, 45.53432 ], [ 3.88127, 45.53432 ], [ 3.88127, 45.44424 ], [ 3.7011, 45.44424 ], [ 3.7011, 45.53432 ] ], [ [ 4.51187, 45.53432 ], [ 4.60195, 45.53432 ], [ 4.60195, 45.35415 ], [ 4.51187, 45.35415 ], [ 4.51187, 45.53432 ] ], [ [ 6.1334, 45.53432 ], [ 6.31357, 45.53432 ], [ 6.31357, 45.35415 ], [ 6.22348, 45.35415 ], [ 6.22348, 45.26407 ], [ 6.1334, 45.26407 ], [ 6.1334, 45.53432 ] ], [ [ 6.40365, 45.53432 ], [ 6.49374, 45.53432 ], [ 6.49374, 45.44424 ], [ 6.40365, 45.44424 ], [ 6.40365, 45.53432 ] ], [ [ 3.88127, 45.44424 ], [ 4.06144, 45.44424 ], [ 4.06144, 45.35415 ], [ 3.88127, 45.35415 ], [ 3.88127, 45.44424 ] ], [ [ 6.76399, 45.44424 ], [ 6.85408, 45.44424 ], [ 6.85408, 45.26407 ], [ 6.67391, 45.26407 ], [ 6.67391, 45.35415 ], [ 6.76399, 45.35415 ], [ 6.76399, 45.44424 ] ], [ [ 5.14246, 45.35415 ], [ 5.32263, 45.35415 ], [ 5.32263, 45.26407 ], [ 5.14246, 45.26407 ], [ 5.14246, 45.35415 ] ], [ [ 5.86314, 45.26407 ], [ 5.95323, 45.26407 ], [ 5.95323, 45.17398 ], [ 5.86314, 45.17398 ], [ 5.86314, 45.26407 ] ], [ [ 6.22348, 45.26407 ], [ 6.49374, 45.26407 ], [ 6.49374, 45.17398 ], [ 6.22348, 45.17398 ], [ 6.22348, 45.26407 ] ], [ [ 6.04331, 45.17398 ], [ 6.1334, 45.17398 ], [ 6.1334, 45.0839 ], [ 6.04331, 45.0839 ], [ 6.04331, 45.17398 ] ], [ [ 4.42178, 45.0839 ], [ 4.51187, 45.0839 ], [ 4.51187, 44.99381 ], [ 4.42178, 44.99381 ], [ 4.42178, 45.0839 ] ], [ [ 4.51187, 44.99381 ], [ 4.60195, 44.99381 ], [ 4.60195, 44.90373 ], [ 4.51187, 44.90373 ], [ 4.51187, 44.99381 ] ], [ [ 6.22348, 44.99381 ], [ 6.31357, 44.99381 ], [ 6.31357, 44.90373 ], [ 6.22348, 44.90373 ], [ 6.22348, 44.99381 ] ], [ [ 2.89034, 44.90373 ], [ 2.98042, 44.90373 ], [ 2.98042, 44.81364 ], [ 2.89034, 44.81364 ], [ 2.89034, 44.90373 ] ], [ [ 2.98042, 44.72356 ], [ 3.07051, 44.72356 ], [ 3.07051, 44.63347 ], [ 2.98042, 44.63347 ], [ 2.98042, 44.72356 ] ], [ [ 1.98948, 44.63347 ], [ 2.07957, 44.63347 ], [ 2.07957, 44.54339 ], [ 1.98948, 44.54339 ], [ 1.98948, 44.63347 ] ], [ [ 1.8994, 44.54339 ], [ 1.98948, 44.54339 ], [ 1.98948, 44.4533 ], [ 1.8994, 44.4533 ], [ 1.8994, 44.54339 ] ], [ [ 6.40365, 44.4533 ], [ 6.49374, 44.4533 ], [ 6.49374, 44.36322 ], [ 6.58382, 44.36322 ], [ 6.58382, 44.27313 ], [ 6.49374, 44.27313 ], [ 6.49374, 44.18305 ], [ 6.58382, 44.18305 ], [ 6.58382, 44.09296 ], [ 6.67391, 44.09296 ], [ 6.67391, 44.18305 ], [ 6.94417, 44.18305 ], [ 6.94417, 44.09296 ], [ 7.03425, 44.09296 ], [ 7.03425, 44.00288 ], [ 6.67391, 44.00288 ], [ 6.67391, 43.91279 ], [ 6.76399, 43.91279 ], [ 6.76399, 43.82271 ], [ 6.40365, 43.82271 ], [ 6.40365, 43.91279 ], [ 6.31357, 43.91279 ], [ 6.31357, 44.00288 ], [ 6.40365, 44.00288 ], [ 6.40365, 44.09296 ], [ 6.31357, 44.09296 ], [ 6.31357, 44.18305 ], [ 6.22348, 44.18305 ], [ 6.22348, 44.27313 ], [ 6.31357, 44.27313 ], [ 6.31357, 44.36322 ], [ 6.40365, 44.36322 ], [ 6.40365, 44.4533 ] ], [ [ 6.1334, 44.36322 ], [ 6.22348, 44.36322 ], [ 6.22348, 44.27313 ], [ 6.1334, 44.27313 ], [ 6.1334, 44.36322 ] ], [ [ 7.21442, 44.09296 ], [ 7.30451, 44.09296 ], [ 7.30451, 44.00288 ], [ 7.21442, 44.00288 ], [ 7.21442, 44.09296 ] ], [ [ 2.25974, 44.00288 ], [ 2.53, 44.00288 ], [ 2.53, 43.91279 ], [ 2.25974, 43.91279 ], [ 2.25974, 44.00288 ] ], [ [ 7.30451, 44.00288 ], [ 7.39459, 44.00288 ], [ 7.39459, 43.91279 ], [ 7.30451, 43.91279 ], [ 7.30451, 44.00288 ] ], [ [ 2.16966, 43.91279 ], [ 2.25974, 43.91279 ], [ 2.25974, 43.82271 ], [ 2.16966, 43.82271 ], [ 2.16966, 43.91279 ] ], [ [ 7.03425, 43.82271 ], [ 7.21442, 43.82271 ], [ 7.21442, 43.73262 ], [ 7.03425, 43.73262 ], [ 7.03425, 43.82271 ] ], [ [ 7.30451, 43.82271 ], [ 7.39459, 43.82271 ], [ 7.39459, 43.73262 ], [ 7.30451, 43.73262 ], [ 7.30451, 43.82271 ] ], [ [ 2.71017, 43.73262 ], [ 2.80025, 43.73262 ], [ 2.80025, 43.64253 ], [ 2.71017, 43.64253 ], [ 2.71017, 43.73262 ] ], [ [ 2.16966, 43.64253 ], [ 2.34983, 43.64253 ], [ 2.34983, 43.55245 ], [ 2.43991, 43.55245 ], [ 2.43991, 43.46236 ], [ 1.98948, 43.46236 ], [ 1.98948, 43.55245 ], [ 2.16966, 43.55245 ], [ 2.16966, 43.64253 ] ], [ [ 2.07957, 43.10202 ], [ 2.34983, 43.10202 ], [ 2.34983, 42.92185 ], [ 2.07957, 42.92185 ], [ 2.07957, 43.10202 ] ], [ [ 2.62008, 42.92185 ], [ 2.71017, 42.92185 ], [ 2.71017, 42.83177 ], [ 2.62008, 42.83177 ], [ 2.62008, 42.92185 ] ] ], [ [ [ 7.12434, 47.69636 ], [ 7.12434, 47.60628 ], [ 7.30451, 47.60628 ], [ 7.30451, 47.69636 ], [ 7.12434, 47.69636 ] ] ], [ [ [ 7.57476, 47.60628 ], [ 7.57476, 47.51619 ], [ 7.66485, 47.51619 ], [ 7.66485, 47.60628 ], [ 7.57476, 47.60628 ] ] ], [ [ [ 7.75493, 47.51619 ], [ 7.75493, 47.42611 ], [ 7.84502, 47.42611 ], [ 7.84502, 47.51619 ], [ 7.75493, 47.51619 ] ] ], [ [ [ 8.02519, 47.51619 ], [ 8.02519, 47.42611 ], [ 8.20536, 47.42611 ], [ 8.20536, 47.51619 ], [ 8.02519, 47.51619 ] ] ], [ [ [ 8.47561, 47.24594 ], [ 8.47561, 47.15585 ], [ 8.5657, 47.15585 ], [ 8.5657, 47.24594 ], [ 8.47561, 47.24594 ] ] ], [ [ [ 2.62008, 45.98475 ], [ 2.62008, 45.89466 ], [ 2.71017, 45.89466 ], [ 2.71017, 45.98475 ], [ 2.62008, 45.98475 ] ] ], [ [ [ 2.80025, 45.89466 ], [ 2.80025, 45.80458 ], [ 2.89034, 45.80458 ], [ 2.89034, 45.89466 ], [ 2.80025, 45.89466 ] ] ], [ [ [ 6.40365, 44.36322 ], [ 6.40365, 44.27313 ], [ 6.49374, 44.27313 ], [ 6.49374, 44.36322 ], [ 6.40365, 44.36322 ] ] ], [ [ [ 8.83595, 42.56151 ], [ 8.83595, 42.38134 ], [ 8.65578, 42.38134 ], [ 8.65578, 42.20117 ], [ 8.5657, 42.20117 ], [ 8.5657, 42.11109 ], [ 8.83595, 42.11109 ], [ 8.83595, 42.021 ], [ 8.65578, 42.021 ], [ 8.65578, 41.93092 ], [ 8.74587, 41.93092 ], [ 8.74587, 41.75075 ], [ 8.83595, 41.75075 ], [ 8.83595, 41.48049 ], [ 8.92604, 41.48049 ], [ 8.92604, 41.93092 ], [ 9.01612, 41.93092 ], [ 9.01612, 42.56151 ], [ 8.83595, 42.56151 ] ] ] ] } },
{ "type": "Feature", "properties": { "generation": "2", "label": "Generation 2 complete", "couleur": "#31688EFF", "date_calcul": "2026-07-22", "annee": 2026 }, "geometry": { "type": "MultiPolygon", "coordinates": [ [ [ [ 1.8994, 50.75926 ], [ 1.8994, 50.57909 ], [ 1.98948, 50.57909 ], [ 1.98948, 50.75926 ], [ 1.8994, 50.75926 ] ] ], [ [ [ -1.88417, 49.76832 ], [ -1.88417, 49.67824 ], [ -1.79409, 49.67824 ], [ -1.79409, 49.58815 ], [ -1.43375, 49.58815 ], [ -1.43375, 49.49807 ], [ -1.34366, 49.49807 ], [ -1.34366, 49.40798 ], [ -1.25358, 49.40798 ], [ -1.25358, 49.3179 ], [ -1.07341, 49.3179 ], [ -1.07341, 49.49807 ], [ -1.16349, 49.49807 ], [ -1.16349, 49.67824 ], [ -1.25358, 49.67824 ], [ -1.25358, 49.76832 ], [ -1.52383, 49.76832 ], [ -1.52383, 49.67824 ], [ -1.704, 49.67824 ], [ -1.704, 49.76832 ], [ -1.88417, 49.76832 ] ], [ [ -1.43375, 49.67824 ], [ -1.34366, 49.67824 ], [ -1.34366, 49.58815 ], [ -1.43375, 49.58815 ], [ -1.43375, 49.67824 ] ] ], [ [ [ 7.75493, 49.13773 ], [ 7.75493, 49.04764 ], [ 7.84502, 49.04764 ], [ 7.84502, 49.13773 ], [ 7.75493, 49.13773 ] ] ], [ [ [ 7.84502, 49.04764 ], [ 7.84502, 48.95756 ], [ 7.9351, 48.95756 ], [ 7.9351, 49.04764 ], [ 7.84502, 49.04764 ] ] ], [ [ [ 7.48468, 49.13773 ], [ 7.48468, 48.95756 ], [ 7.39459, 48.95756 ], [ 7.39459, 48.77739 ], [ 7.48468, 48.77739 ], [ 7.48468, 48.86747 ], [ 7.66485, 48.86747 ], [ 7.66485, 48.95756 ], [ 7.57476, 48.95756 ], [ 7.57476, 49.04764 ], [ 7.66485, 49.04764 ], [ 7.66485, 49.13773 ], [ 7.48468, 49.13773 ] ] ], [ [ [ 0.36795, 48.59722 ], [ 0.36795, 48.41705 ], [ 0.63821, 48.41705 ], [ 0.63821, 48.23687 ], [ 0.81838, 48.23687 ], [ 0.81838, 48.32696 ], [ 0.90846, 48.32696 ], [ 0.90846, 48.41705 ], [ 0.81838, 48.41705 ], [ 0.81838, 48.50713 ], [ 0.54812, 48.50713 ], [ 0.54812, 48.59722 ], [ 0.36795, 48.59722 ] ] ], [ [ [ 5.5028, 48.32696 ], [ 5.5028, 48.23687 ], [ 5.59289, 48.23687 ], [ 5.59289, 48.32696 ], [ 5.5028, 48.32696 ] ] ], [ [ [ 5.41272, 48.23687 ], [ 5.41272, 48.14679 ], [ 5.5028, 48.14679 ], [ 5.5028, 48.23687 ], [ 5.41272, 48.23687 ] ] ], [ [ [ 6.94417, 48.23687 ], [ 6.94417, 48.14679 ], [ 7.12434, 48.14679 ], [ 7.12434, 48.23687 ], [ 6.94417, 48.23687 ] ] ], [ [ [ 6.67391, 48.14679 ], [ 6.67391, 47.96662 ], [ 6.76399, 47.96662 ], [ 6.76399, 48.14679 ], [ 6.67391, 48.14679 ] ] ], [ [ [ 6.40365, 48.0567 ], [ 6.40365, 47.87653 ], [ 6.49374, 47.87653 ], [ 6.49374, 47.96662 ], [ 6.58382, 47.96662 ], [ 6.58382, 48.0567 ], [ 6.40365, 48.0567 ] ] ], [ [ [ 6.76399, 47.96662 ], [ 6.76399, 47.78645 ], [ 6.85408, 47.78645 ], [ 6.85408, 47.96662 ], [ 6.76399, 47.96662 ] ] ], [ [ [ -4.22639, 47.78645 ], [ -4.22639, 47.69636 ], [ -4.1363, 47.69636 ], [ -4.1363, 47.78645 ], [ -4.22639, 47.78645 ] ] ], [ [ [ 9.28638, 47.60628 ], [ 9.28638, 47.42611 ], [ 9.46655, 47.42611 ], [ 9.46655, 47.51619 ], [ 9.37646, 47.51619 ], [ 9.37646, 47.60628 ], [ 9.28638, 47.60628 ] ] ], [ [ [ 4.69204, 47.51619 ], [ 4.69204, 47.42611 ], [ 4.78212, 47.42611 ], [ 4.78212, 47.33602 ], [ 4.87221, 47.33602 ], [ 4.87221, 47.51619 ], [ 4.69204, 47.51619 ] ] ], [ [ [ 9.01612, 47.51619 ], [ 9.01612, 47.33602 ], [ 9.19629, 47.33602 ], [ 9.19629, 47.51619 ], [ 9.01612, 47.51619 ] ] ], [ [ [ 8.83595, 47.33602 ], [ 8.83595, 47.24594 ], [ 8.92604, 47.24594 ], [ 8.92604, 47.33602 ], [ 8.83595, 47.33602 ] ] ], [ [ [ 7.57476, 48.6873 ], [ 7.57476, 48.59722 ], [ 7.66485, 48.59722 ], [ 7.66485, 48.50713 ], [ 7.57476, 48.50713 ], [ 7.57476, 48.41705 ], [ 7.39459, 48.41705 ], [ 7.39459, 48.50713 ], [ 7.30451, 48.50713 ], [ 7.30451, 48.0567 ], [ 7.21442, 48.0567 ], [ 7.21442, 47.78645 ], [ 7.03425, 47.78645 ], [ 7.03425, 47.51619 ], [ 7.12434, 47.51619 ], [ 7.12434, 47.33602 ], [ 7.48468, 47.33602 ], [ 7.48468, 47.42611 ], [ 7.57476, 47.42611 ], [ 7.57476, 47.33602 ], [ 7.75493, 47.33602 ], [ 7.75493, 47.24594 ], [ 7.84502, 47.24594 ], [ 7.84502, 47.15585 ], [ 7.9351, 47.15585 ], [ 7.9351, 47.33602 ], [ 8.38553, 47.33602 ], [ 8.38553, 47.42611 ], [ 8.47561, 47.42611 ], [ 8.47561, 47.51619 ], [ 8.5657, 47.51619 ], [ 8.5657, 47.42611 ], [ 8.65578, 47.42611 ], [ 8.65578, 47.51619 ], [ 8.83595, 47.51619 ], [ 8.83595, 47.42611 ], [ 8.92604, 47.42611 ], [ 8.92604, 47.60628 ], [ 8.83595, 47.60628 ], [ 8.83595, 47.78645 ], [ 8.65578, 47.78645 ], [ 8.65578, 47.69636 ], [ 8.29544, 47.69636 ], [ 8.29544, 47.60628 ], [ 7.66485, 47.60628 ], [ 7.66485, 47.87653 ], [ 7.84502, 47.87653 ], [ 7.84502, 47.96662 ], [ 7.9351, 47.96662 ], [ 7.9351, 48.14679 ], [ 7.84502, 48.14679 ], [ 7.84502, 48.23687 ], [ 7.9351, 48.23687 ], [ 7.9351, 48.32696 ], [ 8.02519, 48.32696 ], [ 8.02519, 48.23687 ], [ 8.11527, 48.23687 ], [ 8.11527, 48.41705 ], [ 8.02519, 48.41705 ], [ 8.02519, 48.50713 ], [ 7.84502, 48.50713 ], [ 7.84502, 48.6873 ], [ 7.57476, 48.6873 ] ], [ [ 7.12434, 47.69636 ], [ 7.30451, 47.69636 ], [ 7.30451, 47.60628 ], [ 7.12434, 47.60628 ], [ 7.12434, 47.69636 ] ], [ [ 7.57476, 47.60628 ], [ 7.66485, 47.60628 ], [ 7.66485, 47.51619 ], [ 7.57476, 47.51619 ], [ 7.57476, 47.60628 ] ], [ [ 7.75493, 47.51619 ], [ 7.84502, 47.51619 ], [ 7.84502, 47.42611 ], [ 7.75493, 47.42611 ], [ 7.75493, 47.51619 ] ], [ [ 8.02519, 47.51619 ], [ 8.20536, 47.51619 ], [ 8.20536, 47.42611 ], [ 8.02519, 47.42611 ], [ 8.02519, 47.51619 ] ] ], [ [ [ 6.04331, 47.33602 ], [ 6.04331, 47.15585 ], [ 6.1334, 47.15585 ], [ 6.1334, 47.24594 ], [ 6.40365, 47.24594 ], [ 6.40365, 47.33602 ], [ 6.04331, 47.33602 ] ] ], [ [ [ 8.47561, 47.33602 ], [ 8.47561, 47.24594 ], [ 8.5657, 47.24594 ], [ 8.5657, 47.15585 ], [ 8.74587, 47.15585 ], [ 8.74587, 47.24594 ], [ 8.65578, 47.24594 ], [ 8.65578, 47.33602 ], [ 8.47561, 47.33602 ] ] ], [ [ [ 8.92604, 47.24594 ], [ 8.92604, 47.15585 ], [ 9.10621, 47.15585 ], [ 9.10621, 47.24594 ], [ 8.92604, 47.24594 ] ] ], [ [ [ 9.55663, 47.42611 ], [ 9.55663, 47.24594 ], [ 9.46655, 47.24594 ], [ 9.46655, 47.15585 ], [ 9.64672, 47.15585 ], [ 9.64672, 47.42611 ], [ 9.55663, 47.42611 ] ] ], [ [ [ 8.11527, 47.24594 ], [ 8.11527, 47.15585 ], [ 7.9351, 47.15585 ], [ 7.9351, 47.06577 ], [ 8.38553, 47.06577 ], [ 8.38553, 47.15585 ], [ 8.47561, 47.15585 ], [ 8.47561, 47.24594 ], [ 8.11527, 47.24594 ] ] ], [ [ [ 8.47561, 47.15585 ], [ 8.47561, 47.06577 ], [ 8.5657, 47.06577 ], [ 8.5657, 47.15585 ], [ 8.47561, 47.15585 ] ] ], [ [ [ 5.68297, 47.24594 ], [ 5.68297, 47.06577 ], [ 5.86314, 47.06577 ], [ 5.86314, 46.97568 ], [ 5.95323, 46.97568 ], [ 5.95323, 47.24594 ], [ 5.68297, 47.24594 ] ] ], [ [ [ -0.98332, 47.06577 ], [ -0.98332, 46.97568 ], [ -0.89324, 46.97568 ], [ -0.89324, 47.06577 ], [ -0.98332, 47.06577 ] ] ], [ [ [ 7.48468, 47.24594 ], [ 7.48468, 47.15585 ], [ 7.21442, 47.15585 ], [ 7.21442, 47.06577 ], [ 7.30451, 47.06577 ], [ 7.30451, 46.8856 ], [ 7.66485, 46.8856 ], [ 7.66485, 46.97568 ], [ 7.75493, 46.97568 ], [ 7.75493, 47.24594 ], [ 7.48468, 47.24594 ] ] ], [ [ [ -2.3346, 46.79551 ], [ -2.3346, 46.70543 ], [ -2.24451, 46.70543 ], [ -2.24451, 46.79551 ], [ -2.3346, 46.79551 ] ] ], [ [ [ 7.39459, 46.79551 ], [ 7.39459, 46.70543 ], [ 7.57476, 46.70543 ], [ 7.57476, 46.79551 ], [ 7.39459, 46.79551 ] ] ], [ [ [ 2.89034, 51.1196 ], [ 2.89034, 51.02951 ], [ 2.80025, 51.02951 ], [ 2.80025, 50.93943 ], [ 1.98948, 50.93943 ], [ 1.98948, 50.84934 ], [ 2.07957, 50.84934 ], [ 2.07957, 50.66917 ], [ 2.16966, 50.66917 ], [ 2.16966, 50.57909 ], [ 2.34983, 50.57909 ], [ 2.34983, 50.489 ], [ 2.16966, 50.489 ], [ 2.16966, 50.30883 ], [ 2.07957, 50.30883 ], [ 2.07957, 50.21875 ], [ 1.98948, 50.21875 ], [ 1.98948, 50.03858 ], [ 1.8994, 50.03858 ], [ 1.8994, 49.85841 ], [ 1.62914, 49.85841 ], [ 1.62914, 49.94849 ], [ 1.53906, 49.94849 ], [ 1.53906, 50.03858 ], [ 1.44897, 50.03858 ], [ 1.44897, 49.94849 ], [ 1.17872, 49.94849 ], [ 1.17872, 49.85841 ], [ 0.99855, 49.85841 ], [ 0.99855, 49.76832 ], [ 0.81838, 49.76832 ], [ 0.81838, 49.58815 ], [ 0.63821, 49.58815 ], [ 0.63821, 49.49807 ], [ 0.54812, 49.49807 ], [ 0.54812, 49.40798 ], [ 0.81838, 49.40798 ], [ 0.81838, 49.3179 ], [ 0.27787, 49.3179 ], [ 0.27787, 49.40798 ], [ 0.0977, 49.40798 ], [ 0.0977, 49.3179 ], [ -0.08247, 49.3179 ], [ -0.08247, 49.22781 ], [ -0.26264, 49.22781 ], [ -0.26264, 49.3179 ], [ -0.5329, 49.3179 ], [ -0.5329, 49.04764 ], [ -0.35273, 49.04764 ], [ -0.35273, 48.95756 ], [ -0.26264, 48.95756 ], [ -0.26264, 48.86747 ], [ -0.71307, 48.86747 ], [ -0.71307, 48.77739 ], [ -1.07341, 48.77739 ], [ -1.07341, 48.86747 ], [ -1.16349, 48.86747 ], [ -1.16349, 48.77739 ], [ -1.25358, 48.77739 ], [ -1.25358, 48.50713 ], [ -1.34366, 48.50713 ], [ -1.34366, 48.41705 ], [ -1.88417, 48.41705 ], [ -1.88417, 48.50713 ], [ -2.42468, 48.50713 ], [ -2.42468, 48.41705 ], [ -2.69494, 48.41705 ], [ -2.69494, 48.23687 ], [ -2.9652, 48.23687 ], [ -2.9652, 48.32696 ], [ -2.87511, 48.32696 ], [ -2.87511, 48.41705 ], [ -2.78503, 48.41705 ], [ -2.78503, 48.50713 ], [ -3.14537, 48.50713 ], [ -3.14537, 48.59722 ], [ -3.59579, 48.59722 ], [ -3.59579, 48.50713 ], [ -3.95613, 48.50713 ], [ -3.95613, 48.41705 ], [ -4.1363, 48.41705 ], [ -4.1363, 48.32696 ], [ -4.22639, 48.32696 ], [ -4.22639, 48.0567 ], [ -4.40656, 48.0567 ], [ -4.40656, 47.96662 ], [ -4.31647, 47.96662 ], [ -4.31647, 47.87653 ], [ -4.1363, 47.87653 ], [ -4.1363, 47.78645 ], [ -3.95613, 47.78645 ], [ -3.95613, 47.87653 ], [ -3.59579, 47.87653 ], [ -3.59579, 47.69636 ], [ -3.50571, 47.69636 ], [ -3.50571, 47.78645 ], [ -3.23545, 47.78645 ], [ -3.23545, 47.69636 ], [ -3.05528, 47.69636 ], [ -3.05528, 47.51619 ], [ -2.87511, 47.51619 ], [ -2.87511, 47.42611 ], [ -2.51477, 47.42611 ], [ -2.51477, 47.24594 ], [ -2.24451, 47.24594 ], [ -2.24451, 47.15585 ], [ -2.15443, 47.15585 ], [ -2.15443, 47.06577 ], [ -2.24451, 47.06577 ], [ -2.24451, 46.8856 ], [ -2.15443, 46.8856 ], [ -2.15443, 46.79551 ], [ -2.06434, 46.79551 ], [ -2.06434, 46.70543 ], [ -1.88417, 46.70543 ], [ -1.88417, 46.52526 ], [ -1.704, 46.52526 ], [ -1.704, 46.8856 ], [ -1.52383, 46.8856 ], [ -1.52383, 46.97568 ], [ -1.25358, 46.97568 ], [ -1.25358, 47.15585 ], [ -1.16349, 47.15585 ], [ -1.16349, 47.24594 ], [ -1.25358, 47.24594 ], [ -1.25358, 47.42611 ], [ -0.62298, 47.42611 ], [ -0.62298, 47.51619 ], [ -0.26264, 47.51619 ], [ -0.26264, 47.42611 ], [ -0.17256, 47.42611 ], [ -0.17256, 47.33602 ], [ -0.08247, 47.33602 ], [ -0.08247, 47.24594 ], [ 0.0977, 47.24594 ], [ 0.0977, 47.33602 ], [ 0.00761, 47.33602 ], [ 0.00761, 47.42611 ], [ 0.0977, 47.42611 ], [ 0.0977, 47.51619 ], [ -0.17256, 47.51619 ], [ -0.17256, 47.60628 ], [ -0.08247, 47.60628 ], [ -0.08247, 47.69636 ], [ -0.35273, 47.69636 ], [ -0.35273, 47.78645 ], [ -0.44281, 47.78645 ], [ -0.44281, 47.87653 ], [ -0.35273, 47.87653 ], [ -0.35273, 48.0567 ], [ -0.26264, 48.0567 ], [ -0.26264, 48.23687 ], [ -0.17256, 48.23687 ], [ -0.17256, 48.32696 ], [ 0.00761, 48.32696 ], [ 0.00761, 48.41705 ], [ -0.17256, 48.41705 ], [ -0.17256, 48.6873 ], [ 0.72829, 48.6873 ], [ 0.72829, 48.77739 ], [ 0.81838, 48.77739 ], [ 0.81838, 48.6873 ], [ 0.90846, 48.6873 ], [ 0.90846, 48.77739 ], [ 0.99855, 48.77739 ], [ 0.99855, 48.6873 ], [ 1.08863, 48.6873 ], [ 1.08863, 48.59722 ], [ 1.17872, 48.59722 ], [ 1.17872, 48.50713 ], [ 1.35889, 48.50713 ], [ 1.35889, 48.59722 ], [ 1.2688, 48.59722 ], [ 1.2688, 48.6873 ], [ 1.44897, 48.6873 ], [ 1.44897, 48.77739 ], [ 1.80931, 48.77739 ], [ 1.80931, 48.6873 ], [ 1.71923, 48.6873 ], [ 1.71923, 48.59722 ], [ 1.80931, 48.59722 ], [ 1.80931, 48.41705 ], [ 1.8994, 48.41705 ], [ 1.8994, 48.50713 ], [ 1.98948, 48.50713 ], [ 1.98948, 48.41705 ], [ 2.34983, 48.41705 ], [ 2.34983, 48.32696 ], [ 2.43991, 48.32696 ], [ 2.43991, 48.59722 ], [ 2.53, 48.59722 ], [ 2.53, 48.6873 ], [ 2.98042, 48.6873 ], [ 2.98042, 48.59722 ], [ 3.07051, 48.59722 ], [ 3.07051, 48.6873 ], [ 3.43085, 48.6873 ], [ 3.43085, 48.77739 ], [ 3.52093, 48.77739 ], [ 3.52093, 48.86747 ], [ 3.61102, 48.86747 ], [ 3.61102, 49.04764 ], [ 3.79119, 49.04764 ], [ 3.79119, 48.95756 ], [ 3.97136, 48.95756 ], [ 3.97136, 48.77739 ], [ 3.79119, 48.77739 ], [ 3.79119, 48.59722 ], [ 3.52093, 48.59722 ], [ 3.52093, 48.50713 ], [ 3.61102, 48.50713 ], [ 3.61102, 48.41705 ], [ 3.88127, 48.41705 ], [ 3.88127, 48.50713 ], [ 3.97136, 48.50713 ], [ 3.97136, 48.59722 ], [ 4.06144, 48.59722 ], [ 4.06144, 48.6873 ], [ 4.3317, 48.6873 ], [ 4.3317, 48.50713 ], [ 4.60195, 48.50713 ], [ 4.60195, 48.77739 ], [ 4.96229, 48.77739 ], [ 4.96229, 48.59722 ], [ 5.14246, 48.59722 ], [ 5.14246, 48.50713 ], [ 5.23255, 48.50713 ], [ 5.23255, 48.41705 ], [ 5.41272, 48.41705 ], [ 5.41272, 48.32696 ], [ 5.5028, 48.32696 ], [ 5.5028, 48.41705 ], [ 5.77306, 48.41705 ], [ 5.77306, 48.32696 ], [ 6.22348, 48.32696 ], [ 6.22348, 48.41705 ], [ 6.85408, 48.41705 ], [ 6.85408, 48.50713 ], [ 7.12434, 48.50713 ], [ 7.12434, 48.59722 ], [ 7.21442, 48.59722 ], [ 7.21442, 48.77739 ], [ 7.12434, 48.77739 ], [ 7.12434, 48.86747 ], [ 7.21442, 48.86747 ], [ 7.21442, 48.95756 ], [ 7.39459, 48.95756 ], [ 7.39459, 49.13773 ], [ 7.48468, 49.13773 ], [ 7.48468, 49.22781 ], [ 7.57476, 49.22781 ], [ 7.57476, 49.3179 ], [ 7.48468, 49.3179 ], [ 7.48468, 49.40798 ], [ 7.75493, 49.40798 ], [ 7.75493, 49.49807 ], [ 7.30451, 49.49807 ], [ 7.30451, 49.40798 ], [ 7.21442, 49.40798 ], [ 7.21442, 49.13773 ], [ 7.12434, 49.13773 ], [ 7.12434, 49.04764 ], [ 6.67391, 49.04764 ], [ 6.67391, 48.95756 ], [ 6.49374, 48.95756 ], [ 6.49374, 48.77739 ], [ 6.40365, 48.77739 ], [ 6.40365, 49.04764 ], [ 6.31357, 49.04764 ], [ 6.31357, 49.58815 ], [ 6.1334, 49.58815 ], [ 6.1334, 49.49807 ], [ 5.95323, 49.49807 ], [ 5.95323, 49.67824 ], [ 5.86314, 49.67824 ], [ 5.86314, 49.76832 ], [ 5.77306, 49.76832 ], [ 5.77306, 49.58815 ], [ 5.68297, 49.58815 ], [ 5.68297, 49.67824 ], [ 5.41272, 49.67824 ], [ 5.41272, 49.76832 ], [ 5.23255, 49.76832 ], [ 5.23255, 49.85841 ], [ 5.14246, 49.85841 ], [ 5.14246, 49.94849 ], [ 4.96229, 49.94849 ], [ 4.96229, 50.03858 ], [ 5.05238, 50.03858 ], [ 5.05238, 50.12866 ], [ 4.87221, 50.12866 ], [ 4.87221, 50.21875 ], [ 4.69204, 50.21875 ], [ 4.69204, 50.12866 ], [ 4.60195, 50.12866 ], [ 4.60195, 50.21875 ], [ 4.24161, 50.21875 ], [ 4.24161, 50.30883 ], [ 4.3317, 50.30883 ], [ 4.3317, 50.489 ], [ 4.24161, 50.489 ], [ 4.24161, 50.57909 ], [ 3.34076, 50.57909 ], [ 3.34076, 50.66917 ], [ 3.25068, 50.66917 ], [ 3.25068, 50.75926 ], [ 2.98042, 50.75926 ], [ 2.98042, 50.93943 ], [ 3.25068, 50.93943 ], [ 3.25068, 51.02951 ], [ 2.98042, 51.02951 ], [ 2.98042, 51.1196 ], [ 2.89034, 51.1196 ] ], [ [ 1.8994, 49.85841 ], [ 1.98948, 49.85841 ], [ 1.98948, 49.76832 ], [ 1.8994, 49.76832 ], [ 1.8994, 49.85841 ] ], [ [ 5.05238, 49.40798 ], [ 5.23255, 49.40798 ], [ 5.23255, 49.22781 ], [ 5.32263, 49.22781 ], [ 5.32263, 49.04764 ], [ 4.96229, 49.04764 ], [ 4.96229, 49.3179 ], [ 5.05238, 49.3179 ], [ 5.05238, 49.40798 ] ], [ [ 2.98042, 49.22781 ], [ 3.34076, 49.22781 ], [ 3.34076, 48.86747 ], [ 3.25068, 48.86747 ], [ 3.25068, 49.04764 ], [ 3.07051, 49.04764 ], [ 3.07051, 49.13773 ], [ 2.98042, 49.13773 ], [ 2.98042, 49.22781 ] ], [ [ 5.41272, 49.04764 ], [ 5.86314, 49.04764 ], [ 5.86314, 48.95756 ], [ 5.77306, 48.95756 ], [ 5.77306, 48.86747 ], [ 5.68297, 48.86747 ], [ 5.68297, 48.59722 ], [ 5.59289, 48.59722 ], [ 5.59289, 48.6873 ], [ 5.5028, 48.6873 ], [ 5.5028, 48.86747 ], [ 5.41272, 48.86747 ], [ 5.41272, 49.04764 ] ], [ [ 6.1334, 48.86747 ], [ 6.31357, 48.86747 ], [ 6.31357, 48.77739 ], [ 6.22348, 48.77739 ], [ 6.22348, 48.6873 ], [ 6.1334, 48.6873 ], [ 6.1334, 48.86747 ] ], [ [ 6.04331, 48.6873 ], [ 6.1334, 48.6873 ], [ 6.1334, 48.59722 ], [ 6.04331, 48.59722 ], [ 6.04331, 48.6873 ] ], [ [ 5.68297, 48.59722 ], [ 5.95323, 48.59722 ], [ 5.95323, 48.41705 ], [ 5.77306, 48.41705 ], [ 5.77306, 48.50713 ], [ 5.68297, 48.50713 ], [ 5.68297, 48.59722 ] ], [ [ -4.1363, 48.32696 ], [ -3.86605, 48.32696 ], [ -3.86605, 48.14679 ], [ -4.04622, 48.14679 ], [ -4.04622, 48.23687 ], [ -4.1363, 48.23687 ], [ -4.1363, 48.32696 ] ], [ [ -3.68588, 48.32696 ], [ -3.50571, 48.32696 ], [ -3.50571, 48.23687 ], [ -3.68588, 48.23687 ], [ -3.68588, 48.32696 ] ], [ [ -2.51477, 48.23687 ], [ -2.42468, 48.23687 ], [ -2.42468, 48.14679 ], [ -2.51477, 48.14679 ], [ -2.51477, 48.23687 ] ], [ [ -1.97426, 47.69636 ], [ -1.704, 47.69636 ], [ -1.704, 47.60628 ], [ -1.79409, 47.60628 ], [ -1.79409, 47.51619 ], [ -1.34366, 47.51619 ], [ -1.34366, 47.33602 ], [ -1.43375, 47.33602 ], [ -1.43375, 47.24594 ], [ -1.52383, 47.24594 ], [ -1.52383, 47.42611 ], [ -1.97426, 47.42611 ], [ -1.97426, 47.51619 ], [ -2.15443, 47.51619 ], [ -2.15443, 47.60628 ], [ -1.97426, 47.60628 ], [ -1.97426, 47.69636 ] ], [ [ -1.61392, 47.69636 ], [ -1.43375, 47.69636 ], [ -1.43375, 47.60628 ], [ -1.61392, 47.60628 ], [ -1.61392, 47.69636 ] ], [ [ -1.97426, 47.33602 ], [ -1.88417, 47.33602 ], [ -1.88417, 47.24594 ], [ -1.97426, 47.24594 ], [ -1.97426, 47.33602 ] ], [ [ -2.15443, 47.06577 ], [ -2.06434, 47.06577 ], [ -2.06434, 46.97568 ], [ -2.15443, 46.97568 ], [ -2.15443, 47.06577 ] ] ], [ [ [ 7.12434, 46.255 ], [ 7.12434, 46.16492 ], [ 7.21442, 46.16492 ], [ 7.21442, 46.255 ], [ 7.12434, 46.255 ] ] ], [ [ [ 6.94417, 46.16492 ], [ 6.94417, 46.07483 ], [ 7.12434, 46.07483 ], [ 7.12434, 46.16492 ], [ 6.94417, 46.16492 ] ] ], [ [ [ 4.24161, 46.255 ], [ 4.24161, 46.07483 ], [ 4.3317, 46.07483 ], [ 4.3317, 45.98475 ], [ 4.42178, 45.98475 ], [ 4.42178, 46.255 ], [ 4.24161, 46.255 ] ] ], [ [ [ 1.2688, 46.07483 ], [ 1.2688, 45.98475 ], [ 1.53906, 45.98475 ], [ 1.53906, 46.07483 ], [ 1.2688, 46.07483 ] ] ], [ [ [ 2.62008, 46.07483 ], [ 2.62008, 45.98475 ], [ 2.71017, 45.98475 ], [ 2.71017, 46.07483 ], [ 2.62008, 46.07483 ] ] ], [ [ [ 1.71923, 45.98475 ], [ 1.71923, 45.89466 ], [ 1.8994, 45.89466 ], [ 1.8994, 45.98475 ], [ 1.71923, 45.98475 ] ] ], [ [ [ 4.24161, 45.98475 ], [ 4.24161, 45.89466 ], [ 4.3317, 45.89466 ], [ 4.3317, 45.98475 ], [ 4.24161, 45.98475 ] ] ], [ [ [ 6.49374, 45.98475 ], [ 6.49374, 45.89466 ], [ 6.67391, 45.89466 ], [ 6.67391, 45.98475 ], [ 6.49374, 45.98475 ] ] ], [ [ [ 2.98042, 45.80458 ], [ 2.98042, 45.71449 ], [ 3.07051, 45.71449 ], [ 3.07051, 45.80458 ], [ 2.98042, 45.80458 ] ] ], [ [ [ 2.43991, 45.98475 ], [ 2.43991, 45.89466 ], [ 2.25974, 45.89466 ], [ 2.25974, 45.80458 ], [ 2.16966, 45.80458 ], [ 2.16966, 45.71449 ], [ 2.71017, 45.71449 ], [ 2.71017, 45.62441 ], [ 2.89034, 45.62441 ], [ 2.89034, 45.80458 ], [ 2.80025, 45.80458 ], [ 2.80025, 45.89466 ], [ 2.89034, 45.89466 ], [ 2.89034, 45.98475 ], [ 2.71017, 45.98475 ], [ 2.71017, 45.89466 ], [ 2.62008, 45.89466 ], [ 2.62008, 45.98475 ], [ 2.43991, 45.98475 ] ] ], [ [ [ 3.61102, 45.80458 ], [ 3.61102, 45.62441 ], [ 3.7011, 45.62441 ], [ 3.7011, 45.80458 ], [ 3.61102, 45.80458 ] ] ], [ [ [ 4.42178, 45.71449 ], [ 4.42178, 45.62441 ], [ 4.51187, 45.62441 ], [ 4.51187, 45.71449 ], [ 4.42178, 45.71449 ] ] ], [ [ [ 2.62008, 45.62441 ], [ 2.62008, 45.53432 ], [ 2.71017, 45.53432 ], [ 2.71017, 45.62441 ], [ 2.62008, 45.62441 ] ] ], [ [ [ 2.98042, 45.62441 ], [ 2.98042, 45.53432 ], [ 3.07051, 45.53432 ], [ 3.07051, 45.62441 ], [ 2.98042, 45.62441 ] ] ], [ [ [ 3.7011, 45.53432 ], [ 3.7011, 45.44424 ], [ 3.88127, 45.44424 ], [ 3.88127, 45.53432 ], [ 3.7011, 45.53432 ] ] ], [ [ [ 5.23255, 45.53432 ], [ 5.23255, 45.44424 ], [ 5.5028, 45.44424 ], [ 5.5028, 45.53432 ], [ 5.23255, 45.53432 ] ] ], [ [ [ 6.40365, 45.53432 ], [ 6.40365, 45.44424 ], [ 6.49374, 45.44424 ], [ 6.49374, 45.53432 ], [ 6.40365, 45.53432 ] ] ], [ [ [ 3.43085, 45.62441 ], [ 3.43085, 45.44424 ], [ 3.52093, 45.44424 ], [ 3.52093, 45.35415 ], [ 3.7011, 45.35415 ], [ 3.7011, 45.44424 ], [ 3.61102, 45.44424 ], [ 3.61102, 45.53432 ], [ 3.52093, 45.53432 ], [ 3.52093, 45.62441 ], [ 3.43085, 45.62441 ] ] ], [ [ [ 4.51187, 45.53432 ], [ 4.51187, 45.35415 ], [ 4.60195, 45.35415 ], [ 4.60195, 45.53432 ], [ 4.51187, 45.53432 ] ] ], [ [ [ 2.98042, 45.44424 ], [ 2.98042, 45.35415 ], [ 3.07051, 45.35415 ], [ 3.07051, 45.44424 ], [ 2.98042, 45.44424 ] ] ], [ [ [ 3.88127, 45.44424 ], [ 3.88127, 45.35415 ], [ 4.06144, 45.35415 ], [ 4.06144, 45.44424 ], [ 3.88127, 45.44424 ] ] ], [ [ [ 5.59289, 45.44424 ], [ 5.59289, 45.35415 ], [ 5.68297, 45.35415 ], [ 5.68297, 45.44424 ], [ 5.59289, 45.44424 ] ] ], [ [ [ 6.1334, 45.53432 ], [ 6.1334, 45.26407 ], [ 6.22348, 45.26407 ], [ 6.22348, 45.35415 ], [ 6.31357, 45.35415 ], [ 6.31357, 45.53432 ], [ 6.1334, 45.53432 ] ] ], [ [ [ 5.14246, 45.35415 ], [ 5.14246, 45.26407 ], [ 5.32263, 45.26407 ], [ 5.32263, 45.35415 ], [ 5.14246, 45.35415 ] ] ], [ [ [ 1.35889, 45.26407 ], [ 1.35889, 45.17398 ], [ 1.44897, 45.17398 ], [ 1.44897, 45.26407 ], [ 1.35889, 45.26407 ] ] ], [ [ [ 5.86314, 45.26407 ], [ 5.86314, 45.17398 ], [ 5.95323, 45.17398 ], [ 5.95323, 45.26407 ], [ 5.86314, 45.26407 ] ] ], [ [ [ 6.22348, 45.26407 ], [ 6.22348, 45.17398 ], [ 6.49374, 45.17398 ], [ 6.49374, 45.26407 ], [ 6.22348, 45.26407 ] ] ], [ [ [ 1.2688, 45.53432 ], [ 1.2688, 45.26407 ], [ 1.35889, 45.26407 ], [ 1.35889, 45.35415 ], [ 1.44897, 45.35415 ], [ 1.44897, 45.26407 ], [ 1.53906, 45.26407 ], [ 1.53906, 45.17398 ], [ 1.44897, 45.17398 ], [ 1.44897, 45.0839 ], [ 1.71923, 45.0839 ], [ 1.71923, 44.99381 ], [ 1.80931, 44.99381 ], [ 1.80931, 45.0839 ], [ 1.8994, 45.0839 ], [ 1.8994, 45.17398 ], [ 1.80931, 45.17398 ], [ 1.80931, 45.35415 ], [ 1.53906, 45.35415 ], [ 1.53906, 45.44424 ], [ 1.62914, 45.44424 ], [ 1.62914, 45.53432 ], [ 1.44897, 45.53432 ], [ 1.44897, 45.44424 ], [ 1.35889, 45.44424 ], [ 1.35889, 45.53432 ], [ 1.2688, 45.53432 ] ] ], [ [ [ 4.42178, 45.0839 ], [ 4.42178, 44.99381 ], [ 4.51187, 44.99381 ], [ 4.51187, 45.0839 ], [ 4.42178, 45.0839 ] ] ], [ [ [ 1.53906, 44.99381 ], [ 1.53906, 44.90373 ], [ 1.71923, 44.90373 ], [ 1.71923, 44.99381 ], [ 1.53906, 44.99381 ] ] ], [ [ [ 4.51187, 44.99381 ], [ 4.51187, 44.90373 ], [ 4.60195, 44.90373 ], [ 4.60195, 44.99381 ], [ 4.51187, 44.99381 ] ] ], [ [ [ 2.89034, 44.90373 ], [ 2.89034, 44.81364 ], [ 2.98042, 44.81364 ], [ 2.98042, 44.90373 ], [ 2.89034, 44.90373 ] ] ], [ [ [ 5.5028, 45.17398 ], [ 5.5028, 44.72356 ], [ 5.95323, 44.72356 ], [ 5.95323, 44.90373 ], [ 5.77306, 44.90373 ], [ 5.77306, 44.99381 ], [ 5.86314, 44.99381 ], [ 5.86314, 45.17398 ], [ 5.77306, 45.17398 ], [ 5.77306, 45.0839 ], [ 5.68297, 45.0839 ], [ 5.68297, 45.17398 ], [ 5.5028, 45.17398 ] ] ], [ [ [ 2.98042, 44.72356 ], [ 2.98042, 44.63347 ], [ 3.07051, 44.63347 ], [ 3.07051, 44.72356 ], [ 2.98042, 44.72356 ] ] ], [ [ [ 1.98948, 44.63347 ], [ 1.98948, 44.54339 ], [ 2.07957, 44.54339 ], [ 2.07957, 44.63347 ], [ 1.98948, 44.63347 ] ] ], [ [ [ 1.8994, 44.54339 ], [ 1.8994, 44.4533 ], [ 1.98948, 44.4533 ], [ 1.98948, 44.54339 ], [ 1.8994, 44.54339 ] ] ], [ [ [ 6.40365, 44.4533 ], [ 6.40365, 44.36322 ], [ 6.49374, 44.36322 ], [ 6.49374, 44.4533 ], [ 6.40365, 44.4533 ] ] ], [ [ [ 6.1334, 44.36322 ], [ 6.1334, 44.27313 ], [ 6.22348, 44.27313 ], [ 6.22348, 44.36322 ], [ 6.1334, 44.36322 ] ] ], [ [ [ 6.49374, 44.36322 ], [ 6.49374, 44.27313 ], [ 6.58382, 44.27313 ], [ 6.58382, 44.36322 ], [ 6.49374, 44.36322 ] ] ], [ [ [ 7.21442, 44.09296 ], [ 7.21442, 44.00288 ], [ 7.30451, 44.00288 ], [ 7.30451, 44.09296 ], [ 7.21442, 44.09296 ] ] ], [ [ [ 2.25974, 44.00288 ], [ 2.25974, 43.91279 ], [ 2.53, 43.91279 ], [ 2.53, 44.00288 ], [ 2.25974, 44.00288 ] ] ], [ [ [ 7.30451, 44.00288 ], [ 7.30451, 43.91279 ], [ 7.39459, 43.91279 ], [ 7.39459, 44.00288 ], [ 7.30451, 44.00288 ] ] ], [ [ [ 7.48468, 44.09296 ], [ 7.48468, 43.82271 ], [ 7.57476, 43.82271 ], [ 7.57476, 44.09296 ], [ 7.48468, 44.09296 ] ] ], [ [ [ 6.31357, 44.36322 ], [ 6.31357, 44.27313 ], [ 6.22348, 44.27313 ], [ 6.22348, 44.18305 ], [ 6.31357, 44.18305 ], [ 6.31357, 44.09296 ], [ 6.40365, 44.09296 ], [ 6.40365, 44.00288 ], [ 6.31357, 44.00288 ], [ 6.31357, 43.91279 ], [ 6.40365, 43.91279 ], [ 6.40365, 43.82271 ], [ 6.76399, 43.82271 ], [ 6.76399, 43.91279 ], [ 6.67391, 43.91279 ], [ 6.67391, 44.00288 ], [ 7.03425, 44.00288 ], [ 7.03425, 44.09296 ], [ 6.94417, 44.09296 ], [ 6.94417, 44.18305 ], [ 6.67391, 44.18305 ], [ 6.67391, 44.09296 ], [ 6.58382, 44.09296 ], [ 6.58382, 44.18305 ], [ 6.49374, 44.18305 ], [ 6.49374, 44.27313 ], [ 6.40365, 44.27313 ], [ 6.40365, 44.36322 ], [ 6.31357, 44.36322 ] ] ], [ [ [ 2.16966, 43.91279 ], [ 2.16966, 43.82271 ], [ 2.25974, 43.82271 ], [ 2.25974, 43.91279 ], [ 2.16966, 43.91279 ] ] ], [ [ [ 7.03425, 43.82271 ], [ 7.03425, 43.73262 ], [ 7.21442, 43.73262 ], [ 7.21442, 43.82271 ], [ 7.03425, 43.82271 ] ] ], [ [ [ 7.30451, 43.82271 ], [ 7.30451, 43.73262 ], [ 7.39459, 43.73262 ], [ 7.39459, 43.82271 ], [ 7.30451, 43.82271 ] ] ], [ [ [ 2.71017, 43.73262 ], [ 2.71017, 43.64253 ], [ 2.80025, 43.64253 ], [ 2.80025, 43.73262 ], [ 2.71017, 43.73262 ] ] ], [ [ [ 2.16966, 43.64253 ], [ 2.16966, 43.55245 ], [ 1.98948, 43.55245 ], [ 1.98948, 43.46236 ], [ 2.43991, 43.46236 ], [ 2.43991, 43.55245 ], [ 2.34983, 43.55245 ], [ 2.34983, 43.64253 ], [ 2.16966, 43.64253 ] ] ], [ [ [ 3.52093, 43.55245 ], [ 3.52093, 43.46236 ], [ 3.79119, 43.46236 ], [ 3.79119, 43.55245 ], [ 3.52093, 43.55245 ] ] ], [ [ [ 0.18778, 43.55245 ], [ 0.18778, 43.46236 ], [ 0.27787, 43.46236 ], [ 0.27787, 43.37228 ], [ 0.36795, 43.37228 ], [ 0.36795, 43.55245 ], [ 0.18778, 43.55245 ] ] ], [ [ [ 4.78212, 43.55245 ], [ 4.78212, 43.37228 ], [ 4.96229, 43.37228 ], [ 4.96229, 43.55245 ], [ 4.78212, 43.55245 ] ] ], [ [ [ 0.18778, 43.28219 ], [ 0.18778, 43.19211 ], [ 0.27787, 43.19211 ], [ 0.27787, 43.28219 ], [ 0.18778, 43.28219 ] ] ], [ [ [ 6.94417, 43.73262 ], [ 6.94417, 43.64253 ], [ 6.67391, 43.64253 ], [ 6.67391, 43.46236 ], [ 6.58382, 43.46236 ], [ 6.58382, 43.19211 ], [ 6.31357, 43.19211 ], [ 6.31357, 43.10202 ], [ 6.40365, 43.10202 ], [ 6.40365, 43.01194 ], [ 6.49374, 43.01194 ], [ 6.49374, 43.10202 ], [ 6.76399, 43.10202 ], [ 6.76399, 43.37228 ], [ 6.85408, 43.37228 ], [ 6.85408, 43.46236 ], [ 7.12434, 43.46236 ], [ 7.12434, 43.64253 ], [ 7.03425, 43.64253 ], [ 7.03425, 43.73262 ], [ 6.94417, 43.73262 ] ] ], [ [ [ -1.61392, 43.10202 ], [ -1.61392, 43.01194 ], [ -1.52383, 43.01194 ], [ -1.52383, 43.10202 ], [ -1.61392, 43.10202 ] ] ], [ [ [ -1.34366, 43.10202 ], [ -1.34366, 43.01194 ], [ -1.25358, 43.01194 ], [ -1.25358, 43.10202 ], [ -1.34366, 43.10202 ] ] ], [ [ [ -1.16349, 43.10202 ], [ -1.16349, 43.01194 ], [ -1.07341, 43.01194 ], [ -1.07341, 43.10202 ], [ -1.16349, 43.10202 ] ] ], [ [ [ -0.98332, 43.10202 ], [ -0.98332, 43.01194 ], [ -0.71307, 43.01194 ], [ -0.71307, 43.10202 ], [ -0.98332, 43.10202 ] ] ], [ [ [ 6.22348, 43.10202 ], [ 6.22348, 43.01194 ], [ 6.31357, 43.01194 ], [ 6.31357, 43.10202 ], [ 6.22348, 43.10202 ] ] ], [ [ [ 2.07957, 43.10202 ], [ 2.07957, 42.92185 ], [ 2.34983, 42.92185 ], [ 2.34983, 43.10202 ], [ 2.07957, 43.10202 ] ] ], [ [ [ -1.07341, 43.01194 ], [ -1.07341, 42.92185 ], [ -0.98332, 42.92185 ], [ -0.98332, 43.01194 ], [ -1.07341, 43.01194 ] ] ], [ [ [ 6.04331, 43.01194 ], [ 6.04331, 42.92185 ], [ 6.22348, 42.92185 ], [ 6.22348, 43.01194 ], [ 6.04331, 43.01194 ] ] ], [ [ [ 6.31357, 43.01194 ], [ 6.31357, 42.92185 ], [ 6.40365, 42.92185 ], [ 6.40365, 43.01194 ], [ 6.31357, 43.01194 ] ] ], [ [ [ -1.16349, 46.61534 ], [ -1.16349, 46.52526 ], [ -1.34366, 46.52526 ], [ -1.34366, 46.43517 ], [ -1.52383, 46.43517 ], [ -1.52383, 46.52526 ], [ -1.704, 46.52526 ], [ -1.704, 46.43517 ], [ -1.61392, 46.43517 ], [ -1.61392, 46.34509 ], [ -1.16349, 46.34509 ], [ -1.16349, 46.255 ], [ -1.43375, 46.255 ], [ -1.43375, 46.16492 ], [ -1.16349, 46.16492 ], [ -1.16349, 45.98475 ], [ -1.25358, 45.98475 ], [ -1.25358, 46.07483 ], [ -1.43375, 46.07483 ], [ -1.43375, 45.98475 ], [ -1.34366, 45.98475 ], [ -1.34366, 45.89466 ], [ -1.25358, 45.89466 ], [ -1.25358, 45.62441 ], [ -0.80315, 45.62441 ], [ -0.80315, 45.53432 ], [ -0.71307, 45.53432 ], [ -0.71307, 45.44424 ], [ -0.62298, 45.44424 ], [ -0.62298, 45.35415 ], [ -0.5329, 45.35415 ], [ -0.5329, 44.99381 ], [ -0.35273, 44.99381 ], [ -0.35273, 44.90373 ], [ -0.5329, 44.90373 ], [ -0.5329, 44.72356 ], [ -0.62298, 44.72356 ], [ -0.62298, 44.63347 ], [ -0.44281, 44.63347 ], [ -0.44281, 44.4533 ], [ -0.35273, 44.4533 ], [ -0.35273, 44.36322 ], [ -0.17256, 44.36322 ], [ -0.17256, 44.00288 ], [ -0.08247, 44.00288 ], [ -0.08247, 43.91279 ], [ 0.00761, 43.91279 ], [ 0.00761, 43.55245 ], [ 0.0977, 43.55245 ], [ 0.0977, 43.64253 ], [ 0.63821, 43.64253 ], [ 0.63821, 43.55245 ], [ 0.45804, 43.55245 ], [ 0.45804, 43.37228 ], [ 0.54812, 43.37228 ], [ 0.54812, 43.19211 ], [ 0.27787, 43.19211 ], [ 0.27787, 43.10202 ], [ -0.62298, 43.10202 ], [ -0.62298, 43.01194 ], [ -0.71307, 43.01194 ], [ -0.71307, 42.92185 ], [ -0.44281, 42.92185 ], [ -0.44281, 43.01194 ], [ -0.17256, 43.01194 ], [ -0.17256, 42.92185 ], [ -0.08247, 42.92185 ], [ -0.08247, 43.01194 ], [ 0.36795, 43.01194 ], [ 0.36795, 42.92185 ], [ 1.2688, 42.92185 ], [ 1.2688, 42.83177 ], [ 1.35889, 42.83177 ], [ 1.35889, 42.92185 ], [ 1.71923, 42.92185 ], [ 1.71923, 43.01194 ], [ 1.8994, 43.01194 ], [ 1.8994, 43.10202 ], [ 1.71923, 43.10202 ], [ 1.71923, 43.37228 ], [ 1.80931, 43.37228 ], [ 1.80931, 43.46236 ], [ 1.8994, 43.46236 ], [ 1.8994, 43.55245 ], [ 1.98948, 43.55245 ], [ 1.98948, 43.64253 ], [ 1.80931, 43.64253 ], [ 1.80931, 43.55245 ], [ 1.71923, 43.55245 ], [ 1.71923, 43.64253 ], [ 1.62914, 43.64253 ], [ 1.62914, 43.73262 ], [ 1.53906, 43.73262 ], [ 1.53906, 43.82271 ], [ 1.44897, 43.82271 ], [ 1.44897, 43.91279 ], [ 1.53906, 43.91279 ], [ 1.53906, 44.00288 ], [ 1.62914, 44.00288 ], [ 1.62914, 44.36322 ], [ 1.71923, 44.36322 ], [ 1.71923, 44.4533 ], [ 1.35889, 44.4533 ], [ 1.35889, 44.54339 ], [ 1.2688, 44.54339 ], [ 1.2688, 44.72356 ], [ 1.35889, 44.72356 ], [ 1.35889, 44.81364 ], [ 1.53906, 44.81364 ], [ 1.53906, 44.90373 ], [ 1.35889, 44.90373 ], [ 1.35889, 45.17398 ], [ 1.08863, 45.17398 ], [ 1.08863, 45.26407 ], [ 1.17872, 45.26407 ], [ 1.17872, 45.35415 ], [ 1.08863, 45.35415 ], [ 1.08863, 45.44424 ], [ 0.90846, 45.44424 ], [ 0.90846, 45.53432 ], [ 0.72829, 45.53432 ], [ 0.72829, 45.62441 ], [ 0.63821, 45.62441 ], [ 0.63821, 45.71449 ], [ 0.54812, 45.71449 ], [ 0.54812, 45.62441 ], [ 0.45804, 45.62441 ], [ 0.45804, 45.80458 ], [ 0.00761, 45.80458 ], [ 0.00761, 45.71449 ], [ -0.08247, 45.71449 ], [ -0.08247, 45.80458 ], [ -0.26264, 45.80458 ], [ -0.26264, 45.71449 ], [ -0.62298, 45.71449 ], [ -0.62298, 45.89466 ], [ -0.71307, 45.89466 ], [ -0.71307, 45.98475 ], [ -0.89324, 45.98475 ], [ -0.89324, 46.16492 ], [ -1.07341, 46.16492 ], [ -1.07341, 46.34509 ], [ -0.5329, 46.34509 ], [ -0.5329, 46.52526 ], [ -0.89324, 46.52526 ], [ -0.89324, 46.61534 ], [ -1.16349, 46.61534 ] ], [ [ 0.18778, 45.62441 ], [ 0.45804, 45.62441 ], [ 0.45804, 45.44424 ], [ 0.27787, 45.44424 ], [ 0.27787, 45.53432 ], [ 0.18778, 45.53432 ], [ 0.18778, 45.62441 ] ], [ [ -0.35273, 44.90373 ], [ 0.27787, 44.90373 ], [ 0.27787, 44.81364 ], [ -0.35273, 44.81364 ], [ -0.35273, 44.90373 ] ], [ [ 0.18778, 44.72356 ], [ 0.54812, 44.72356 ], [ 0.54812, 44.63347 ], [ 0.45804, 44.63347 ], [ 0.45804, 44.4533 ], [ 0.36795, 44.4533 ], [ 0.36795, 44.27313 ], [ 0.18778, 44.27313 ], [ 0.18778, 44.36322 ], [ 0.27787, 44.36322 ], [ 0.27787, 44.4533 ], [ 0.18778, 44.4533 ], [ 0.18778, 44.54339 ], [ 0.00761, 44.54339 ], [ 0.00761, 44.63347 ], [ 0.18778, 44.63347 ], [ 0.18778, 44.72356 ] ], [ [ 1.08863, 44.72356 ], [ 1.17872, 44.72356 ], [ 1.17872, 44.63347 ], [ 1.08863, 44.63347 ], [ 1.08863, 44.72356 ] ], [ [ 0.45804, 44.27313 ], [ 0.72829, 44.27313 ], [ 0.72829, 44.18305 ], [ 0.99855, 44.18305 ], [ 0.99855, 44.27313 ], [ 1.08863, 44.27313 ], [ 1.08863, 44.18305 ], [ 1.2688, 44.18305 ], [ 1.2688, 44.09296 ], [ 0.63821, 44.09296 ], [ 0.63821, 44.18305 ], [ 0.45804, 44.18305 ], [ 0.45804, 44.27313 ] ], [ [ 0.0977, 44.00288 ], [ 0.18778, 44.00288 ], [ 0.18778, 43.91279 ], [ 0.0977, 43.91279 ], [ 0.0977, 44.00288 ] ], [ [ 0.54812, 43.19211 ], [ 0.63821, 43.19211 ], [ 0.63821, 43.10202 ], [ 0.54812, 43.10202 ], [ 0.54812, 43.19211 ] ] ], [ [ [ 2.62008, 42.92185 ], [ 2.62008, 42.83177 ], [ 2.71017, 42.83177 ], [ 2.71017, 42.92185 ], [ 2.62008, 42.92185 ] ] ], [ [ [ 2.98042, 42.83177 ], [ 2.98042, 42.74168 ], [ 3.07051, 42.74168 ], [ 3.07051, 42.83177 ], [ 2.98042, 42.83177 ] ] ], [ [ [ 8.83595, 42.6516 ], [ 8.83595, 42.56151 ], [ 9.01612, 42.56151 ], [ 9.01612, 42.6516 ], [ 8.83595, 42.6516 ] ] ], [ [ [ 2.98042, 42.6516 ], [ 2.98042, 42.56151 ], [ 2.89034, 42.56151 ], [ 2.89034, 42.47143 ], [ 2.98042, 42.47143 ], [ 2.98042, 42.38134 ], [ 3.16059, 42.38134 ], [ 3.16059, 42.56151 ], [ 3.07051, 42.56151 ], [ 3.07051, 42.6516 ], [ 2.98042, 42.6516 ] ] ], [ [ [ 8.65578, 42.56151 ], [ 8.65578, 42.38134 ], [ 8.83595, 42.38134 ], [ 8.83595, 42.56151 ], [ 8.65578, 42.56151 ] ] ], [ [ [ 8.5657, 42.38134 ], [ 8.5657, 42.29126 ], [ 8.65578, 42.29126 ], [ 8.65578, 42.38134 ], [ 8.5657, 42.38134 ] ] ], [ [ [ 8.47561, 42.20117 ], [ 8.47561, 41.93092 ], [ 8.5657, 41.93092 ], [ 8.5657, 42.021 ], [ 8.65578, 42.021 ], [ 8.65578, 42.11109 ], [ 8.5657, 42.11109 ], [ 8.5657, 42.20117 ], [ 8.47561, 42.20117 ] ] ], [ [ [ 8.5657, 41.93092 ], [ 8.5657, 41.84083 ], [ 8.74587, 41.84083 ], [ 8.74587, 41.93092 ], [ 8.5657, 41.93092 ] ] ] ] } },
{ "type": "Feature", "properties": { "generation": "2s", "label": "Gen 2s", "couleur": "#cccccc", "date_calcul": "2026-07-22", "annee": 2026 }, "geometry": { "type": "MultiPolygon", "coordinates": [ [ [ [ 1.8994, 49.85841 ], [ 1.8994, 49.76832 ], [ 1.98948, 49.76832 ], [ 1.98948, 49.85841 ], [ 1.8994, 49.85841 ] ] ], [ [ [ -1.97426, 49.76832 ], [ -1.97426, 49.67824 ], [ -1.88417, 49.67824 ], [ -1.88417, 49.76832 ], [ -1.97426, 49.76832 ] ] ], [ [ [ -1.43375, 49.67824 ], [ -1.43375, 49.58815 ], [ -1.34366, 49.58815 ], [ -1.34366, 49.67824 ], [ -1.43375, 49.67824 ] ] ], [ [ [ 2.53, 51.20968 ], [ 2.53, 51.1196 ], [ 2.07957, 51.1196 ], [ 2.07957, 51.02951 ], [ 1.71923, 51.02951 ], [ 1.71923, 50.93943 ], [ 1.53906, 50.93943 ], [ 1.53906, 50.30883 ], [ 1.44897, 50.30883 ], [ 1.44897, 50.12866 ], [ 1.17872, 50.12866 ], [ 1.17872, 50.03858 ], [ 1.08863, 50.03858 ], [ 1.08863, 49.94849 ], [ 0.63821, 49.94849 ], [ 0.63821, 49.85841 ], [ 0.45804, 49.85841 ], [ 0.45804, 49.76832 ], [ 0.0977, 49.76832 ], [ 0.0977, 49.67824 ], [ 0.00761, 49.67824 ], [ 0.00761, 49.3179 ], [ 0.0977, 49.3179 ], [ 0.0977, 49.40798 ], [ 0.27787, 49.40798 ], [ 0.27787, 49.3179 ], [ 0.81838, 49.3179 ], [ 0.81838, 49.40798 ], [ 0.54812, 49.40798 ], [ 0.54812, 49.49807 ], [ 0.63821, 49.49807 ], [ 0.63821, 49.58815 ], [ 0.81838, 49.58815 ], [ 0.81838, 49.76832 ], [ 0.99855, 49.76832 ], [ 0.99855, 49.85841 ], [ 1.17872, 49.85841 ], [ 1.17872, 49.94849 ], [ 1.44897, 49.94849 ], [ 1.44897, 50.03858 ], [ 1.53906, 50.03858 ], [ 1.53906, 49.94849 ], [ 1.62914, 49.94849 ], [ 1.62914, 49.85841 ], [ 1.8994, 49.85841 ], [ 1.8994, 50.03858 ], [ 1.98948, 50.03858 ], [ 1.98948, 50.21875 ], [ 2.07957, 50.21875 ], [ 2.07957, 50.30883 ], [ 2.16966, 50.30883 ], [ 2.16966, 50.489 ], [ 2.34983, 50.489 ], [ 2.34983, 50.57909 ], [ 2.16966, 50.57909 ], [ 2.16966, 50.66917 ], [ 2.07957, 50.66917 ], [ 2.07957, 50.84934 ], [ 1.98948, 50.84934 ], [ 1.98948, 50.93943 ], [ 2.80025, 50.93943 ], [ 2.80025, 51.02951 ], [ 2.89034, 51.02951 ], [ 2.89034, 51.1196 ], [ 2.62008, 51.1196 ], [ 2.62008, 51.20968 ], [ 2.53, 51.20968 ] ], [ [ 1.8994, 50.75926 ], [ 1.98948, 50.75926 ], [ 1.98948, 50.57909 ], [ 1.8994, 50.57909 ], [ 1.8994, 50.75926 ] ] ], [ [ [ -0.26264, 49.3179 ], [ -0.26264, 49.22781 ], [ -0.08247, 49.22781 ], [ -0.08247, 49.3179 ], [ -0.26264, 49.3179 ] ] ], [ [ [ -1.88417, 48.95756 ], [ -1.88417, 48.86747 ], [ -1.79409, 48.86747 ], [ -1.79409, 48.95756 ], [ -1.88417, 48.95756 ] ] ], [ [ [ -5.03715, 48.41705 ], [ -5.03715, 48.32696 ], [ -4.85698, 48.32696 ], [ -4.85698, 48.41705 ], [ -5.03715, 48.41705 ] ] ], [ [ [ -3.68588, 48.32696 ], [ -3.68588, 48.23687 ], [ -3.50571, 48.23687 ], [ -3.50571, 48.32696 ], [ -3.68588, 48.32696 ] ] ], [ [ [ -4.1363, 48.32696 ], [ -4.1363, 48.23687 ], [ -4.04622, 48.23687 ], [ -4.04622, 48.14679 ], [ -3.86605, 48.14679 ], [ -3.86605, 48.32696 ], [ -4.1363, 48.32696 ] ] ], [ [ [ -2.51477, 48.23687 ], [ -2.51477, 48.14679 ], [ -2.42468, 48.14679 ], [ -2.42468, 48.23687 ], [ -2.51477, 48.23687 ] ] ], [ [ [ -1.88417, 49.67824 ], [ -1.88417, 49.58815 ], [ -1.97426, 49.58815 ], [ -1.97426, 49.49807 ], [ -1.88417, 49.49807 ], [ -1.88417, 49.40798 ], [ -1.704, 49.40798 ], [ -1.704, 49.22781 ], [ -1.61392, 49.22781 ], [ -1.61392, 48.6873 ], [ -2.06434, 48.6873 ], [ -2.06434, 48.59722 ], [ -2.24451, 48.59722 ], [ -2.24451, 48.6873 ], [ -2.51477, 48.6873 ], [ -2.51477, 48.59722 ], [ -2.78503, 48.59722 ], [ -2.78503, 48.6873 ], [ -2.87511, 48.6873 ], [ -2.87511, 48.86747 ], [ -3.68588, 48.86747 ], [ -3.68588, 48.6873 ], [ -3.77596, 48.6873 ], [ -3.77596, 48.77739 ], [ -4.22639, 48.77739 ], [ -4.22639, 48.6873 ], [ -4.58673, 48.6873 ], [ -4.58673, 48.59722 ], [ -4.85698, 48.59722 ], [ -4.85698, 48.50713 ], [ -4.7669, 48.50713 ], [ -4.7669, 48.32696 ], [ -4.67681, 48.32696 ], [ -4.67681, 48.23687 ], [ -4.58673, 48.23687 ], [ -4.58673, 48.14679 ], [ -4.40656, 48.14679 ], [ -4.40656, 48.0567 ], [ -4.22639, 48.0567 ], [ -4.22639, 48.32696 ], [ -4.1363, 48.32696 ], [ -4.1363, 48.41705 ], [ -3.95613, 48.41705 ], [ -3.95613, 48.50713 ], [ -3.59579, 48.50713 ], [ -3.59579, 48.59722 ], [ -3.14537, 48.59722 ], [ -3.14537, 48.50713 ], [ -2.78503, 48.50713 ], [ -2.78503, 48.41705 ], [ -2.87511, 48.41705 ], [ -2.87511, 48.32696 ], [ -2.9652, 48.32696 ], [ -2.9652, 48.23687 ], [ -2.69494, 48.23687 ], [ -2.69494, 48.41705 ], [ -2.42468, 48.41705 ], [ -2.42468, 48.50713 ], [ -1.88417, 48.50713 ], [ -1.88417, 48.41705 ], [ -1.34366, 48.41705 ], [ -1.34366, 48.50713 ], [ -1.25358, 48.50713 ], [ -1.25358, 48.77739 ], [ -1.16349, 48.77739 ], [ -1.16349, 48.86747 ], [ -1.07341, 48.86747 ], [ -1.07341, 48.77739 ], [ -0.71307, 48.77739 ], [ -0.71307, 48.86747 ], [ -0.26264, 48.86747 ], [ -0.26264, 48.95756 ], [ -0.35273, 48.95756 ], [ -0.35273, 49.04764 ], [ -0.5329, 49.04764 ], [ -0.5329, 49.3179 ], [ -0.44281, 49.3179 ], [ -0.44281, 49.40798 ], [ -1.07341, 49.40798 ], [ -1.07341, 49.3179 ], [ -1.25358, 49.3179 ], [ -1.25358, 49.40798 ], [ -1.34366, 49.40798 ], [ -1.34366, 49.49807 ], [ -1.43375, 49.49807 ], [ -1.43375, 49.58815 ], [ -1.79409, 49.58815 ], [ -1.79409, 49.67824 ], [ -1.88417, 49.67824 ] ] ], [ [ [ -4.7669, 48.0567 ], [ -4.7669, 47.96662 ], [ -4.40656, 47.96662 ], [ -4.40656, 48.0567 ], [ -4.7669, 48.0567 ] ] ], [ [ [ -3.95613, 47.87653 ], [ -3.95613, 47.78645 ], [ -3.59579, 47.78645 ], [ -3.59579, 47.87653 ], [ -3.95613, 47.87653 ] ] ], [ [ [ -4.40656, 47.96662 ], [ -4.40656, 47.69636 ], [ -4.22639, 47.69636 ], [ -4.22639, 47.78645 ], [ -4.1363, 47.78645 ], [ -4.1363, 47.87653 ], [ -4.31647, 47.87653 ], [ -4.31647, 47.96662 ], [ -4.40656, 47.96662 ] ] ], [ [ [ -3.50571, 47.78645 ], [ -3.50571, 47.60628 ], [ -3.14537, 47.60628 ], [ -3.14537, 47.42611 ], [ -3.05528, 47.42611 ], [ -3.05528, 47.69636 ], [ -3.23545, 47.69636 ], [ -3.23545, 47.78645 ], [ -3.50571, 47.78645 ] ] ], [ [ [ -2.9652, 47.42611 ], [ -2.9652, 47.33602 ], [ -2.87511, 47.33602 ], [ -2.87511, 47.42611 ], [ -2.9652, 47.42611 ] ] ], [ [ [ -3.23545, 47.42611 ], [ -3.23545, 47.24594 ], [ -3.05528, 47.24594 ], [ -3.05528, 47.33602 ], [ -3.14537, 47.33602 ], [ -3.14537, 47.42611 ], [ -3.23545, 47.42611 ] ] ], [ [ [ -1.79409, 46.52526 ], [ -1.79409, 46.43517 ], [ -1.704, 46.43517 ], [ -1.704, 46.52526 ], [ -1.79409, 46.52526 ] ] ], [ [ [ -1.43375, 46.34509 ], [ -1.43375, 46.255 ], [ -1.16349, 46.255 ], [ -1.16349, 46.34509 ], [ -1.43375, 46.34509 ] ] ], [ [ [ -0.35273, 44.90373 ], [ -0.35273, 44.81364 ], [ 0.27787, 44.81364 ], [ 0.27787, 44.90373 ], [ -0.35273, 44.90373 ] ] ], [ [ [ 0.0977, 44.00288 ], [ 0.0977, 43.91279 ], [ 0.18778, 43.91279 ], [ 0.18778, 44.00288 ], [ 0.0977, 44.00288 ] ] ], [ [ [ 0.54812, 43.19211 ], [ 0.54812, 43.10202 ], [ 0.63821, 43.10202 ], [ 0.63821, 43.19211 ], [ 0.54812, 43.19211 ] ] ], [ [ [ -1.07341, 45.62441 ], [ -1.07341, 45.53432 ], [ -1.16349, 45.53432 ], [ -1.16349, 45.0839 ], [ -1.25358, 45.0839 ], [ -1.25358, 44.90373 ], [ -1.34366, 44.90373 ], [ -1.34366, 44.27313 ], [ -1.43375, 44.27313 ], [ -1.43375, 44.00288 ], [ -1.52383, 44.00288 ], [ -1.52383, 43.82271 ], [ -1.43375, 43.82271 ], [ -1.43375, 43.73262 ], [ -1.52383, 43.73262 ], [ -1.52383, 43.55245 ], [ -1.61392, 43.55245 ], [ -1.61392, 43.46236 ], [ -1.704, 43.46236 ], [ -1.704, 43.37228 ], [ -1.79409, 43.37228 ], [ -1.79409, 43.28219 ], [ -1.704, 43.28219 ], [ -1.704, 43.19211 ], [ -1.52383, 43.19211 ], [ -1.52383, 43.01194 ], [ -1.34366, 43.01194 ], [ -1.34366, 43.10202 ], [ -1.25358, 43.10202 ], [ -1.25358, 43.01194 ], [ -1.16349, 43.01194 ], [ -1.16349, 43.10202 ], [ -0.71307, 43.10202 ], [ -0.71307, 43.01194 ], [ -0.62298, 43.01194 ], [ -0.62298, 43.10202 ], [ 0.27787, 43.10202 ], [ 0.27787, 43.19211 ], [ 0.54812, 43.19211 ], [ 0.54812, 43.37228 ], [ 0.45804, 43.37228 ], [ 0.45804, 43.55245 ], [ 0.63821, 43.55245 ], [ 0.63821, 43.64253 ], [ 0.0977, 43.64253 ], [ 0.0977, 43.55245 ], [ 0.00761, 43.55245 ], [ 0.00761, 43.91279 ], [ -0.08247, 43.91279 ], [ -0.08247, 44.00288 ], [ -0.17256, 44.00288 ], [ -0.17256, 44.36322 ], [ -0.35273, 44.36322 ], [ -0.35273, 44.4533 ], [ -0.44281, 44.4533 ], [ -0.44281, 44.63347 ], [ -0.62298, 44.63347 ], [ -0.62298, 44.72356 ], [ -0.5329, 44.72356 ], [ -0.5329, 44.90373 ], [ -0.35273, 44.90373 ], [ -0.35273, 44.99381 ], [ -0.5329, 44.99381 ], [ -0.5329, 45.35415 ], [ -0.62298, 45.35415 ], [ -0.62298, 45.44424 ], [ -0.71307, 45.44424 ], [ -0.71307, 45.53432 ], [ -0.80315, 45.53432 ], [ -0.80315, 45.62441 ], [ -1.07341, 45.62441 ] ], [ [ 0.18778, 43.55245 ], [ 0.36795, 43.55245 ], [ 0.36795, 43.37228 ], [ 0.27787, 43.37228 ], [ 0.27787, 43.46236 ], [ 0.18778, 43.46236 ], [ 0.18778, 43.55245 ] ], [ [ 0.18778, 43.28219 ], [ 0.27787, 43.28219 ], [ 0.27787, 43.19211 ], [ 0.18778, 43.19211 ], [ 0.18778, 43.28219 ] ] ], [ [ [ 8.47561, 42.29126 ], [ 8.47561, 42.20117 ], [ 8.65578, 42.20117 ], [ 8.65578, 42.29126 ], [ 8.47561, 42.29126 ] ] ], [ [ [ 8.65578, 42.11109 ], [ 8.65578, 42.021 ], [ 8.83595, 42.021 ], [ 8.83595, 42.11109 ], [ 8.65578, 42.11109 ] ] ], [ [ [ 8.5657, 42.021 ], [ 8.5657, 41.93092 ], [ 8.65578, 41.93092 ], [ 8.65578, 42.021 ], [ 8.5657, 42.021 ] ] ], [ [ [ 8.65578, 41.84083 ], [ 8.65578, 41.66066 ], [ 8.74587, 41.66066 ], [ 8.74587, 41.57058 ], [ 8.83595, 41.57058 ], [ 8.83595, 41.75075 ], [ 8.74587, 41.75075 ], [ 8.74587, 41.84083 ], [ 8.65578, 41.84083 ] ] ] ] } }
]
}
