{
"type": "FeatureCollection",
"name": "steno_generations_20260917",
"features": [
{ "type": "Feature", "properties": { "nb_generations": 0, "surface_km2": 21568.0, "libelle": "Aucune generation achevee", "couleur": "#E8E8E8", "date_situation": "2026-09-17", "modele": "STENO-DJ v1", "exposition": "sunny", "k_ecorce": 0.2 }, "geometry": { "type": "MultiPolygon", "coordinates": [ [ [ [ 9.35673, 47.28033 ], [ 9.34823, 47.20855 ], [ 9.45357, 47.20271 ], [ 9.46221, 47.27449 ], [ 9.35673, 47.28033 ] ] ], [ [ [ 9.12111, 47.07631 ], [ 9.11296, 47.0045 ], [ 9.21793, 46.99888 ], [ 9.20965, 46.92708 ], [ 9.10483, 46.93269 ], [ 9.09672, 46.86087 ], [ 8.99201, 46.86638 ], [ 9.00797, 47.01002 ], [ 8.90297, 47.01545 ], [ 8.89511, 46.94362 ], [ 8.68531, 46.95418 ], [ 8.67776, 46.88233 ], [ 8.78253, 46.87711 ], [ 8.77485, 46.80527 ], [ 8.67022, 46.81049 ], [ 8.6627, 46.73864 ], [ 8.55819, 46.74376 ], [ 8.57296, 46.88746 ], [ 8.46815, 46.89249 ], [ 8.46089, 46.82063 ], [ 8.25149, 46.8304 ], [ 8.20311, 46.32726 ], [ 8.30687, 46.32247 ], [ 8.32087, 46.46622 ], [ 8.42487, 46.46132 ], [ 8.43204, 46.53319 ], [ 8.95246, 46.50724 ], [ 8.94461, 46.43541 ], [ 9.36004, 46.41298 ], [ 9.35167, 46.34118 ], [ 9.45533, 46.33534 ], [ 9.48949, 46.62252 ], [ 9.38528, 46.62839 ], [ 9.37684, 46.55659 ], [ 9.27275, 46.56235 ], [ 9.29771, 46.77777 ], [ 9.19318, 46.78346 ], [ 9.20141, 46.85527 ], [ 9.41072, 46.84378 ], [ 9.42779, 46.98736 ], [ 9.32287, 46.99317 ], [ 9.3313, 47.06496 ], [ 9.12111, 47.07631 ] ], [ [ 8.87947, 46.79996 ], [ 9.19318, 46.78346 ], [ 9.17679, 46.63983 ], [ 9.07251, 46.64542 ], [ 9.08056, 46.71724 ], [ 8.87167, 46.72813 ], [ 8.87947, 46.79996 ] ], [ [ 8.7672, 46.73343 ], [ 8.87167, 46.72813 ], [ 8.8639, 46.6563 ], [ 8.75956, 46.66159 ], [ 8.7672, 46.73343 ] ] ], [ [ [ 7.92416, 46.70055 ], [ 7.91115, 46.55676 ], [ 7.80691, 46.56119 ], [ 7.81328, 46.63309 ], [ 7.70889, 46.63743 ], [ 7.70267, 46.56552 ], [ 7.5984, 46.56976 ], [ 7.59233, 46.49785 ], [ 7.48819, 46.50199 ], [ 7.49412, 46.57391 ], [ 7.38982, 46.57796 ], [ 7.37824, 46.43411 ], [ 7.27421, 46.43805 ], [ 7.26858, 46.36612 ], [ 7.06073, 46.37372 ], [ 7.05006, 46.22983 ], [ 7.15372, 46.22609 ], [ 7.15918, 46.29803 ], [ 7.36673, 46.29026 ], [ 7.37248, 46.36218 ], [ 7.99556, 46.33656 ], [ 8.00214, 46.40845 ], [ 8.10606, 46.40384 ], [ 8.13312, 46.69138 ], [ 7.92416, 46.70055 ] ] ], [ [ [ 6.40989, 45.9624 ], [ 6.40544, 45.89043 ], [ 6.5085, 45.88728 ], [ 6.51309, 45.95925 ], [ 6.40989, 45.9624 ] ] ], [ [ [ 6.27669, 45.46163 ], [ 6.27245, 45.38966 ], [ 6.37459, 45.38663 ], [ 6.37896, 45.4586 ], [ 6.27669, 45.46163 ] ] ], [ [ [ 5.85269, 45.18489 ], [ 5.84902, 45.1129 ], [ 5.95068, 45.11026 ], [ 5.95448, 45.18224 ], [ 5.85269, 45.18489 ] ] ], [ [ [ 5.82717, 44.68102 ], [ 5.82356, 44.60904 ], [ 5.92431, 44.60642 ], [ 5.92805, 44.67839 ], [ 5.82717, 44.68102 ] ] ], [ [ [ 7.606, 44.18839 ], [ 7.60017, 44.1165 ], [ 7.69994, 44.11226 ], [ 7.7059, 44.18414 ], [ 7.606, 44.18839 ] ] ], [ [ [ 7.99556, 46.33656 ], [ 7.98899, 46.26466 ], [ 7.88532, 46.26917 ], [ 7.87891, 46.19726 ], [ 7.77535, 46.20167 ], [ 7.78163, 46.27357 ], [ 7.57421, 46.2821 ], [ 7.5682, 46.21018 ], [ 7.36099, 46.21833 ], [ 7.35527, 46.1464 ], [ 7.14827, 46.15415 ], [ 7.14283, 46.08221 ], [ 7.2462, 46.07839 ], [ 7.24065, 46.00645 ], [ 7.13741, 46.01027 ], [ 7.132, 45.93833 ], [ 7.02888, 45.94205 ], [ 7.03416, 46.014 ], [ 6.93089, 46.01763 ], [ 6.94121, 46.16153 ], [ 6.73409, 46.16853 ], [ 6.72431, 46.02461 ], [ 6.62101, 46.02796 ], [ 6.61627, 45.956 ], [ 6.8226, 45.94921 ], [ 6.81761, 45.87726 ], [ 6.71459, 45.88069 ], [ 6.70974, 45.80873 ], [ 6.60684, 45.81207 ], [ 6.59746, 45.66814 ], [ 6.49481, 45.67137 ], [ 6.48574, 45.52744 ], [ 6.58812, 45.52421 ], [ 6.58347, 45.45225 ], [ 6.68571, 45.44894 ], [ 6.68094, 45.37698 ], [ 6.37459, 45.38663 ], [ 6.36588, 45.24269 ], [ 6.46774, 45.23957 ], [ 6.46327, 45.16761 ], [ 6.15803, 45.17667 ], [ 6.17029, 45.3926 ], [ 6.06813, 45.39544 ], [ 6.06021, 45.25148 ], [ 5.9583, 45.25423 ], [ 5.95448, 45.18224 ], [ 6.05626, 45.1795 ], [ 6.0484, 45.03554 ], [ 6.14991, 45.03272 ], [ 6.14586, 44.96075 ], [ 5.9431, 44.9663 ], [ 5.93932, 44.89432 ], [ 6.04058, 44.89159 ], [ 6.03668, 44.81962 ], [ 6.1378, 44.8168 ], [ 6.12978, 44.67287 ], [ 6.23063, 44.66997 ], [ 6.22651, 44.59801 ], [ 6.42792, 44.59194 ], [ 6.4323, 44.66389 ], [ 6.53312, 44.66072 ], [ 6.53764, 44.73267 ], [ 6.73949, 44.72603 ], [ 6.73472, 44.65409 ], [ 6.63392, 44.65745 ], [ 6.62928, 44.58551 ], [ 6.52861, 44.58877 ], [ 6.51963, 44.44488 ], [ 6.72046, 44.43828 ], [ 6.71573, 44.36634 ], [ 6.61545, 44.36968 ], [ 6.61086, 44.29775 ], [ 6.51069, 44.30099 ], [ 6.51515, 44.37293 ], [ 6.41485, 44.37609 ], [ 6.40619, 44.23221 ], [ 6.60628, 44.22581 ], [ 6.59716, 44.08195 ], [ 6.69694, 44.07863 ], [ 6.70162, 44.15055 ], [ 6.90139, 44.14362 ], [ 6.90633, 44.21554 ], [ 7.1063, 44.20824 ], [ 7.11151, 44.28015 ], [ 7.01141, 44.28385 ], [ 7.01651, 44.35577 ], [ 6.91626, 44.35939 ], [ 6.93627, 44.6471 ], [ 7.13777, 44.63974 ], [ 7.14306, 44.71166 ], [ 7.04218, 44.71539 ], [ 7.05255, 44.85925 ], [ 6.85025, 44.86646 ], [ 6.85519, 44.9384 ], [ 6.7539, 44.94187 ], [ 6.75872, 45.01382 ], [ 6.65728, 45.0172 ], [ 6.66199, 45.08915 ], [ 6.86512, 45.08229 ], [ 6.8701, 45.15423 ], [ 7.07344, 45.14699 ], [ 7.07869, 45.21893 ], [ 7.18047, 45.21516 ], [ 7.19671, 45.43097 ], [ 7.09454, 45.43475 ], [ 7.09985, 45.50669 ], [ 6.99753, 45.51038 ], [ 7.00793, 45.65427 ], [ 6.90533, 45.65788 ], [ 6.91041, 45.72983 ], [ 6.80767, 45.73335 ], [ 6.81264, 45.8053 ], [ 7.22406, 45.79064 ], [ 7.22958, 45.86258 ], [ 7.43547, 45.85468 ], [ 7.44127, 45.9266 ], [ 7.85342, 45.90965 ], [ 7.85976, 45.98156 ], [ 7.96289, 45.97708 ], [ 7.98244, 46.19277 ], [ 8.08596, 46.18818 ], [ 8.09934, 46.33196 ], [ 7.99556, 46.33656 ] ], [ [ 6.70009, 45.66481 ], [ 6.80272, 45.66139 ], [ 6.79778, 45.58944 ], [ 6.69529, 45.59285 ], [ 6.70009, 45.66481 ] ], [ [ 6.59278, 45.59618 ], [ 6.69529, 45.59285 ], [ 6.69049, 45.52089 ], [ 6.58812, 45.52421 ], [ 6.59278, 45.59618 ] ], [ [ 6.5696, 45.23637 ], [ 6.67144, 45.23306 ], [ 6.66671, 45.16111 ], [ 6.565, 45.1644 ], [ 6.5696, 45.23637 ] ], [ [ 6.55126, 44.94853 ], [ 6.65259, 44.94525 ], [ 6.64323, 44.80135 ], [ 6.54217, 44.80462 ], [ 6.53764, 44.73267 ], [ 6.43669, 44.73585 ], [ 6.4455, 44.87976 ], [ 6.54671, 44.87658 ], [ 6.55126, 44.94853 ] ], [ [ 6.81116, 44.29098 ], [ 6.91129, 44.28746 ], [ 6.90633, 44.21554 ], [ 6.80633, 44.21906 ], [ 6.81116, 44.29098 ] ] ], [ [ [ 7.1063, 44.20824 ], [ 7.09592, 44.06442 ], [ 7.19564, 44.06064 ], [ 7.20095, 44.13255 ], [ 7.30078, 44.12867 ], [ 7.30622, 44.20057 ], [ 7.1063, 44.20824 ] ] ], [ [ [ 7.40616, 44.1966 ], [ 7.40059, 44.12471 ], [ 7.30078, 44.12867 ], [ 7.29534, 44.05677 ], [ 7.4947, 44.04876 ], [ 7.50609, 44.19254 ], [ 7.40616, 44.1966 ] ] ], [ [ [ -0.71681, 42.85306 ], [ -0.71222, 42.7812 ], [ -0.61466, 42.78454 ], [ -0.61914, 42.8564 ], [ -0.71681, 42.85306 ] ] ], [ [ [ 0.06122, 42.94919 ], [ 0.07211, 42.73352 ], [ 0.16962, 42.73614 ], [ 0.16612, 42.80803 ], [ 0.26376, 42.81057 ], [ 0.25697, 42.95436 ], [ 0.06122, 42.94919 ] ] ], [ [ [ -0.61466, 42.78454 ], [ -0.6102, 42.71268 ], [ -0.51276, 42.71593 ], [ -0.5171, 42.78779 ], [ -0.61466, 42.78454 ] ] ], [ [ [ -0.42801, 42.93469 ], [ -0.42376, 42.86281 ], [ -0.52146, 42.85965 ], [ -0.5171, 42.78779 ], [ -0.22435, 42.797 ], [ -0.22037, 42.72512 ], [ -0.12288, 42.72801 ], [ -0.11903, 42.65614 ], [ 0.07572, 42.66164 ], [ 0.07211, 42.73352 ], [ -0.02539, 42.73081 ], [ -0.03288, 42.87457 ], [ -0.32606, 42.86589 ], [ -0.33018, 42.93776 ], [ -0.42801, 42.93469 ] ] ], [ [ [ 0.16962, 42.73614 ], [ 0.17311, 42.66426 ], [ 0.66019, 42.67603 ], [ 0.6573, 42.74792 ], [ 0.16962, 42.73614 ] ] ], [ [ [ 2.12235, 42.69801 ], [ 2.12343, 42.62608 ], [ 2.22082, 42.62684 ], [ 2.21986, 42.69876 ], [ 2.12235, 42.69801 ] ] ], [ [ [ 0.75208, 42.82192 ], [ 0.75486, 42.75001 ], [ 0.95, 42.75392 ], [ 0.95253, 42.68202 ], [ 0.66019, 42.67603 ], [ 0.66308, 42.60413 ], [ 0.85772, 42.60821 ], [ 0.86036, 42.53632 ], [ 0.95757, 42.53822 ], [ 0.95505, 42.61012 ], [ 1.05239, 42.61194 ], [ 1.04516, 42.82766 ], [ 0.75208, 42.82192 ] ] ], [ [ [ 1.14516, 42.75748 ], [ 1.14745, 42.68557 ], [ 1.3424, 42.68877 ], [ 1.34444, 42.61686 ], [ 1.63653, 42.62098 ], [ 1.63821, 42.54907 ], [ 1.54096, 42.54779 ], [ 1.54276, 42.47589 ], [ 1.83416, 42.47947 ], [ 1.83272, 42.55138 ], [ 2.02725, 42.55333 ], [ 2.02484, 42.69716 ], [ 1.82984, 42.69521 ], [ 1.83128, 42.62329 ], [ 1.73391, 42.62218 ], [ 1.73234, 42.6941 ], [ 1.43988, 42.69023 ], [ 1.43795, 42.76215 ], [ 1.14516, 42.75748 ] ] ], [ [ [ 2.02844, 42.48142 ], [ 2.02964, 42.40951 ], [ 2.32073, 42.41177 ], [ 2.31989, 42.48367 ], [ 2.02844, 42.48142 ] ] ] ] } },
{ "type": "Feature", "properties": { "nb_generations": 1, "surface_km2": 63744.0, "libelle": "1 generation(s) achevee(s)", "couleur": "#FDE725FF", "date_situation": "2026-09-17", "modele": "STENO-DJ v1", "exposition": "sunny", "k_ecorce": 0.2 }, "geometry": { "type": "MultiPolygon", "coordinates": [ [ [ [ 1.65552, 50.2526 ], [ 1.65742, 50.18078 ], [ 1.76929, 50.18195 ], [ 1.76754, 50.25378 ], [ 1.65552, 50.2526 ] ] ], [ [ [ 1.748, 51.04339 ], [ 1.7498, 50.97165 ], [ 1.63617, 50.97046 ], [ 1.63813, 50.89871 ], [ 1.52467, 50.89742 ], [ 1.53936, 50.39496 ], [ 1.87638, 50.39848 ], [ 1.87797, 50.32667 ], [ 1.99016, 50.32764 ], [ 1.9916, 50.25581 ], [ 2.10363, 50.25668 ], [ 2.10617, 50.11301 ], [ 2.6648, 50.11581 ], [ 2.66241, 50.47495 ], [ 2.54988, 50.47459 ], [ 2.54924, 50.54639 ], [ 2.43656, 50.54593 ], [ 2.43575, 50.61773 ], [ 2.21006, 50.6165 ], [ 2.2078, 50.76007 ], [ 2.09464, 50.7593 ], [ 2.09334, 50.83107 ], [ 1.98002, 50.83019 ], [ 1.97855, 50.90196 ], [ 2.09204, 50.90283 ], [ 2.08942, 51.04634 ], [ 1.748, 51.04339 ] ] ], [ [ [ 5.3391, 49.95021 ], [ 5.33581, 49.87837 ], [ 5.55812, 49.87392 ], [ 5.56173, 49.94575 ], [ 5.3391, 49.95021 ] ] ], [ [ [ 4.89643, 50.02975 ], [ 4.89375, 49.95791 ], [ 4.67103, 49.96115 ], [ 4.66867, 49.88931 ], [ 5.00228, 49.8843 ], [ 4.99946, 49.81245 ], [ 5.22151, 49.80861 ], [ 5.22464, 49.88045 ], [ 5.11346, 49.88242 ], [ 5.11644, 49.95426 ], [ 5.0051, 49.95614 ], [ 5.00793, 50.02797 ], [ 4.89643, 50.02975 ] ] ], [ [ [ 5.55812, 49.87392 ], [ 5.55094, 49.73025 ], [ 5.66176, 49.72787 ], [ 5.66926, 49.87154 ], [ 5.55812, 49.87392 ] ] ], [ [ [ 4.88842, 49.81422 ], [ 4.88577, 49.74236 ], [ 4.99665, 49.74059 ], [ 4.99946, 49.81245 ], [ 4.88842, 49.81422 ] ] ], [ [ [ -2.00007, 49.79827 ], [ -1.98606, 49.65479 ], [ -1.87554, 49.65928 ], [ -1.86872, 49.58753 ], [ -1.97908, 49.58305 ], [ -1.97213, 49.51129 ], [ -1.86192, 49.51577 ], [ -1.85513, 49.444 ], [ -1.74506, 49.44837 ], [ -1.73844, 49.37659 ], [ -1.51854, 49.38502 ], [ -1.53118, 49.52859 ], [ -1.42089, 49.53266 ], [ -1.41472, 49.46087 ], [ -1.30457, 49.46484 ], [ -1.29258, 49.32124 ], [ -1.07285, 49.32886 ], [ -1.08423, 49.47248 ], [ -1.19441, 49.46871 ], [ -1.21797, 49.75586 ], [ -1.55026, 49.7439 ], [ -1.54388, 49.67213 ], [ -1.65445, 49.66795 ], [ -1.66099, 49.73971 ], [ -1.88239, 49.73102 ], [ -1.88925, 49.80276 ], [ -2.00007, 49.79827 ] ] ], [ [ [ 1.43372, 50.17813 ], [ 1.43593, 50.1063 ], [ 1.21256, 50.10325 ], [ 1.21509, 50.03142 ], [ 1.10357, 50.02975 ], [ 1.10625, 49.95791 ], [ 0.6609, 49.95021 ], [ 0.66419, 49.87837 ], [ 0.44188, 49.87392 ], [ 0.44548, 49.80209 ], [ 0.11256, 49.79466 ], [ 0.11661, 49.72283 ], [ 0.22742, 49.7254 ], [ 0.23131, 49.65356 ], [ 0.34197, 49.65603 ], [ 0.33824, 49.72787 ], [ 0.5599, 49.73252 ], [ 0.56332, 49.66067 ], [ 0.45264, 49.6584 ], [ 0.45621, 49.58655 ], [ 0.89838, 49.59501 ], [ 0.90131, 49.52314 ], [ 1.343, 49.52998 ], [ 1.34531, 49.45809 ], [ 1.67618, 49.46216 ], [ 1.67803, 49.39027 ], [ 1.78817, 49.39142 ], [ 1.78137, 49.67897 ], [ 1.89214, 49.68003 ], [ 1.89058, 49.7519 ], [ 2.00151, 49.75286 ], [ 1.9987, 49.8966 ], [ 1.66499, 49.89341 ], [ 1.66311, 49.96526 ], [ 1.55172, 49.96399 ], [ 1.54762, 50.10767 ], [ 1.65932, 50.10894 ], [ 1.65742, 50.18078 ], [ 1.43372, 50.17813 ] ], [ [ 0.99772, 49.8843 ], [ 1.22012, 49.88774 ], [ 1.22262, 49.81589 ], [ 1.00054, 49.81245 ], [ 0.99772, 49.8843 ] ], [ [ 0.55647, 49.80436 ], [ 0.66747, 49.80653 ], [ 0.67075, 49.73469 ], [ 0.5599, 49.73252 ], [ 0.55647, 49.80436 ] ], [ [ 1.66874, 49.74968 ], [ 1.77966, 49.75084 ], [ 1.78137, 49.67897 ], [ 1.67061, 49.67781 ], [ 1.66874, 49.74968 ] ] ], [ [ [ -1.51225, 49.31323 ], [ -1.50598, 49.24143 ], [ -1.3963, 49.24548 ], [ -1.40243, 49.31728 ], [ -1.51225, 49.31323 ] ] ], [ [ [ -1.49972, 49.16962 ], [ -1.49348, 49.09781 ], [ -1.38411, 49.10185 ], [ -1.3902, 49.17367 ], [ -1.49972, 49.16962 ] ] ], [ [ [ -5.01313, 48.40771 ], [ -5.00219, 48.33611 ], [ -4.89478, 48.34334 ], [ -4.90557, 48.41496 ], [ -5.01313, 48.40771 ] ] ], [ [ [ -2.85681, 48.53398 ], [ -2.84879, 48.46221 ], [ -2.74086, 48.46749 ], [ -2.74873, 48.53926 ], [ -2.85681, 48.53398 ] ] ], [ [ [ -2.74086, 48.46749 ], [ -2.73301, 48.39571 ], [ -2.62521, 48.40088 ], [ -2.63292, 48.47267 ], [ -2.74086, 48.46749 ] ] ], [ [ [ -3.33226, 48.87049 ], [ -3.32354, 48.79878 ], [ -3.54061, 48.78707 ], [ -3.53161, 48.71536 ], [ -3.74829, 48.70328 ], [ -3.75758, 48.77497 ], [ -4.19122, 48.74958 ], [ -4.18134, 48.67792 ], [ -4.61396, 48.65099 ], [ -4.60351, 48.57937 ], [ -4.81936, 48.56533 ], [ -4.78733, 48.35048 ], [ -4.57236, 48.36446 ], [ -4.58272, 48.4361 ], [ -4.36734, 48.4497 ], [ -4.35728, 48.37805 ], [ -4.24969, 48.38469 ], [ -4.2398, 48.31302 ], [ -3.91732, 48.33235 ], [ -3.90789, 48.26065 ], [ -3.69307, 48.27303 ], [ -3.70221, 48.34475 ], [ -3.59462, 48.3508 ], [ -3.60364, 48.42253 ], [ -3.49587, 48.42849 ], [ -3.50477, 48.50021 ], [ -3.18089, 48.51754 ], [ -3.18938, 48.58928 ], [ -3.62175, 48.56596 ], [ -3.63084, 48.63766 ], [ -3.08958, 48.66661 ], [ -3.11479, 48.88182 ], [ -3.33226, 48.87049 ] ] ], [ [ [ -3.38808, 48.43435 ], [ -3.37065, 48.29087 ], [ -3.26313, 48.29663 ], [ -3.27169, 48.36838 ], [ -3.164, 48.37404 ], [ -3.17243, 48.44579 ], [ -3.38808, 48.43435 ] ] ], [ [ [ 7.22203, 48.45918 ], [ 7.21626, 48.38731 ], [ 7.32415, 48.38342 ], [ 7.33007, 48.45529 ], [ 7.22203, 48.45918 ] ] ], [ [ [ -3.35331, 48.14738 ], [ -3.34468, 48.07562 ], [ -3.23759, 48.08135 ], [ -3.24608, 48.15311 ], [ -3.35331, 48.14738 ] ] ], [ [ [ 8.68636, 47.96493 ], [ 8.67865, 47.89312 ], [ 8.78542, 47.8879 ], [ 8.79326, 47.9597 ], [ 8.68636, 47.96493 ] ] ], [ [ [ 8.46506, 47.90327 ], [ 8.45767, 47.83145 ], [ 8.67097, 47.82131 ], [ 8.67865, 47.89312 ], [ 8.46506, 47.90327 ] ] ], [ [ [ 7.09714, 48.24734 ], [ 7.09155, 48.17546 ], [ 6.98407, 48.17914 ], [ 6.97865, 48.10724 ], [ 6.76392, 48.1143 ], [ 6.7537, 47.97048 ], [ 6.86078, 47.96701 ], [ 6.85033, 47.82319 ], [ 6.95711, 47.81963 ], [ 6.96247, 47.89154 ], [ 7.17627, 47.88412 ], [ 7.20475, 48.24356 ], [ 7.09714, 48.24734 ] ] ], [ [ [ 8.17257, 48.20512 ], [ 8.16553, 48.13329 ], [ 8.05821, 48.13794 ], [ 8.04448, 47.99426 ], [ 8.15151, 47.98961 ], [ 8.14452, 47.91777 ], [ 7.93074, 47.92695 ], [ 7.92406, 47.85509 ], [ 7.81729, 47.85953 ], [ 7.81077, 47.78767 ], [ 7.9174, 47.78323 ], [ 7.91076, 47.71137 ], [ 8.01724, 47.70685 ], [ 8.01047, 47.63498 ], [ 8.11678, 47.63037 ], [ 8.12369, 47.70222 ], [ 8.23012, 47.69751 ], [ 8.23719, 47.76935 ], [ 8.34375, 47.76453 ], [ 8.35098, 47.83637 ], [ 8.24428, 47.8412 ], [ 8.25139, 47.91304 ], [ 8.35823, 47.9082 ], [ 8.36551, 47.98003 ], [ 8.25852, 47.98487 ], [ 8.26566, 48.0567 ], [ 8.58701, 48.04187 ], [ 8.5946, 48.11368 ], [ 8.48737, 48.11873 ], [ 8.49484, 48.19054 ], [ 8.17257, 48.20512 ] ] ], [ [ [ 8.94256, 47.37455 ], [ 8.9346, 47.30273 ], [ 9.04016, 47.29728 ], [ 9.04826, 47.36908 ], [ 8.94256, 47.37455 ] ] ], [ [ [ 7.56045, 47.36491 ], [ 7.55434, 47.29301 ], [ 7.66001, 47.28881 ], [ 7.66626, 47.3607 ], [ 7.56045, 47.36491 ] ] ], [ [ [ 8.87947, 46.79996 ], [ 8.87167, 46.72813 ], [ 9.08056, 46.71724 ], [ 9.07251, 46.64542 ], [ 9.17679, 46.63983 ], [ 9.19318, 46.78346 ], [ 8.87947, 46.79996 ] ] ], [ [ [ 8.7672, 46.73343 ], [ 8.75956, 46.66159 ], [ 8.8639, 46.6563 ], [ 8.87167, 46.72813 ], [ 8.7672, 46.73343 ] ] ], [ [ [ 9.3738, 47.4239 ], [ 9.36525, 47.35212 ], [ 9.15395, 47.36352 ], [ 9.14571, 47.29172 ], [ 9.04016, 47.29728 ], [ 9.03208, 47.22547 ], [ 9.13749, 47.21992 ], [ 9.12929, 47.14812 ], [ 8.60276, 47.17484 ], [ 8.58782, 47.03116 ], [ 8.69289, 47.02602 ], [ 8.68531, 46.95418 ], [ 8.89511, 46.94362 ], [ 8.90297, 47.01545 ], [ 9.00797, 47.01002 ], [ 8.99201, 46.86638 ], [ 9.09672, 46.86087 ], [ 9.10483, 46.93269 ], [ 9.20965, 46.92708 ], [ 9.21793, 46.99888 ], [ 9.11296, 47.0045 ], [ 9.12111, 47.07631 ], [ 9.3313, 47.06496 ], [ 9.32287, 46.99317 ], [ 9.42779, 46.98736 ], [ 9.41072, 46.84378 ], [ 9.20141, 46.85527 ], [ 9.19318, 46.78346 ], [ 9.29771, 46.77777 ], [ 9.27275, 46.56235 ], [ 9.37684, 46.55659 ], [ 9.38528, 46.62839 ], [ 9.48949, 46.62252 ], [ 9.5067, 46.7661 ], [ 9.61116, 46.76012 ], [ 9.66417, 47.19076 ], [ 9.55888, 47.19679 ], [ 9.55013, 47.12501 ], [ 9.44495, 47.13093 ], [ 9.45357, 47.20271 ], [ 9.34823, 47.20855 ], [ 9.35673, 47.28033 ], [ 9.56766, 47.26856 ], [ 9.58529, 47.41209 ], [ 9.3738, 47.4239 ] ] ], [ [ [ 7.8518, 47.06446 ], [ 7.83889, 46.92068 ], [ 7.73395, 46.92504 ], [ 7.72766, 46.85314 ], [ 7.62285, 46.8574 ], [ 7.61059, 46.71359 ], [ 7.71513, 46.70934 ], [ 7.70889, 46.63743 ], [ 7.81328, 46.63309 ], [ 7.80691, 46.56119 ], [ 7.91115, 46.55676 ], [ 7.92416, 46.70055 ], [ 8.13312, 46.69138 ], [ 8.14676, 46.83514 ], [ 8.46089, 46.82063 ], [ 8.46815, 46.89249 ], [ 8.57296, 46.88746 ], [ 8.55819, 46.74376 ], [ 8.6627, 46.73864 ], [ 8.67022, 46.81049 ], [ 8.77485, 46.80527 ], [ 8.78253, 46.87711 ], [ 8.67776, 46.88233 ], [ 8.68531, 46.95418 ], [ 8.37046, 46.96929 ], [ 8.36332, 46.89743 ], [ 8.25847, 46.90227 ], [ 8.26548, 46.97414 ], [ 8.05544, 46.98355 ], [ 8.06219, 47.05542 ], [ 7.8518, 47.06446 ] ] ], [ [ [ 5.72284, 46.70182 ], [ 5.71924, 46.62983 ], [ 5.82374, 46.6273 ], [ 5.82748, 46.69929 ], [ 5.72284, 46.70182 ] ] ], [ [ [ 9.25621, 46.41873 ], [ 9.24798, 46.34692 ], [ 9.35167, 46.34118 ], [ 9.36004, 46.41298 ], [ 9.25621, 46.41873 ] ] ], [ [ [ 8.00214, 46.40845 ], [ 7.99556, 46.33656 ], [ 8.09934, 46.33196 ], [ 8.10606, 46.40384 ], [ 8.00214, 46.40845 ] ] ], [ [ [ 6.91997, 47.31618 ], [ 6.91473, 47.24425 ], [ 6.80909, 47.24777 ], [ 6.804, 47.17584 ], [ 6.48743, 47.18581 ], [ 6.48277, 47.11386 ], [ 6.37736, 47.11698 ], [ 6.36836, 46.97306 ], [ 6.05291, 46.98185 ], [ 6.04885, 46.90987 ], [ 5.83877, 46.91524 ], [ 5.82748, 46.69929 ], [ 5.93211, 46.69666 ], [ 5.92822, 46.62468 ], [ 5.82374, 46.6273 ], [ 5.82, 46.55531 ], [ 5.71564, 46.55783 ], [ 5.70848, 46.41385 ], [ 5.81257, 46.41133 ], [ 5.80886, 46.33934 ], [ 5.70491, 46.34185 ], [ 5.69781, 46.19786 ], [ 5.90515, 46.19275 ], [ 5.9128, 46.33673 ], [ 6.01673, 46.33402 ], [ 6.02071, 46.40601 ], [ 6.12476, 46.40321 ], [ 6.12889, 46.47519 ], [ 6.23307, 46.47229 ], [ 6.23734, 46.54426 ], [ 6.34165, 46.54126 ], [ 6.35051, 46.6852 ], [ 6.45508, 46.6821 ], [ 6.46426, 46.82602 ], [ 6.67392, 46.81951 ], [ 6.67881, 46.89147 ], [ 6.78376, 46.88806 ], [ 6.7888, 46.96001 ], [ 6.89387, 46.95651 ], [ 6.89907, 47.02845 ], [ 7.10946, 47.02115 ], [ 7.11494, 47.09307 ], [ 7.22025, 47.08927 ], [ 7.2259, 47.16119 ], [ 7.43676, 47.1533 ], [ 7.44269, 47.22521 ], [ 7.54824, 47.22111 ], [ 7.55434, 47.29301 ], [ 6.91997, 47.31618 ] ] ], [ [ [ 7.37248, 46.36218 ], [ 7.36673, 46.29026 ], [ 7.15918, 46.29803 ], [ 7.15372, 46.22609 ], [ 7.25736, 46.22226 ], [ 7.25178, 46.15032 ], [ 7.35527, 46.1464 ], [ 7.36099, 46.21833 ], [ 7.5682, 46.21018 ], [ 7.57421, 46.2821 ], [ 7.78163, 46.27357 ], [ 7.77535, 46.20167 ], [ 7.87891, 46.19726 ], [ 7.88532, 46.26917 ], [ 7.98899, 46.26466 ], [ 7.99556, 46.33656 ], [ 7.37248, 46.36218 ] ] ], [ [ [ 5.59072, 46.12827 ], [ 5.58394, 45.98427 ], [ 5.68722, 45.98187 ], [ 5.69427, 46.12586 ], [ 5.59072, 46.12827 ] ] ], [ [ [ 2.58804, 45.79687 ], [ 2.58858, 45.72483 ], [ 2.69143, 45.72516 ], [ 2.69103, 45.7972 ], [ 2.58804, 45.79687 ] ] ], [ [ [ 6.70009, 45.66481 ], [ 6.69529, 45.59285 ], [ 6.79778, 45.58944 ], [ 6.80272, 45.66139 ], [ 6.70009, 45.66481 ] ] ], [ [ [ 6.59278, 45.59618 ], [ 6.58812, 45.52421 ], [ 6.69049, 45.52089 ], [ 6.69529, 45.59285 ], [ 6.59278, 45.59618 ] ] ], [ [ [ 3.61873, 45.86797 ], [ 3.61712, 45.7239 ], [ 3.71997, 45.72329 ], [ 3.71717, 45.50718 ], [ 3.81961, 45.50648 ], [ 3.81855, 45.43445 ], [ 4.02317, 45.43277 ], [ 4.0245, 45.5048 ], [ 3.92206, 45.50569 ], [ 3.92566, 45.72179 ], [ 3.82282, 45.72258 ], [ 3.82389, 45.79462 ], [ 3.72091, 45.79532 ], [ 3.72185, 45.86736 ], [ 3.61873, 45.86797 ] ] ], [ [ [ 7.3083, 46.86962 ], [ 7.30258, 46.79769 ], [ 7.19784, 46.80157 ], [ 7.19227, 46.72964 ], [ 7.08766, 46.73341 ], [ 7.08224, 46.66148 ], [ 6.87324, 46.66873 ], [ 6.84776, 46.30898 ], [ 6.74392, 46.31244 ], [ 6.74885, 46.3844 ], [ 6.54087, 46.39105 ], [ 6.53621, 46.31908 ], [ 6.43234, 46.32226 ], [ 6.42783, 46.25029 ], [ 6.32408, 46.25337 ], [ 6.31536, 46.10942 ], [ 6.5223, 46.10318 ], [ 6.51769, 46.03122 ], [ 6.20766, 46.04042 ], [ 6.20347, 45.96844 ], [ 6.10024, 45.97131 ], [ 6.09619, 45.89933 ], [ 6.19928, 45.89646 ], [ 6.19095, 45.7525 ], [ 6.08812, 45.75536 ], [ 6.0841, 45.68338 ], [ 5.87868, 45.68881 ], [ 5.87494, 45.61682 ], [ 5.97752, 45.61415 ], [ 5.97366, 45.54217 ], [ 6.0761, 45.53941 ], [ 6.08009, 45.61139 ], [ 6.2852, 45.60559 ], [ 6.27669, 45.46163 ], [ 6.37896, 45.4586 ], [ 6.37459, 45.38663 ], [ 6.68094, 45.37698 ], [ 6.68571, 45.44894 ], [ 6.58347, 45.45225 ], [ 6.58812, 45.52421 ], [ 6.48574, 45.52744 ], [ 6.49481, 45.67137 ], [ 6.59746, 45.66814 ], [ 6.60684, 45.81207 ], [ 6.70974, 45.80873 ], [ 6.71459, 45.88069 ], [ 6.81761, 45.87726 ], [ 6.8226, 45.94921 ], [ 6.61627, 45.956 ], [ 6.62101, 46.02796 ], [ 6.72431, 46.02461 ], [ 6.73409, 46.16853 ], [ 6.94121, 46.16153 ], [ 6.93089, 46.01763 ], [ 7.03416, 46.014 ], [ 7.02888, 45.94205 ], [ 7.132, 45.93833 ], [ 7.13741, 46.01027 ], [ 7.24065, 46.00645 ], [ 7.2462, 46.07839 ], [ 7.14283, 46.08221 ], [ 7.15372, 46.22609 ], [ 7.05006, 46.22983 ], [ 7.06073, 46.37372 ], [ 7.26858, 46.36612 ], [ 7.27421, 46.43805 ], [ 7.37824, 46.43411 ], [ 7.38982, 46.57796 ], [ 7.49412, 46.57391 ], [ 7.48819, 46.50199 ], [ 7.59233, 46.49785 ], [ 7.5984, 46.56976 ], [ 7.70267, 46.56552 ], [ 7.70889, 46.63743 ], [ 7.50007, 46.64583 ], [ 7.50604, 46.71774 ], [ 7.40146, 46.7218 ], [ 7.41317, 46.86564 ], [ 7.3083, 46.86962 ] ], [ [ 6.84776, 46.30898 ], [ 6.95158, 46.30543 ], [ 6.94639, 46.23348 ], [ 6.8427, 46.23703 ], [ 6.84776, 46.30898 ] ], [ [ 6.40989, 45.9624 ], [ 6.51309, 45.95925 ], [ 6.5085, 45.88728 ], [ 6.40544, 45.89043 ], [ 6.40989, 45.9624 ] ], [ [ 6.29376, 45.74954 ], [ 6.39657, 45.74649 ], [ 6.38774, 45.60254 ], [ 6.2852, 45.60559 ], [ 6.29376, 45.74954 ] ] ], [ [ [ 3.0, 45.43743 ], [ 3.0, 45.3654 ], [ 3.10219, 45.36535 ], [ 3.10232, 45.43739 ], [ 3.0, 45.43743 ] ] ], [ [ [ 3.71624, 45.43515 ], [ 3.71531, 45.36311 ], [ 3.81749, 45.36241 ], [ 3.81855, 45.43445 ], [ 3.71624, 45.43515 ] ] ], [ [ [ 4.43236, 45.42829 ], [ 4.43051, 45.35626 ], [ 4.53266, 45.35491 ], [ 4.53465, 45.42693 ], [ 4.43236, 45.42829 ] ] ], [ [ [ 5.76516, 45.47541 ], [ 5.75801, 45.33143 ], [ 5.65594, 45.3339 ], [ 5.65251, 45.2619 ], [ 5.85638, 45.25688 ], [ 5.86749, 45.47284 ], [ 5.76516, 45.47541 ] ] ], [ [ [ 5.96212, 45.32621 ], [ 5.9583, 45.25423 ], [ 6.06021, 45.25148 ], [ 6.06416, 45.32346 ], [ 5.96212, 45.32621 ] ] ], [ [ [ 6.07211, 45.46743 ], [ 6.06813, 45.39544 ], [ 6.17029, 45.3926 ], [ 6.15803, 45.17667 ], [ 6.46327, 45.16761 ], [ 6.46774, 45.23957 ], [ 6.36588, 45.24269 ], [ 6.37459, 45.38663 ], [ 6.27245, 45.38966 ], [ 6.27669, 45.46163 ], [ 6.07211, 45.46743 ] ] ], [ [ [ 5.85638, 45.25688 ], [ 5.85269, 45.18489 ], [ 5.95448, 45.18224 ], [ 5.9583, 45.25423 ], [ 5.85638, 45.25688 ] ] ], [ [ [ 6.5696, 45.23637 ], [ 6.565, 45.1644 ], [ 6.66671, 45.16111 ], [ 6.67144, 45.23306 ], [ 6.5696, 45.23637 ] ] ], [ [ [ 6.8701, 45.15423 ], [ 6.86512, 45.08229 ], [ 6.96666, 45.07872 ], [ 6.97177, 45.15066 ], [ 6.8701, 45.15423 ] ] ], [ [ [ 5.34362, 45.19674 ], [ 5.3406, 45.12474 ], [ 5.4423, 45.12256 ], [ 5.43916, 45.05056 ], [ 5.33759, 45.05274 ], [ 5.33458, 44.98074 ], [ 5.13168, 44.98481 ], [ 5.12894, 44.91281 ], [ 5.33159, 44.90874 ], [ 5.3286, 44.83675 ], [ 5.42978, 44.83458 ], [ 5.42667, 44.76258 ], [ 5.52771, 44.76033 ], [ 5.54727, 45.19228 ], [ 5.34362, 45.19674 ] ] ], [ [ [ 6.55126, 44.94853 ], [ 6.54671, 44.87658 ], [ 6.4455, 44.87976 ], [ 6.43669, 44.73585 ], [ 6.53764, 44.73267 ], [ 6.54217, 44.80462 ], [ 6.64323, 44.80135 ], [ 6.65259, 44.94525 ], [ 6.55126, 44.94853 ] ] ], [ [ [ 6.53764, 44.73267 ], [ 6.53312, 44.66072 ], [ 6.4323, 44.66389 ], [ 6.42792, 44.59194 ], [ 6.62928, 44.58551 ], [ 6.63392, 44.65745 ], [ 6.73472, 44.65409 ], [ 6.73949, 44.72603 ], [ 6.53764, 44.73267 ] ] ], [ [ [ 5.51483, 44.47239 ], [ 5.51164, 44.40041 ], [ 5.61203, 44.39807 ], [ 5.61536, 44.47005 ], [ 5.51483, 44.47239 ] ] ], [ [ [ 2.79402, 45.79744 ], [ 2.79429, 45.7254 ], [ 2.69143, 45.72516 ], [ 2.69184, 45.65313 ], [ 2.58912, 45.6528 ], [ 2.59018, 45.50872 ], [ 2.69264, 45.50905 ], [ 2.69343, 45.36498 ], [ 2.59124, 45.36465 ], [ 2.59177, 45.29262 ], [ 2.48972, 45.2922 ], [ 2.49234, 45.00407 ], [ 2.59387, 45.00449 ], [ 2.59439, 44.93246 ], [ 3.0, 44.9332 ], [ 3.0, 45.07726 ], [ 3.20333, 45.07708 ], [ 3.20307, 45.00505 ], [ 3.3046, 45.00481 ], [ 3.30421, 44.93279 ], [ 3.1014, 44.93316 ], [ 3.10127, 44.86113 ], [ 2.89873, 44.86113 ], [ 2.89886, 44.7891 ], [ 2.79771, 44.78896 ], [ 2.79823, 44.64492 ], [ 2.89912, 44.64506 ], [ 2.89924, 44.57303 ], [ 3.20151, 44.5729 ], [ 3.20203, 44.71694 ], [ 3.30304, 44.71671 ], [ 3.30265, 44.64469 ], [ 3.50442, 44.64395 ], [ 3.50377, 44.57193 ], [ 3.60452, 44.57143 ], [ 3.60298, 44.4274 ], [ 3.70348, 44.4268 ], [ 3.70258, 44.35479 ], [ 3.80294, 44.3541 ], [ 3.80602, 44.57014 ], [ 3.90676, 44.56936 ], [ 3.90792, 44.64137 ], [ 4.10966, 44.63953 ], [ 4.1125, 44.78357 ], [ 4.31474, 44.78135 ], [ 4.31642, 44.85337 ], [ 4.21518, 44.85452 ], [ 4.2183, 44.99856 ], [ 4.31981, 44.99741 ], [ 4.32151, 45.06943 ], [ 4.42314, 45.06817 ], [ 4.42866, 45.28424 ], [ 4.32663, 45.2855 ], [ 4.32321, 45.14145 ], [ 4.01789, 45.14465 ], [ 4.01528, 45.0006 ], [ 3.91376, 45.00148 ], [ 3.91258, 44.92946 ], [ 3.81119, 44.93024 ], [ 3.81328, 45.07429 ], [ 3.71163, 45.07499 ], [ 3.71531, 45.36311 ], [ 3.61313, 45.36372 ], [ 3.61552, 45.57982 ], [ 3.51293, 45.58034 ], [ 3.51227, 45.5083 ], [ 3.40982, 45.50872 ], [ 3.40929, 45.43669 ], [ 3.51161, 45.43627 ], [ 3.51028, 45.2922 ], [ 3.61234, 45.29169 ], [ 3.60919, 45.00356 ], [ 3.50766, 45.00407 ], [ 3.50831, 45.0761 ], [ 3.40665, 45.07652 ], [ 3.40718, 45.14855 ], [ 3.30538, 45.14888 ], [ 3.30578, 45.22091 ], [ 3.20385, 45.22114 ], [ 3.20359, 45.14911 ], [ 3.10179, 45.14925 ], [ 3.10206, 45.29332 ], [ 3.0, 45.29336 ], [ 3.0, 45.14929 ], [ 2.89821, 45.14925 ], [ 2.89701, 45.79758 ], [ 2.79402, 45.79744 ] ], [ [ 3.60919, 45.00356 ], [ 3.71071, 45.00296 ], [ 3.7098, 44.93094 ], [ 3.6084, 44.93154 ], [ 3.60919, 45.00356 ] ] ], [ [ [ 6.81116, 44.29098 ], [ 6.80633, 44.21906 ], [ 6.90633, 44.21554 ], [ 6.91129, 44.28746 ], [ 6.81116, 44.29098 ] ] ], [ [ [ 7.30622, 44.20057 ], [ 7.30078, 44.12867 ], [ 7.40059, 44.12471 ], [ 7.40616, 44.1966 ], [ 7.30622, 44.20057 ] ] ], [ [ [ 7.50609, 44.19254 ], [ 7.50039, 44.12065 ], [ 7.60017, 44.1165 ], [ 7.606, 44.18839 ], [ 7.50609, 44.19254 ] ] ], [ [ [ 7.20095, 44.13255 ], [ 7.19564, 44.06064 ], [ 7.29534, 44.05677 ], [ 7.30078, 44.12867 ], [ 7.20095, 44.13255 ] ] ], [ [ [ 5.95448, 45.18224 ], [ 5.95068, 45.11026 ], [ 5.84902, 45.1129 ], [ 5.84536, 45.04092 ], [ 5.74382, 45.04347 ], [ 5.73678, 44.8995 ], [ 5.83805, 44.89695 ], [ 5.83442, 44.82497 ], [ 5.73327, 44.82751 ], [ 5.72977, 44.75553 ], [ 5.52771, 44.76033 ], [ 5.51804, 44.54437 ], [ 5.81996, 44.53707 ], [ 5.81279, 44.39313 ], [ 5.91316, 44.39052 ], [ 5.92059, 44.53445 ], [ 6.0212, 44.53174 ], [ 6.02505, 44.60371 ], [ 6.12579, 44.60091 ], [ 6.1218, 44.52894 ], [ 6.32298, 44.52307 ], [ 6.31453, 44.37916 ], [ 6.01352, 44.38782 ], [ 6.00206, 44.17194 ], [ 6.30194, 44.16332 ], [ 6.29359, 44.01944 ], [ 6.79191, 44.0033 ], [ 6.7967, 44.07521 ], [ 6.89645, 44.07171 ], [ 6.89153, 43.99979 ], [ 6.99115, 43.9962 ], [ 6.9962, 44.06811 ], [ 7.09592, 44.06442 ], [ 7.1063, 44.20824 ], [ 6.90633, 44.21554 ], [ 6.90139, 44.14362 ], [ 6.70162, 44.15055 ], [ 6.69694, 44.07863 ], [ 6.59716, 44.08195 ], [ 6.60628, 44.22581 ], [ 6.40619, 44.23221 ], [ 6.41485, 44.37609 ], [ 6.51515, 44.37293 ], [ 6.51069, 44.30099 ], [ 6.61086, 44.29775 ], [ 6.61545, 44.36968 ], [ 6.71573, 44.36634 ], [ 6.72046, 44.43828 ], [ 6.51963, 44.44488 ], [ 6.52411, 44.51682 ], [ 6.42355, 44.51999 ], [ 6.42792, 44.59194 ], [ 6.22651, 44.59801 ], [ 6.23063, 44.66997 ], [ 6.12978, 44.67287 ], [ 6.1378, 44.8168 ], [ 6.03668, 44.81962 ], [ 6.04058, 44.89159 ], [ 5.93932, 44.89432 ], [ 5.9431, 44.9663 ], [ 6.14586, 44.96075 ], [ 6.14991, 45.03272 ], [ 6.0484, 45.03554 ], [ 6.05626, 45.1795 ], [ 5.95448, 45.18224 ] ], [ [ 5.9318, 44.75037 ], [ 6.0328, 44.74765 ], [ 6.02892, 44.67568 ], [ 5.92805, 44.67839 ], [ 5.9318, 44.75037 ] ], [ [ 5.82717, 44.68102 ], [ 5.92805, 44.67839 ], [ 5.92431, 44.60642 ], [ 5.82356, 44.60904 ], [ 5.82717, 44.68102 ] ] ], [ [ [ 7.60017, 44.1165 ], [ 7.58856, 43.97274 ], [ 7.68808, 43.96852 ], [ 7.69994, 44.11226 ], [ 7.60017, 44.1165 ] ] ], [ [ [ 3.39996, 44.14028 ], [ 3.39945, 44.06827 ], [ 3.49931, 44.06786 ], [ 3.49994, 44.13987 ], [ 3.39996, 44.14028 ] ] ], [ [ [ 5.69869, 44.10778 ], [ 5.69528, 44.03582 ], [ 5.79502, 44.03332 ], [ 5.79856, 44.10527 ], [ 5.69869, 44.10778 ] ] ], [ [ [ 7.29534, 44.05677 ], [ 7.28992, 43.98488 ], [ 7.48903, 43.97688 ], [ 7.4947, 44.04876 ], [ 7.29534, 44.05677 ] ] ], [ [ [ 6.28529, 43.87557 ], [ 6.28116, 43.80364 ], [ 6.38047, 43.80061 ], [ 6.38473, 43.87253 ], [ 6.28529, 43.87557 ] ] ], [ [ [ 2.70229, 43.70862 ], [ 2.70267, 43.63664 ], [ 2.80178, 43.63686 ], [ 2.80153, 43.70885 ], [ 2.70229, 43.70862 ] ] ], [ [ [ 0.07211, 42.73352 ], [ 0.07572, 42.66164 ], [ 0.17311, 42.66426 ], [ 0.16962, 42.73614 ], [ 0.07211, 42.73352 ] ] ], [ [ [ 1.4418, 42.61832 ], [ 1.44563, 42.47452 ], [ 1.54276, 42.47589 ], [ 1.54096, 42.54779 ], [ 1.63821, 42.54907 ], [ 1.63653, 42.62098 ], [ 1.4418, 42.61832 ] ] ], [ [ [ 1.73702, 42.47836 ], [ 1.73857, 42.40646 ], [ 1.83559, 42.40757 ], [ 1.83416, 42.47947 ], [ 1.73702, 42.47836 ] ] ], [ [ [ 8.83338, 42.47022 ], [ 8.81195, 42.25509 ], [ 8.90845, 42.24976 ], [ 8.90123, 42.17807 ], [ 8.9976, 42.17266 ], [ 9.02708, 42.45943 ], [ 8.83338, 42.47022 ] ] ], [ [ [ -1.31862, 43.04666 ], [ -1.31327, 42.97482 ], [ -1.11757, 42.9825 ], [ -1.11247, 42.91065 ], [ -0.8192, 42.92149 ], [ -0.81447, 42.84963 ], [ -0.61914, 42.8564 ], [ -0.61466, 42.78454 ], [ -0.5171, 42.78779 ], [ -0.52146, 42.85965 ], [ -0.42376, 42.86281 ], [ -0.42801, 42.93469 ], [ -0.33018, 42.93776 ], [ -0.32606, 42.86589 ], [ -0.03288, 42.87457 ], [ -0.02539, 42.73081 ], [ 0.07211, 42.73352 ], [ 0.06122, 42.94919 ], [ 0.25697, 42.95436 ], [ 0.26376, 42.81057 ], [ 0.16612, 42.80803 ], [ 0.16962, 42.73614 ], [ 0.6573, 42.74792 ], [ 0.66019, 42.67603 ], [ 0.95253, 42.68202 ], [ 0.95, 42.75392 ], [ 0.75486, 42.75001 ], [ 0.75208, 42.82192 ], [ 1.04516, 42.82766 ], [ 1.04999, 42.68384 ], [ 1.14745, 42.68557 ], [ 1.14516, 42.75748 ], [ 1.43795, 42.76215 ], [ 1.43988, 42.69023 ], [ 1.73234, 42.6941 ], [ 1.73391, 42.62218 ], [ 1.83128, 42.62329 ], [ 1.82984, 42.69521 ], [ 2.02484, 42.69716 ], [ 2.02725, 42.55333 ], [ 1.83272, 42.55138 ], [ 1.83416, 42.47947 ], [ 1.9313, 42.48049 ], [ 1.93392, 42.33669 ], [ 2.12774, 42.33845 ], [ 2.12667, 42.41035 ], [ 2.02964, 42.40951 ], [ 2.02844, 42.48142 ], [ 2.31989, 42.48367 ], [ 2.32073, 42.41177 ], [ 2.41776, 42.41234 ], [ 2.41705, 42.48425 ], [ 2.5142, 42.48474 ], [ 2.51361, 42.55665 ], [ 2.22178, 42.55492 ], [ 2.22082, 42.62684 ], [ 2.31822, 42.6275 ], [ 2.31653, 42.77135 ], [ 2.12127, 42.76993 ], [ 2.12018, 42.84186 ], [ 1.92469, 42.84008 ], [ 1.92335, 42.91201 ], [ 1.62977, 42.90867 ], [ 1.63147, 42.83674 ], [ 1.53374, 42.83545 ], [ 1.5301, 42.97931 ], [ 1.33417, 42.97645 ], [ 1.33829, 42.8326 ], [ 1.14287, 42.8294 ], [ 1.14056, 42.90131 ], [ 0.8471, 42.89583 ], [ 0.84443, 42.96775 ], [ 0.74651, 42.96574 ], [ 0.7493, 42.89383 ], [ 0.6515, 42.89173 ], [ 0.64858, 42.96364 ], [ 0.35487, 42.95682 ], [ 0.35158, 43.02872 ], [ -0.04042, 43.01836 ], [ -0.03665, 42.94646 ], [ -0.1345, 42.94365 ], [ -0.14229, 43.08744 ], [ -0.63263, 43.07201 ], [ -0.62812, 43.00013 ], [ -0.72604, 42.99678 ], [ -0.73066, 43.06865 ], [ -0.82869, 43.06521 ], [ -0.82394, 42.99335 ], [ -1.01971, 42.9862 ], [ -1.0247, 43.05806 ], [ -1.31862, 43.04666 ] ], [ [ 1.63147, 42.83674 ], [ 1.7292, 42.83794 ], [ 1.73078, 42.76602 ], [ 1.63316, 42.76482 ], [ 1.63147, 42.83674 ] ], [ [ 2.12235, 42.69801 ], [ 2.21986, 42.69876 ], [ 2.22082, 42.62684 ], [ 2.12343, 42.62608 ], [ 2.12235, 42.69801 ] ] ] ] } },
{ "type": "Feature", "properties": { "nb_generations": 2, "surface_km2": 396672.0, "libelle": "2 generation(s) achevee(s)", "couleur": "#35B779FF", "date_situation": "2026-09-17", "modele": "STENO-DJ v1", "exposition": "sunny", "k_ecorce": 0.2 }, "geometry": { "type": "MultiPolygon", "coordinates": [ [ [ [ 0.99772, 49.8843 ], [ 1.00054, 49.81245 ], [ 1.22262, 49.81589 ], [ 1.22012, 49.88774 ], [ 0.99772, 49.8843 ] ] ], [ [ [ 0.55647, 49.80436 ], [ 0.5599, 49.73252 ], [ 0.67075, 49.73469 ], [ 0.66747, 49.80653 ], [ 0.55647, 49.80436 ] ] ], [ [ [ 1.66874, 49.74968 ], [ 1.67061, 49.67781 ], [ 1.78137, 49.67897 ], [ 1.77966, 49.75084 ], [ 1.66874, 49.74968 ] ] ], [ [ [ -1.85513, 49.444 ], [ -1.84836, 49.37223 ], [ -1.73844, 49.37659 ], [ -1.74506, 49.44837 ], [ -1.85513, 49.444 ] ] ], [ [ [ -1.91715, 48.93706 ], [ -1.91037, 48.86526 ], [ -1.80152, 48.86968 ], [ -1.80816, 48.94149 ], [ -1.91715, 48.93706 ] ] ], [ [ [ -3.65828, 48.85276 ], [ -3.63996, 48.70937 ], [ -3.53161, 48.71536 ], [ -3.54061, 48.78707 ], [ -3.32354, 48.79878 ], [ -3.33226, 48.87049 ], [ -3.65828, 48.85276 ] ] ], [ [ [ -2.95054, 47.44636 ], [ -2.9346, 47.30273 ], [ -2.82901, 47.30809 ], [ -2.84467, 47.45173 ], [ -2.95054, 47.44636 ] ] ], [ [ [ -3.26802, 47.42966 ], [ -3.25123, 47.28608 ], [ -3.14571, 47.29172 ], [ -3.13749, 47.21992 ], [ -3.03208, 47.22547 ], [ -3.04826, 47.36908 ], [ -3.15395, 47.36352 ], [ -3.16221, 47.43532 ], [ -3.26802, 47.42966 ] ] ], [ [ [ -2.3491, 46.7537 ], [ -2.34201, 46.68183 ], [ -2.23758, 46.68665 ], [ -2.24452, 46.75853 ], [ -2.3491, 46.7537 ] ] ], [ [ [ 0.165, 46.84326 ], [ 0.16877, 46.77127 ], [ 0.27354, 46.77381 ], [ 0.26992, 46.8458 ], [ 0.165, 46.84326 ] ] ], [ [ [ 5.31033, 46.85499 ], [ 5.30726, 46.78299 ], [ 5.41207, 46.78084 ], [ 5.41528, 46.85283 ], [ 5.31033, 46.85499 ] ] ], [ [ [ 5.82748, 46.69929 ], [ 5.82374, 46.6273 ], [ 5.92822, 46.62468 ], [ 5.93211, 46.69666 ], [ 5.82748, 46.69929 ] ] ], [ [ [ 6.84776, 46.30898 ], [ 6.8427, 46.23703 ], [ 6.94639, 46.23348 ], [ 6.95158, 46.30543 ], [ 6.84776, 46.30898 ] ] ], [ [ [ 7.15372, 46.22609 ], [ 7.14827, 46.15415 ], [ 7.25178, 46.15032 ], [ 7.25736, 46.22226 ], [ 7.15372, 46.22609 ] ] ], [ [ [ -1.04474, 46.15789 ], [ -1.03944, 46.08594 ], [ -0.93604, 46.08958 ], [ -0.94121, 46.16153 ], [ -1.04474, 46.15789 ] ] ], [ [ [ -0.61627, 45.956 ], [ -0.61155, 45.88403 ], [ -0.5085, 45.88728 ], [ -0.51309, 45.95925 ], [ -0.61627, 45.956 ] ] ], [ [ [ 5.41207, 46.78084 ], [ 5.40569, 46.63684 ], [ 5.30115, 46.63899 ], [ 5.29811, 46.56698 ], [ 5.1937, 46.56903 ], [ 5.18792, 46.42501 ], [ 5.29205, 46.42297 ], [ 5.28903, 46.35096 ], [ 5.18503, 46.353 ], [ 5.17929, 46.20898 ], [ 4.86809, 46.21452 ], [ 4.86564, 46.1425 ], [ 4.76203, 46.14416 ], [ 4.75512, 45.92809 ], [ 4.85832, 45.92644 ], [ 4.8559, 45.85442 ], [ 4.95896, 45.85268 ], [ 4.96152, 45.9247 ], [ 5.1679, 45.92093 ], [ 5.17074, 45.99295 ], [ 5.27405, 45.99092 ], [ 5.27108, 45.91891 ], [ 5.37425, 45.91679 ], [ 5.36806, 45.77278 ], [ 5.47095, 45.77057 ], [ 5.51688, 46.77859 ], [ 5.41207, 46.78084 ] ] ], [ [ [ -0.5085, 45.88728 ], [ -0.49936, 45.74334 ], [ -0.39657, 45.74649 ], [ -0.40544, 45.89043 ], [ -0.5085, 45.88728 ] ] ], [ [ [ 6.29376, 45.74954 ], [ 6.2852, 45.60559 ], [ 6.38774, 45.60254 ], [ 6.39657, 45.74649 ], [ 6.29376, 45.74954 ] ] ], [ [ [ -1.09985, 45.50669 ], [ -1.08396, 45.29087 ], [ -1.18587, 45.2871 ], [ -1.16971, 45.0713 ], [ -0.96666, 45.07872 ], [ -0.99753, 45.51038 ], [ -1.09985, 45.50669 ] ] ], [ [ [ 5.05397, 45.63481 ], [ 5.04865, 45.49078 ], [ 4.94626, 45.4926 ], [ 4.94374, 45.42059 ], [ 5.14824, 45.41685 ], [ 5.14546, 45.34484 ], [ 4.94122, 45.34857 ], [ 4.93871, 45.27656 ], [ 5.04071, 45.27474 ], [ 5.03807, 45.20273 ], [ 5.24178, 45.19883 ], [ 5.23889, 45.12683 ], [ 5.3406, 45.12474 ], [ 5.34362, 45.19674 ], [ 5.44545, 45.19455 ], [ 5.46452, 45.62656 ], [ 5.05397, 45.63481 ] ] ], [ [ [ 1.06628, 45.13254 ], [ 1.06877, 45.06053 ], [ 1.17038, 45.06224 ], [ 1.16802, 45.13425 ], [ 1.06628, 45.13254 ] ] ], [ [ [ 5.3406, 45.12474 ], [ 5.33759, 45.05274 ], [ 5.43916, 45.05056 ], [ 5.4423, 45.12256 ], [ 5.3406, 45.12474 ] ] ], [ [ [ 5.13442, 45.05682 ], [ 5.13168, 44.98481 ], [ 5.33458, 44.98074 ], [ 5.33759, 45.05274 ], [ 5.13442, 45.05682 ] ] ], [ [ [ -1.27122, 45.06745 ], [ -1.25479, 44.85168 ], [ -1.15368, 44.85551 ], [ -1.16971, 45.0713 ], [ -1.27122, 45.06745 ] ] ], [ [ [ 3.60919, 45.00356 ], [ 3.6084, 44.93154 ], [ 3.7098, 44.93094 ], [ 3.71071, 45.00296 ], [ 3.60919, 45.00356 ] ] ], [ [ [ 5.9318, 44.75037 ], [ 5.92805, 44.67839 ], [ 6.02892, 44.67568 ], [ 6.0328, 44.74765 ], [ 5.9318, 44.75037 ] ] ], [ [ [ 4.1125, 44.78357 ], [ 4.10966, 44.63953 ], [ 4.21052, 44.63848 ], [ 4.21362, 44.78251 ], [ 4.1125, 44.78357 ] ] ], [ [ [ 4.51502, 44.70676 ], [ 4.51308, 44.63475 ], [ 4.61393, 44.63332 ], [ 4.61599, 44.70533 ], [ 4.51502, 44.70676 ] ] ], [ [ [ 6.42792, 44.59194 ], [ 6.42355, 44.51999 ], [ 6.52411, 44.51682 ], [ 6.52861, 44.58877 ], [ 6.42792, 44.59194 ] ] ], [ [ [ -0.40619, 44.23221 ], [ -0.40187, 44.16027 ], [ -0.20199, 44.16629 ], [ -0.20605, 44.23823 ], [ -0.40619, 44.23221 ] ] ], [ [ [ 1.70024, 44.1333 ], [ 1.70189, 44.06131 ], [ 1.80173, 44.06245 ], [ 1.80021, 44.13444 ], [ 1.70024, 44.1333 ] ] ], [ [ [ 3.69991, 44.13877 ], [ 3.69903, 44.06677 ], [ 3.79888, 44.06609 ], [ 3.79989, 44.13809 ], [ 3.69991, 44.13877 ] ] ], [ [ [ 5.03022, 44.98671 ], [ 5.02501, 44.8427 ], [ 5.12621, 44.84081 ], [ 5.12078, 44.69681 ], [ 5.01983, 44.6987 ], [ 5.01211, 44.48271 ], [ 5.21322, 44.47886 ], [ 5.21041, 44.40687 ], [ 5.10998, 44.40884 ], [ 5.1073, 44.33685 ], [ 5.2076, 44.33488 ], [ 5.2048, 44.2629 ], [ 5.10463, 44.26487 ], [ 5.10196, 44.19288 ], [ 5.202, 44.19092 ], [ 5.19922, 44.11894 ], [ 5.29913, 44.11689 ], [ 5.29332, 43.97295 ], [ 5.49261, 43.96859 ], [ 5.48947, 43.89663 ], [ 5.68848, 43.89191 ], [ 5.69187, 43.96386 ], [ 5.8911, 43.95877 ], [ 5.90209, 44.17463 ], [ 6.00206, 44.17194 ], [ 6.01352, 44.38782 ], [ 6.31453, 44.37916 ], [ 6.32298, 44.52307 ], [ 6.1218, 44.52894 ], [ 6.12579, 44.60091 ], [ 6.02505, 44.60371 ], [ 6.0212, 44.53174 ], [ 5.92059, 44.53445 ], [ 5.91316, 44.39052 ], [ 5.81279, 44.39313 ], [ 5.81996, 44.53707 ], [ 5.51804, 44.54437 ], [ 5.52771, 44.76033 ], [ 5.42667, 44.76258 ], [ 5.42978, 44.83458 ], [ 5.3286, 44.83675 ], [ 5.33159, 44.90874 ], [ 5.12894, 44.91281 ], [ 5.13168, 44.98481 ], [ 5.03022, 44.98671 ] ], [ [ 5.51483, 44.47239 ], [ 5.61536, 44.47005 ], [ 5.61203, 44.39807 ], [ 5.51164, 44.40041 ], [ 5.51483, 44.47239 ] ], [ [ 5.69869, 44.10778 ], [ 5.79856, 44.10527 ], [ 5.79502, 44.03332 ], [ 5.69528, 44.03582 ], [ 5.69869, 44.10778 ] ] ], [ [ [ 5.38995, 43.89885 ], [ 5.38695, 43.82689 ], [ 5.48634, 43.82467 ], [ 5.48947, 43.89663 ], [ 5.38995, 43.89885 ] ] ], [ [ [ 6.00206, 44.17194 ], [ 5.9907, 43.95609 ], [ 6.18987, 43.95046 ], [ 6.16987, 43.59081 ], [ 6.5656, 43.57853 ], [ 6.57007, 43.65044 ], [ 6.86712, 43.64027 ], [ 6.87198, 43.71217 ], [ 7.0702, 43.70493 ], [ 7.08559, 43.92062 ], [ 7.18506, 43.91685 ], [ 7.17979, 43.84496 ], [ 7.47773, 43.83312 ], [ 7.48337, 43.905 ], [ 7.68218, 43.89665 ], [ 7.68808, 43.96852 ], [ 7.58856, 43.97274 ], [ 7.60017, 44.1165 ], [ 7.50039, 44.12065 ], [ 7.48903, 43.97688 ], [ 7.28992, 43.98488 ], [ 7.29534, 44.05677 ], [ 6.9962, 44.06811 ], [ 6.99115, 43.9962 ], [ 6.89153, 43.99979 ], [ 6.89645, 44.07171 ], [ 6.7967, 44.07521 ], [ 6.79191, 44.0033 ], [ 6.29359, 44.01944 ], [ 6.30194, 44.16332 ], [ 6.00206, 44.17194 ] ], [ [ 6.28529, 43.87557 ], [ 6.38473, 43.87253 ], [ 6.38047, 43.80061 ], [ 6.28116, 43.80364 ], [ 6.28529, 43.87557 ] ] ], [ [ [ 2.54338, 51.1923 ], [ 2.54404, 51.12056 ], [ 2.0881, 51.11808 ], [ 2.09204, 50.90283 ], [ 1.97855, 50.90196 ], [ 1.98002, 50.83019 ], [ 2.09334, 50.83107 ], [ 2.09464, 50.7593 ], [ 2.2078, 50.76007 ], [ 2.21006, 50.6165 ], [ 2.43575, 50.61773 ], [ 2.43656, 50.54593 ], [ 2.54924, 50.54639 ], [ 2.54988, 50.47459 ], [ 2.66241, 50.47495 ], [ 2.6648, 50.11581 ], [ 2.10617, 50.11301 ], [ 2.10363, 50.25668 ], [ 1.9916, 50.25581 ], [ 1.99016, 50.32764 ], [ 1.87797, 50.32667 ], [ 1.87638, 50.39848 ], [ 1.53936, 50.39496 ], [ 1.54143, 50.32315 ], [ 1.42926, 50.32177 ], [ 1.43372, 50.17813 ], [ 1.65742, 50.18078 ], [ 1.65932, 50.10894 ], [ 1.54762, 50.10767 ], [ 1.55172, 49.96399 ], [ 1.66311, 49.96526 ], [ 1.66499, 49.89341 ], [ 1.9987, 49.8966 ], [ 2.00151, 49.75286 ], [ 1.89058, 49.7519 ], [ 1.89214, 49.68003 ], [ 1.78137, 49.67897 ], [ 1.78817, 49.39142 ], [ 1.67803, 49.39027 ], [ 1.67618, 49.46216 ], [ 1.34531, 49.45809 ], [ 1.343, 49.52998 ], [ 0.90131, 49.52314 ], [ 0.89838, 49.59501 ], [ 0.45621, 49.58655 ], [ 0.45264, 49.6584 ], [ 0.56332, 49.66067 ], [ 0.5599, 49.73252 ], [ 0.33824, 49.72787 ], [ 0.34197, 49.65603 ], [ 0.23131, 49.65356 ], [ 0.22742, 49.7254 ], [ 0.11661, 49.72283 ], [ 0.12065, 49.65099 ], [ 0.01001, 49.64832 ], [ 0.02669, 49.36093 ], [ -0.41329, 49.3493 ], [ -0.41806, 49.42114 ], [ -1.07853, 49.40067 ], [ -1.07285, 49.32886 ], [ -1.29258, 49.32124 ], [ -1.30457, 49.46484 ], [ -1.41472, 49.46087 ], [ -1.42089, 49.53266 ], [ -1.53118, 49.52859 ], [ -1.51854, 49.38502 ], [ -1.73844, 49.37659 ], [ -1.72527, 49.23302 ], [ -1.61563, 49.23727 ], [ -1.56486, 48.66273 ], [ -1.78172, 48.65422 ], [ -1.7883, 48.72604 ], [ -2.00538, 48.71713 ], [ -1.9985, 48.64531 ], [ -2.21521, 48.63601 ], [ -2.22239, 48.70781 ], [ -2.54774, 48.6931 ], [ -2.54012, 48.62132 ], [ -2.75663, 48.61104 ], [ -2.76454, 48.6828 ], [ -2.87291, 48.6775 ], [ -2.89723, 48.89276 ], [ -3.11479, 48.88182 ], [ -3.08958, 48.66661 ], [ -3.63084, 48.63766 ], [ -3.62175, 48.56596 ], [ -3.18938, 48.58928 ], [ -3.18089, 48.51754 ], [ -3.50477, 48.50021 ], [ -3.49587, 48.42849 ], [ -3.60364, 48.42253 ], [ -3.59462, 48.3508 ], [ -3.70221, 48.34475 ], [ -3.69307, 48.27303 ], [ -3.90789, 48.26065 ], [ -3.91732, 48.33235 ], [ -4.2398, 48.31302 ], [ -4.24969, 48.38469 ], [ -4.35728, 48.37805 ], [ -4.36734, 48.4497 ], [ -4.58272, 48.4361 ], [ -4.57236, 48.36446 ], [ -4.78733, 48.35048 ], [ -4.77672, 48.27885 ], [ -4.66939, 48.28588 ], [ -4.65894, 48.21424 ], [ -4.55173, 48.22116 ], [ -4.54146, 48.1495 ], [ -4.43437, 48.15632 ], [ -4.42426, 48.08465 ], [ -4.74504, 48.06394 ], [ -4.73453, 47.99229 ], [ -4.62778, 47.99928 ], [ -4.61745, 47.92763 ], [ -4.40415, 47.9413 ], [ -4.37417, 47.72625 ], [ -4.0553, 47.74596 ], [ -4.06483, 47.81767 ], [ -3.85184, 47.83034 ], [ -3.84258, 47.75861 ], [ -3.62977, 47.77088 ], [ -3.62083, 47.69913 ], [ -3.51453, 47.70511 ], [ -3.49699, 47.56159 ], [ -3.28489, 47.57323 ], [ -3.29336, 47.64501 ], [ -3.18714, 47.6507 ], [ -3.16221, 47.43532 ], [ -3.05639, 47.44089 ], [ -3.06453, 47.51269 ], [ -2.85253, 47.52355 ], [ -2.84467, 47.45173 ], [ -2.52694, 47.46727 ], [ -2.50475, 47.25175 ], [ -2.29367, 47.26159 ], [ -2.27954, 47.11787 ], [ -2.17425, 47.12263 ], [ -2.16735, 47.05076 ], [ -2.2725, 47.046 ], [ -2.25847, 46.90227 ], [ -2.15361, 46.90701 ], [ -2.13993, 46.76326 ], [ -2.03532, 46.7679 ], [ -2.02865, 46.69601 ], [ -1.92416, 46.70055 ], [ -1.91115, 46.55676 ], [ -1.80691, 46.56119 ], [ -1.79424, 46.41738 ], [ -1.58627, 46.42594 ], [ -1.58024, 46.35402 ], [ -1.47636, 46.35815 ], [ -1.47048, 46.28623 ], [ -1.26296, 46.29419 ], [ -1.25736, 46.22226 ], [ -1.15372, 46.22609 ], [ -1.16466, 46.36997 ], [ -1.37248, 46.36218 ], [ -1.38403, 46.50603 ], [ -1.17566, 46.51384 ], [ -1.18118, 46.58577 ], [ -1.07684, 46.58954 ], [ -1.07146, 46.5176 ], [ -0.86301, 46.52484 ], [ -0.85791, 46.45289 ], [ -0.64968, 46.45973 ], [ -0.64487, 46.38777 ], [ -0.54087, 46.39105 ], [ -0.55023, 46.53498 ], [ -0.44595, 46.53817 ], [ -0.4414, 46.4662 ], [ -0.23307, 46.47229 ], [ -0.22032, 46.25635 ], [ -0.11654, 46.25924 ], [ -0.11245, 46.18726 ], [ -0.00881, 46.19005 ], [ -0.00486, 46.11807 ], [ -0.41884, 46.10635 ], [ -0.42333, 46.17832 ], [ -0.73409, 46.16853 ], [ -0.7292, 46.09657 ], [ -0.5223, 46.10318 ], [ -0.51309, 45.95925 ], [ -0.40989, 45.9624 ], [ -0.40544, 45.89043 ], [ -0.19928, 45.89646 ], [ -0.19511, 45.82448 ], [ -0.09215, 45.82734 ], [ -0.1043, 46.04329 ], [ 0.10246, 46.04877 ], [ 0.09866, 46.12076 ], [ 0.20219, 46.12336 ], [ 0.19852, 46.19535 ], [ 0.09485, 46.19275 ], [ 0.08336, 46.40872 ], [ 0.18743, 46.41133 ], [ 0.19114, 46.33934 ], [ 0.29509, 46.34185 ], [ 0.29865, 46.26986 ], [ 0.40247, 46.27227 ], [ 0.40928, 46.12827 ], [ 0.30573, 46.12586 ], [ 0.31278, 45.98187 ], [ 0.41606, 45.98427 ], [ 0.41268, 46.05627 ], [ 0.5161, 46.05859 ], [ 0.51284, 46.13059 ], [ 0.71998, 46.13494 ], [ 0.72595, 45.99092 ], [ 0.62265, 45.9888 ], [ 0.62575, 45.91679 ], [ 0.72892, 45.91891 ], [ 0.73189, 45.8469 ], [ 0.42281, 45.84027 ], [ 0.42952, 45.69627 ], [ 0.53227, 45.69857 ], [ 0.53548, 45.62656 ], [ 0.43286, 45.62427 ], [ 0.44283, 45.40827 ], [ 0.64728, 45.41275 ], [ 0.65032, 45.34074 ], [ 0.54823, 45.33855 ], [ 0.55139, 45.26655 ], [ 0.85731, 45.27284 ], [ 0.85176, 45.41685 ], [ 0.95401, 45.41877 ], [ 0.95665, 45.34676 ], [ 1.05878, 45.34857 ], [ 1.06129, 45.27656 ], [ 1.16329, 45.27828 ], [ 1.16802, 45.13425 ], [ 1.26976, 45.13588 ], [ 1.26753, 45.20789 ], [ 1.36941, 45.20943 ], [ 1.3673, 45.28145 ], [ 1.46932, 45.28289 ], [ 1.4713, 45.21087 ], [ 1.57319, 45.21222 ], [ 1.57503, 45.14019 ], [ 1.37151, 45.13741 ], [ 1.3757, 44.99338 ], [ 1.47719, 44.99481 ], [ 1.47915, 44.9228 ], [ 1.07373, 44.91651 ], [ 1.06877, 45.06053 ], [ 0.96717, 45.05872 ], [ 0.96978, 44.98671 ], [ 0.86832, 44.98481 ], [ 0.87379, 44.84081 ], [ 1.0762, 44.8445 ], [ 1.07866, 44.7725 ], [ 1.17975, 44.7742 ], [ 1.17742, 44.84621 ], [ 1.37986, 44.84935 ], [ 1.38194, 44.77734 ], [ 1.48304, 44.77877 ], [ 1.48692, 44.63475 ], [ 1.38607, 44.63332 ], [ 1.39018, 44.48932 ], [ 1.79257, 44.49445 ], [ 1.7941, 44.42245 ], [ 1.89458, 44.4235 ], [ 1.89598, 44.35149 ], [ 1.79563, 44.35044 ], [ 1.79716, 44.27844 ], [ 1.89739, 44.27949 ], [ 1.90018, 44.13549 ], [ 2.10013, 44.13731 ], [ 2.10126, 44.06531 ], [ 2.20112, 44.06609 ], [ 2.20213, 43.99409 ], [ 2.40159, 43.99536 ], [ 2.40234, 43.92337 ], [ 2.30274, 43.92278 ], [ 2.30711, 43.56285 ], [ 2.20813, 43.56218 ], [ 2.20912, 43.4902 ], [ 2.01142, 43.48858 ], [ 2.01265, 43.41661 ], [ 2.11138, 43.41747 ], [ 2.11249, 43.3455 ], [ 2.50692, 43.34802 ], [ 2.50631, 43.41999 ], [ 2.80252, 43.42093 ], [ 2.80227, 43.49291 ], [ 2.90114, 43.49304 ], [ 2.90101, 43.56502 ], [ 3.0, 43.56506 ], [ 3.0, 43.70903 ], [ 3.09924, 43.70898 ], [ 3.09936, 43.78097 ], [ 3.4968, 43.77989 ], [ 3.49931, 44.06786 ], [ 3.59917, 44.06736 ], [ 3.59993, 44.13936 ], [ 3.69991, 44.13877 ], [ 3.70169, 44.28278 ], [ 3.80193, 44.2821 ], [ 3.80091, 44.21009 ], [ 3.90101, 44.20931 ], [ 3.90445, 44.42533 ], [ 4.00494, 44.42446 ], [ 4.0075, 44.56849 ], [ 4.10824, 44.56752 ], [ 4.10966, 44.63953 ], [ 3.90792, 44.64137 ], [ 3.90676, 44.56936 ], [ 3.80602, 44.57014 ], [ 3.80294, 44.3541 ], [ 3.70258, 44.35479 ], [ 3.70348, 44.4268 ], [ 3.60298, 44.4274 ], [ 3.60452, 44.57143 ], [ 3.50377, 44.57193 ], [ 3.50442, 44.64395 ], [ 3.30265, 44.64469 ], [ 3.30304, 44.71671 ], [ 3.20203, 44.71694 ], [ 3.20151, 44.5729 ], [ 2.89924, 44.57303 ], [ 2.89912, 44.64506 ], [ 2.79823, 44.64492 ], [ 2.79771, 44.78896 ], [ 2.89886, 44.7891 ], [ 2.89873, 44.86113 ], [ 3.10127, 44.86113 ], [ 3.1014, 44.93316 ], [ 3.30421, 44.93279 ], [ 3.3046, 45.00481 ], [ 3.20307, 45.00505 ], [ 3.20333, 45.07708 ], [ 3.0, 45.07726 ], [ 3.0, 44.9332 ], [ 2.59439, 44.93246 ], [ 2.59387, 45.00449 ], [ 2.49234, 45.00407 ], [ 2.48972, 45.2922 ], [ 2.59177, 45.29262 ], [ 2.59124, 45.36465 ], [ 2.69343, 45.36498 ], [ 2.69264, 45.50905 ], [ 2.59018, 45.50872 ], [ 2.58912, 45.6528 ], [ 2.69184, 45.65313 ], [ 2.69143, 45.72516 ], [ 2.79429, 45.7254 ], [ 2.79402, 45.79744 ], [ 2.89701, 45.79758 ], [ 2.89482, 46.95016 ], [ 3.0, 46.9502 ], [ 3.0, 45.43743 ], [ 3.10232, 45.43739 ], [ 3.10219, 45.36535 ], [ 3.0, 45.3654 ], [ 3.0, 45.29336 ], [ 3.10206, 45.29332 ], [ 3.10179, 45.14925 ], [ 3.20359, 45.14911 ], [ 3.20385, 45.22114 ], [ 3.30578, 45.22091 ], [ 3.30538, 45.14888 ], [ 3.40718, 45.14855 ], [ 3.40665, 45.07652 ], [ 3.50831, 45.0761 ], [ 3.50766, 45.00407 ], [ 3.60919, 45.00356 ], [ 3.61234, 45.29169 ], [ 3.51028, 45.2922 ], [ 3.51161, 45.43627 ], [ 3.40929, 45.43669 ], [ 3.40982, 45.50872 ], [ 3.51227, 45.5083 ], [ 3.51293, 45.58034 ], [ 3.61552, 45.57982 ], [ 3.61313, 45.36372 ], [ 3.71531, 45.36311 ], [ 3.71163, 45.07499 ], [ 3.81328, 45.07429 ], [ 3.81119, 44.93024 ], [ 3.91258, 44.92946 ], [ 3.91376, 45.00148 ], [ 4.01528, 45.0006 ], [ 4.01789, 45.14465 ], [ 4.32321, 45.14145 ], [ 4.32663, 45.2855 ], [ 4.42866, 45.28424 ], [ 4.42314, 45.06817 ], [ 4.32151, 45.06943 ], [ 4.31981, 44.99741 ], [ 4.2183, 44.99856 ], [ 4.21518, 44.85452 ], [ 4.31642, 44.85337 ], [ 4.31474, 44.78135 ], [ 4.41585, 44.78011 ], [ 4.41404, 44.7081 ], [ 4.51502, 44.70676 ], [ 4.51696, 44.77877 ], [ 4.61806, 44.77734 ], [ 4.62222, 44.92136 ], [ 4.72357, 44.91984 ], [ 4.72801, 45.06386 ], [ 4.62639, 45.06539 ], [ 4.64118, 45.56953 ], [ 4.53863, 45.57098 ], [ 4.54063, 45.643 ], [ 4.64331, 45.64155 ], [ 4.64975, 45.85762 ], [ 4.54667, 45.85908 ], [ 4.55683, 46.21921 ], [ 4.66059, 46.21774 ], [ 4.66497, 46.36178 ], [ 4.76899, 46.36022 ], [ 4.77837, 46.64829 ], [ 4.9875, 46.64485 ], [ 4.99543, 46.86088 ], [ 5.1004, 46.85901 ], [ 5.1032, 46.93102 ], [ 5.4185, 46.92483 ], [ 5.41528, 46.85283 ], [ 5.52022, 46.85058 ], [ 5.52358, 46.92258 ], [ 5.62865, 46.92023 ], [ 5.59072, 46.12827 ], [ 5.69427, 46.12586 ], [ 5.68722, 45.98187 ], [ 5.58394, 45.98427 ], [ 5.52771, 44.76033 ], [ 5.72977, 44.75553 ], [ 5.73327, 44.82751 ], [ 5.83442, 44.82497 ], [ 5.83805, 44.89695 ], [ 5.73678, 44.8995 ], [ 5.74382, 45.04347 ], [ 5.84536, 45.04092 ], [ 5.85638, 45.25688 ], [ 5.9583, 45.25423 ], [ 5.96212, 45.32621 ], [ 6.06416, 45.32346 ], [ 6.07211, 45.46743 ], [ 6.27669, 45.46163 ], [ 6.2852, 45.60559 ], [ 6.08009, 45.61139 ], [ 6.0761, 45.53941 ], [ 5.97366, 45.54217 ], [ 5.97752, 45.61415 ], [ 5.87494, 45.61682 ], [ 5.87868, 45.68881 ], [ 6.0841, 45.68338 ], [ 6.08812, 45.75536 ], [ 6.19095, 45.7525 ], [ 6.19928, 45.89646 ], [ 6.09619, 45.89933 ], [ 6.10024, 45.97131 ], [ 6.20347, 45.96844 ], [ 6.20766, 46.04042 ], [ 6.51769, 46.03122 ], [ 6.5223, 46.10318 ], [ 6.31536, 46.10942 ], [ 6.32408, 46.25337 ], [ 6.42783, 46.25029 ], [ 6.43234, 46.32226 ], [ 6.53621, 46.31908 ], [ 6.54087, 46.39105 ], [ 6.74885, 46.3844 ], [ 6.74392, 46.31244 ], [ 6.84776, 46.30898 ], [ 6.87324, 46.66873 ], [ 7.08224, 46.66148 ], [ 7.08766, 46.73341 ], [ 7.19227, 46.72964 ], [ 7.19784, 46.80157 ], [ 7.30258, 46.79769 ], [ 7.3083, 46.86962 ], [ 7.41317, 46.86564 ], [ 7.40146, 46.7218 ], [ 7.50604, 46.71774 ], [ 7.50007, 46.64583 ], [ 7.70889, 46.63743 ], [ 7.71513, 46.70934 ], [ 7.61059, 46.71359 ], [ 7.62285, 46.8574 ], [ 7.72766, 46.85314 ], [ 7.73395, 46.92504 ], [ 7.83889, 46.92068 ], [ 7.8518, 47.06446 ], [ 8.06219, 47.05542 ], [ 8.05544, 46.98355 ], [ 8.26548, 46.97414 ], [ 8.25847, 46.90227 ], [ 8.36332, 46.89743 ], [ 8.37046, 46.96929 ], [ 8.68531, 46.95418 ], [ 8.69289, 47.02602 ], [ 8.58782, 47.03116 ], [ 8.60276, 47.17484 ], [ 9.12929, 47.14812 ], [ 9.13749, 47.21992 ], [ 9.03208, 47.22547 ], [ 9.04016, 47.29728 ], [ 9.14571, 47.29172 ], [ 9.15395, 47.36352 ], [ 9.36525, 47.35212 ], [ 9.3738, 47.4239 ], [ 9.58529, 47.41209 ], [ 9.56766, 47.26856 ], [ 9.46221, 47.27449 ], [ 9.44495, 47.13093 ], [ 9.55013, 47.12501 ], [ 9.55888, 47.19679 ], [ 9.66417, 47.19076 ], [ 9.782, 48.12345 ], [ 9.67486, 48.12958 ], [ 9.68395, 48.20131 ], [ 9.57665, 48.20735 ], [ 9.55878, 48.06387 ], [ 9.45174, 48.06979 ], [ 9.44299, 47.99804 ], [ 9.33607, 48.00386 ], [ 9.32748, 47.9321 ], [ 9.22068, 47.93781 ], [ 9.23759, 48.08135 ], [ 9.02335, 48.09252 ], [ 9.01517, 48.02074 ], [ 8.90816, 48.02617 ], [ 8.90015, 47.95437 ], [ 8.79326, 47.9597 ], [ 8.78542, 47.8879 ], [ 8.67865, 47.89312 ], [ 8.67097, 47.82131 ], [ 8.45767, 47.83145 ], [ 8.46506, 47.90327 ], [ 8.25139, 47.91304 ], [ 8.24428, 47.8412 ], [ 8.35098, 47.83637 ], [ 8.34375, 47.76453 ], [ 8.23719, 47.76935 ], [ 8.23012, 47.69751 ], [ 8.12369, 47.70222 ], [ 8.11678, 47.63037 ], [ 8.01047, 47.63498 ], [ 8.01724, 47.70685 ], [ 7.91076, 47.71137 ], [ 7.9174, 47.78323 ], [ 7.81077, 47.78767 ], [ 7.81729, 47.85953 ], [ 7.92406, 47.85509 ], [ 7.93074, 47.92695 ], [ 8.14452, 47.91777 ], [ 8.15151, 47.98961 ], [ 8.04448, 47.99426 ], [ 8.05821, 48.13794 ], [ 8.16553, 48.13329 ], [ 8.17257, 48.20512 ], [ 8.49484, 48.19054 ], [ 8.48737, 48.11873 ], [ 8.5946, 48.11368 ], [ 8.61753, 48.32908 ], [ 8.50985, 48.33415 ], [ 8.54012, 48.62132 ], [ 8.43184, 48.62632 ], [ 8.43931, 48.6981 ], [ 8.54774, 48.6931 ], [ 8.55538, 48.76488 ], [ 8.4468, 48.76989 ], [ 8.46185, 48.91344 ], [ 8.24403, 48.92318 ], [ 8.25129, 48.99496 ], [ 8.1422, 48.99969 ], [ 8.14932, 49.07148 ], [ 7.93078, 49.08065 ], [ 7.94449, 49.22422 ], [ 7.83489, 49.22867 ], [ 7.85513, 49.444 ], [ 7.74506, 49.44837 ], [ 7.75169, 49.52014 ], [ 6.97959, 49.54795 ], [ 6.97403, 49.47614 ], [ 7.08423, 49.47248 ], [ 7.06719, 49.25704 ], [ 6.73793, 49.26769 ], [ 6.74314, 49.33953 ], [ 6.6332, 49.34289 ], [ 6.63827, 49.41472 ], [ 6.52817, 49.41798 ], [ 6.5331, 49.48981 ], [ 6.31255, 49.49604 ], [ 6.31719, 49.56788 ], [ 6.09627, 49.57371 ], [ 6.09195, 49.50187 ], [ 5.98163, 49.50464 ], [ 5.98999, 49.64832 ], [ 5.87935, 49.65099 ], [ 5.88339, 49.72283 ], [ 5.55094, 49.73025 ], [ 5.55812, 49.87392 ], [ 5.33581, 49.87837 ], [ 5.3391, 49.95021 ], [ 5.22778, 49.95228 ], [ 5.22151, 49.80861 ], [ 4.99946, 49.81245 ], [ 5.00228, 49.8843 ], [ 4.66867, 49.88931 ], [ 4.67103, 49.96115 ], [ 4.89375, 49.95791 ], [ 4.89643, 50.02975 ], [ 5.00793, 50.02797 ], [ 5.01362, 50.17162 ], [ 4.67813, 50.17666 ], [ 4.67576, 50.10483 ], [ 4.56407, 50.1063 ], [ 4.56628, 50.17813 ], [ 4.34258, 50.18078 ], [ 4.34448, 50.2526 ], [ 4.23246, 50.25378 ], [ 4.23421, 50.3256 ], [ 4.34639, 50.32442 ], [ 4.35023, 50.46804 ], [ 4.23773, 50.46922 ], [ 4.23949, 50.54101 ], [ 3.33807, 50.54675 ], [ 3.33904, 50.69034 ], [ 3.22603, 50.6906 ], [ 3.22635, 50.76238 ], [ 3.0, 50.76259 ], [ 3.0, 50.90613 ], [ 3.227, 50.90593 ], [ 3.22765, 51.04944 ], [ 3.0, 51.04965 ], [ 3.0, 51.12139 ], [ 2.65803, 51.12092 ], [ 2.65753, 51.19266 ], [ 2.54338, 51.1923 ] ], [ [ 1.65552, 50.2526 ], [ 1.76754, 50.25378 ], [ 1.76929, 50.18195 ], [ 1.65742, 50.18078 ], [ 1.65552, 50.2526 ] ], [ [ 4.88842, 49.81422 ], [ 4.99946, 49.81245 ], [ 4.99665, 49.74059 ], [ 4.88577, 49.74236 ], [ 4.88842, 49.81422 ] ], [ [ -1.51225, 49.31323 ], [ -1.40243, 49.31728 ], [ -1.3963, 49.24548 ], [ -1.50598, 49.24143 ], [ -1.51225, 49.31323 ] ], [ [ 7.06719, 49.25704 ], [ 7.17691, 49.25328 ], [ 7.17111, 49.18146 ], [ 7.06154, 49.18521 ], [ 7.06719, 49.25704 ] ], [ [ -1.49972, 49.16962 ], [ -1.3902, 49.17367 ], [ -1.38411, 49.10185 ], [ -1.49348, 49.09781 ], [ -1.49972, 49.16962 ] ], [ [ 2.34445, 48.96416 ], [ 2.45371, 48.96471 ], [ 2.45522, 48.82082 ], [ 2.34626, 48.82028 ], [ 2.34445, 48.96416 ] ], [ [ -2.85681, 48.53398 ], [ -2.74873, 48.53926 ], [ -2.74086, 48.46749 ], [ -2.84879, 48.46221 ], [ -2.85681, 48.53398 ] ], [ [ -3.38808, 48.43435 ], [ -3.17243, 48.44579 ], [ -3.164, 48.37404 ], [ -3.27169, 48.36838 ], [ -3.26313, 48.29663 ], [ -3.37065, 48.29087 ], [ -3.38808, 48.43435 ] ], [ [ -2.74086, 48.46749 ], [ -2.63292, 48.47267 ], [ -2.62521, 48.40088 ], [ -2.73301, 48.39571 ], [ -2.74086, 48.46749 ] ], [ [ 7.22203, 48.45918 ], [ 7.33007, 48.45529 ], [ 7.32415, 48.38342 ], [ 7.21626, 48.38731 ], [ 7.22203, 48.45918 ] ], [ [ -3.35331, 48.14738 ], [ -3.24608, 48.15311 ], [ -3.23759, 48.08135 ], [ -3.34468, 48.07562 ], [ -3.35331, 48.14738 ] ], [ [ 7.09714, 48.24734 ], [ 7.20475, 48.24356 ], [ 7.17627, 47.88412 ], [ 6.96247, 47.89154 ], [ 6.95711, 47.81963 ], [ 6.85033, 47.82319 ], [ 6.86078, 47.96701 ], [ 6.7537, 47.97048 ], [ 6.76392, 48.1143 ], [ 6.97865, 48.10724 ], [ 6.98407, 48.17914 ], [ 7.09155, 48.17546 ], [ 7.09714, 48.24734 ] ], [ [ 8.98268, 47.73357 ], [ 9.0891, 47.72808 ], [ 9.08089, 47.65628 ], [ 8.97461, 47.66177 ], [ 8.98268, 47.73357 ] ], [ [ -0.61229, 47.47035 ], [ -0.29394, 47.4798 ], [ -0.28952, 47.40785 ], [ -0.60744, 47.39841 ], [ -0.61229, 47.47035 ] ], [ [ 8.94256, 47.37455 ], [ 9.04826, 47.36908 ], [ 9.04016, 47.29728 ], [ 8.9346, 47.30273 ], [ 8.94256, 47.37455 ] ], [ [ 7.56045, 47.36491 ], [ 7.66626, 47.3607 ], [ 7.66001, 47.28881 ], [ 7.55434, 47.29301 ], [ 7.56045, 47.36491 ] ], [ [ 6.91997, 47.31618 ], [ 7.55434, 47.29301 ], [ 7.54824, 47.22111 ], [ 7.44269, 47.22521 ], [ 7.43676, 47.1533 ], [ 7.2259, 47.16119 ], [ 7.22025, 47.08927 ], [ 7.11494, 47.09307 ], [ 7.10946, 47.02115 ], [ 6.89907, 47.02845 ], [ 6.89387, 46.95651 ], [ 6.7888, 46.96001 ], [ 6.78376, 46.88806 ], [ 6.67881, 46.89147 ], [ 6.67392, 46.81951 ], [ 6.46426, 46.82602 ], [ 6.45508, 46.6821 ], [ 6.35051, 46.6852 ], [ 6.34165, 46.54126 ], [ 6.23734, 46.54426 ], [ 6.23307, 46.47229 ], [ 6.12889, 46.47519 ], [ 6.12476, 46.40321 ], [ 6.02071, 46.40601 ], [ 6.01673, 46.33402 ], [ 5.9128, 46.33673 ], [ 5.90515, 46.19275 ], [ 5.69781, 46.19786 ], [ 5.70491, 46.34185 ], [ 5.80886, 46.33934 ], [ 5.81257, 46.41133 ], [ 5.70848, 46.41385 ], [ 5.71564, 46.55783 ], [ 5.82, 46.55531 ], [ 5.82374, 46.6273 ], [ 5.71924, 46.62983 ], [ 5.72284, 46.70182 ], [ 5.82748, 46.69929 ], [ 5.83877, 46.91524 ], [ 6.04885, 46.90987 ], [ 6.05291, 46.98185 ], [ 6.36836, 46.97306 ], [ 6.37736, 47.11698 ], [ 6.48277, 47.11386 ], [ 6.48743, 47.18581 ], [ 6.804, 47.17584 ], [ 6.80909, 47.24777 ], [ 6.91473, 47.24425 ], [ 6.91997, 47.31618 ] ], [ [ 2.78822, 47.31013 ], [ 2.89411, 47.31027 ], [ 2.89425, 47.23825 ], [ 3.0, 47.2383 ], [ 3.0, 47.09426 ], [ 2.89453, 47.09421 ], [ 2.89467, 47.02218 ], [ 2.78935, 47.02204 ], [ 2.78963, 46.95001 ], [ 2.57926, 46.94944 ], [ 2.57982, 46.87741 ], [ 2.68487, 46.87774 ], [ 2.68529, 46.80571 ], [ 2.26568, 46.8038 ], [ 2.26666, 46.73177 ], [ 2.1619, 46.73105 ], [ 2.16079, 46.80308 ], [ 1.95101, 46.80136 ], [ 1.94961, 46.87338 ], [ 2.05464, 46.87429 ], [ 2.05338, 46.94632 ], [ 2.15855, 46.94713 ], [ 2.15743, 47.01916 ], [ 2.05212, 47.01834 ], [ 2.04958, 47.16238 ], [ 2.36637, 47.16455 ], [ 2.36552, 47.23657 ], [ 2.7885, 47.23811 ], [ 2.78822, 47.31013 ] ], [ [ 0.04043, 47.20051 ], [ 0.14604, 47.20316 ], [ 0.14985, 47.13118 ], [ 0.25533, 47.13373 ], [ 0.25899, 47.06175 ], [ 0.36433, 47.0642 ], [ 0.37135, 46.92023 ], [ 0.47642, 46.92258 ], [ 0.47306, 46.99457 ], [ 0.68351, 46.99899 ], [ 0.68967, 46.85499 ], [ 0.79463, 46.85705 ], [ 0.79756, 46.78505 ], [ 1.00722, 46.78887 ], [ 1.00457, 46.86088 ], [ 1.42453, 46.8674 ], [ 1.42871, 46.72336 ], [ 1.32399, 46.72188 ], [ 1.32621, 46.64986 ], [ 1.22163, 46.64829 ], [ 1.22633, 46.50425 ], [ 0.91347, 46.49897 ], [ 0.91622, 46.42696 ], [ 0.70795, 46.42297 ], [ 0.71097, 46.35096 ], [ 0.60699, 46.34883 ], [ 0.59431, 46.63684 ], [ 0.48979, 46.6346 ], [ 0.48646, 46.70659 ], [ 0.3818, 46.70425 ], [ 0.38527, 46.63226 ], [ 0.28076, 46.62983 ], [ 0.27716, 46.70182 ], [ 0.17252, 46.69929 ], [ 0.16877, 46.77127 ], [ 0.064, 46.76864 ], [ 0.0601, 46.84062 ], [ -0.04479, 46.8379 ], [ -0.04885, 46.90987 ], [ -0.25888, 46.90412 ], [ -0.26322, 46.97609 ], [ -0.36836, 46.97306 ], [ -0.37736, 47.11698 ], [ -0.16651, 47.12295 ], [ -0.16228, 47.05098 ], [ -0.05698, 47.05382 ], [ -0.06107, 47.12579 ], [ 0.04439, 47.12853 ], [ 0.04043, 47.20051 ] ], [ [ 1.83685, 47.23247 ], [ 2.04831, 47.2344 ], [ 2.04958, 47.16238 ], [ 1.83841, 47.16045 ], [ 1.83685, 47.23247 ] ], [ [ -2.16735, 47.05076 ], [ -2.06219, 47.05542 ], [ -2.05544, 46.98355 ], [ -2.16047, 46.97889 ], [ -2.16735, 47.05076 ] ], [ [ 4.14174, 46.22413 ], [ 4.24552, 46.22304 ], [ 4.24389, 46.15101 ], [ 4.14025, 46.1521 ], [ 4.14174, 46.22413 ] ], [ [ 4.13875, 46.08007 ], [ 4.24226, 46.07898 ], [ 4.24063, 46.00695 ], [ 4.13726, 46.00804 ], [ 4.13875, 46.08007 ] ], [ [ 3.31018, 46.01332 ], [ 3.41357, 46.01299 ], [ 3.41303, 45.94095 ], [ 3.30978, 45.94128 ], [ 3.31018, 46.01332 ] ], [ [ 3.61873, 45.86797 ], [ 3.72185, 45.86736 ], [ 3.72091, 45.79532 ], [ 3.82389, 45.79462 ], [ 3.82282, 45.72258 ], [ 3.92566, 45.72179 ], [ 3.92206, 45.50569 ], [ 4.0245, 45.5048 ], [ 4.02317, 45.43277 ], [ 3.81855, 45.43445 ], [ 3.81961, 45.50648 ], [ 3.71717, 45.50718 ], [ 3.71997, 45.72329 ], [ 3.61712, 45.7239 ], [ 3.61873, 45.86797 ] ], [ [ 2.58804, 45.79687 ], [ 2.69103, 45.7972 ], [ 2.69143, 45.72516 ], [ 2.58858, 45.72483 ], [ 2.58804, 45.79687 ] ], [ [ 4.43608, 45.57234 ], [ 4.53863, 45.57098 ], [ 4.53664, 45.49896 ], [ 4.43422, 45.50031 ], [ 4.43608, 45.57234 ] ], [ [ 5.76516, 45.47541 ], [ 5.86749, 45.47284 ], [ 5.85638, 45.25688 ], [ 5.65251, 45.2619 ], [ 5.65594, 45.3339 ], [ 5.75801, 45.33143 ], [ 5.76516, 45.47541 ] ], [ [ 3.71624, 45.43515 ], [ 3.81855, 45.43445 ], [ 3.81749, 45.36241 ], [ 3.71531, 45.36311 ], [ 3.71624, 45.43515 ] ], [ [ 4.43236, 45.42829 ], [ 4.53465, 45.42693 ], [ 4.53266, 45.35491 ], [ 4.43051, 45.35626 ], [ 4.43236, 45.42829 ] ], [ [ 1.26305, 45.35193 ], [ 1.36519, 45.35347 ], [ 1.3673, 45.28145 ], [ 1.26529, 45.27991 ], [ 1.26305, 45.35193 ] ], [ [ 5.64909, 45.18991 ], [ 5.7509, 45.18745 ], [ 5.74735, 45.11546 ], [ 5.64568, 45.11792 ], [ 5.64909, 45.18991 ] ], [ [ 1.57686, 45.06817 ], [ 1.67849, 45.06943 ], [ 1.68019, 44.99741 ], [ 1.57869, 44.99616 ], [ 1.57686, 45.06817 ] ], [ [ 1.68019, 44.99741 ], [ 1.7817, 44.99856 ], [ 1.78326, 44.92654 ], [ 1.68189, 44.92539 ], [ 1.68019, 44.99741 ] ], [ [ 1.4811, 44.85078 ], [ 1.58233, 44.85212 ], [ 1.58415, 44.78011 ], [ 1.48304, 44.77877 ], [ 1.4811, 44.85078 ] ], [ [ 1.88892, 44.71155 ], [ 2.19192, 44.71418 ], [ 2.19295, 44.64216 ], [ 2.09208, 44.64137 ], [ 2.09439, 44.49735 ], [ 1.89317, 44.49551 ], [ 1.89176, 44.56752 ], [ 1.9925, 44.56849 ], [ 1.99121, 44.6405 ], [ 1.89034, 44.63953 ], [ 1.88892, 44.71155 ] ], [ [ 3.39996, 44.14028 ], [ 3.49994, 44.13987 ], [ 3.49931, 44.06786 ], [ 3.39945, 44.06827 ], [ 3.39996, 44.14028 ] ], [ [ 2.70079, 43.99659 ], [ 2.80053, 43.99682 ], [ 2.80078, 43.92482 ], [ 2.70117, 43.9246 ], [ 2.70079, 43.99659 ] ], [ [ 2.70229, 43.70862 ], [ 2.80153, 43.70885 ], [ 2.80178, 43.63686 ], [ 2.70267, 43.63664 ], [ 2.70229, 43.70862 ] ], [ [ 2.30711, 43.56285 ], [ 2.40609, 43.56344 ], [ 2.40683, 43.49146 ], [ 2.30797, 43.49088 ], [ 2.30711, 43.56285 ] ] ], [ [ [ -0.7493, 43.35617 ], [ -0.74462, 43.28429 ], [ -0.64622, 43.28765 ], [ -0.65077, 43.35954 ], [ -0.7493, 43.35617 ] ] ], [ [ [ 1.63147, 42.83674 ], [ 1.63316, 42.76482 ], [ 1.73078, 42.76602 ], [ 1.7292, 42.83794 ], [ 1.63147, 42.83674 ] ] ], [ [ [ 8.84055, 42.54194 ], [ 8.83338, 42.47022 ], [ 9.02708, 42.45943 ], [ 9.03449, 42.53113 ], [ 8.84055, 42.54194 ] ] ], [ [ [ 1.83416, 42.47947 ], [ 1.83559, 42.40757 ], [ 1.93261, 42.40858 ], [ 1.9313, 42.48049 ], [ 1.83416, 42.47947 ] ] ], [ [ [ 8.72243, 42.33205 ], [ 8.71542, 42.26033 ], [ 8.81195, 42.25509 ], [ 8.81907, 42.3268 ], [ 8.72243, 42.33205 ] ] ], [ [ [ -0.26064, 43.44404 ], [ -0.25657, 43.37213 ], [ -0.35514, 43.36912 ], [ -0.35095, 43.29722 ], [ -0.64622, 43.28765 ], [ -0.64168, 43.21577 ], [ -0.73996, 43.21241 ], [ -0.74462, 43.28429 ], [ -1.23644, 43.26611 ], [ -1.24173, 43.33797 ], [ -1.53704, 43.32598 ], [ -1.53138, 43.25413 ], [ -1.62967, 43.24996 ], [ -1.63544, 43.3218 ], [ -1.83222, 43.31318 ], [ -1.8262, 43.24135 ], [ -1.72794, 43.2457 ], [ -1.72206, 43.17387 ], [ -1.52574, 43.18229 ], [ -1.52012, 43.11045 ], [ -1.61816, 43.10629 ], [ -1.61243, 43.03446 ], [ -1.51451, 43.03862 ], [ -1.50891, 42.96678 ], [ -1.31327, 42.97482 ], [ -1.31862, 43.04666 ], [ -1.0247, 43.05806 ], [ -1.01971, 42.9862 ], [ -0.82394, 42.99335 ], [ -0.82869, 43.06521 ], [ -0.73066, 43.06865 ], [ -0.72604, 42.99678 ], [ -0.62812, 43.00013 ], [ -0.63263, 43.07201 ], [ -0.14229, 43.08744 ], [ -0.1345, 42.94365 ], [ -0.03665, 42.94646 ], [ -0.04042, 43.01836 ], [ 0.35158, 43.02872 ], [ 0.35487, 42.95682 ], [ 0.64858, 42.96364 ], [ 0.6515, 42.89173 ], [ 0.7493, 42.89383 ], [ 0.74651, 42.96574 ], [ 0.84443, 42.96775 ], [ 0.8471, 42.89583 ], [ 1.14056, 42.90131 ], [ 1.14287, 42.8294 ], [ 1.33829, 42.8326 ], [ 1.33417, 42.97645 ], [ 1.5301, 42.97931 ], [ 1.53374, 42.83545 ], [ 1.63147, 42.83674 ], [ 1.62977, 42.90867 ], [ 1.92335, 42.91201 ], [ 1.92469, 42.84008 ], [ 2.12018, 42.84186 ], [ 2.12127, 42.76993 ], [ 2.31653, 42.77135 ], [ 2.31822, 42.6275 ], [ 2.22082, 42.62684 ], [ 2.22178, 42.55492 ], [ 2.51361, 42.55665 ], [ 2.5142, 42.48474 ], [ 2.41705, 42.48425 ], [ 2.41776, 42.41234 ], [ 2.32073, 42.41177 ], [ 2.32156, 42.33986 ], [ 2.70924, 42.34163 ], [ 2.70852, 42.48544 ], [ 2.61136, 42.48513 ], [ 2.6104, 42.62897 ], [ 2.41561, 42.62808 ], [ 2.41489, 42.7 ], [ 2.5124, 42.70049 ], [ 2.5118, 42.77242 ], [ 2.41416, 42.77193 ], [ 2.41271, 42.9158 ], [ 2.51059, 42.91629 ], [ 2.50998, 42.98824 ], [ 2.41198, 42.98775 ], [ 2.41052, 43.13165 ], [ 2.31228, 43.13106 ], [ 2.31484, 42.91522 ], [ 2.11909, 42.9138 ], [ 2.1169, 43.05768 ], [ 2.01879, 43.05683 ], [ 2.02, 42.98489 ], [ 1.92202, 42.98395 ], [ 1.92068, 43.05589 ], [ 1.62637, 43.05254 ], [ 1.62466, 43.12448 ], [ 1.23182, 43.11876 ], [ 1.22962, 43.19069 ], [ 1.03299, 43.18729 ], [ 1.02808, 43.33117 ], [ 0.73244, 43.32537 ], [ 0.73527, 43.25344 ], [ 0.63686, 43.25133 ], [ 0.63391, 43.32326 ], [ 0.33836, 43.31639 ], [ 0.33503, 43.38832 ], [ 0.23641, 43.38584 ], [ 0.2433, 43.242 ], [ 0.14493, 43.23944 ], [ 0.14137, 43.31136 ], [ 0.04288, 43.30871 ], [ 0.03919, 43.38063 ], [ -0.05941, 43.37789 ], [ -0.06323, 43.4498 ], [ -0.26064, 43.44404 ] ] ], [ [ [ 8.81195, 42.25509 ], [ 8.80484, 42.18339 ], [ 8.90123, 42.17807 ], [ 8.90845, 42.24976 ], [ 8.81195, 42.25509 ] ] ] ] } },
{ "type": "Feature", "properties": { "nb_generations": 3, "surface_km2": 130624.0, "libelle": "3 generation(s) achevee(s)", "couleur": "#31688EFF", "date_situation": "2026-09-17", "modele": "STENO-DJ v1", "exposition": "sunny", "k_ecorce": 0.2 }, "geometry": { "type": "MultiPolygon", "coordinates": [ [ [ [ 2.34445, 48.96416 ], [ 2.34626, 48.82028 ], [ 2.45522, 48.82082 ], [ 2.45371, 48.96471 ], [ 2.34445, 48.96416 ] ] ], [ [ [ -0.61229, 47.47035 ], [ -0.60744, 47.39841 ], [ -0.28952, 47.40785 ], [ -0.29394, 47.4798 ], [ -0.61229, 47.47035 ] ] ], [ [ [ 1.83685, 47.23247 ], [ 1.83841, 47.16045 ], [ 2.04958, 47.16238 ], [ 2.04831, 47.2344 ], [ 1.83685, 47.23247 ] ] ], [ [ [ 5.41528, 46.85283 ], [ 5.41207, 46.78084 ], [ 5.51688, 46.77859 ], [ 5.52022, 46.85058 ], [ 5.41528, 46.85283 ] ] ], [ [ [ 2.78822, 47.31013 ], [ 2.7885, 47.23811 ], [ 2.36552, 47.23657 ], [ 2.36637, 47.16455 ], [ 2.04958, 47.16238 ], [ 2.05212, 47.01834 ], [ 2.15743, 47.01916 ], [ 2.15855, 46.94713 ], [ 2.05338, 46.94632 ], [ 2.05464, 46.87429 ], [ 1.94961, 46.87338 ], [ 1.95101, 46.80136 ], [ 2.16079, 46.80308 ], [ 2.1619, 46.73105 ], [ 2.26666, 46.73177 ], [ 2.26568, 46.8038 ], [ 2.68529, 46.80571 ], [ 2.68487, 46.87774 ], [ 2.57982, 46.87741 ], [ 2.57926, 46.94944 ], [ 2.78963, 46.95001 ], [ 2.78935, 47.02204 ], [ 2.89467, 47.02218 ], [ 2.89453, 47.09421 ], [ 3.0, 47.09426 ], [ 3.0, 47.2383 ], [ 2.89425, 47.23825 ], [ 2.89411, 47.31027 ], [ 2.78822, 47.31013 ] ] ], [ [ [ 0.04043, 47.20051 ], [ 0.04439, 47.12853 ], [ -0.06107, 47.12579 ], [ -0.05698, 47.05382 ], [ -0.16228, 47.05098 ], [ -0.16651, 47.12295 ], [ -0.37736, 47.11698 ], [ -0.36836, 46.97306 ], [ -0.26322, 46.97609 ], [ -0.25888, 46.90412 ], [ -0.04885, 46.90987 ], [ -0.04479, 46.8379 ], [ 0.0601, 46.84062 ], [ 0.064, 46.76864 ], [ 0.16877, 46.77127 ], [ 0.17252, 46.69929 ], [ 0.27716, 46.70182 ], [ 0.28076, 46.62983 ], [ 0.38527, 46.63226 ], [ 0.3818, 46.70425 ], [ 0.48646, 46.70659 ], [ 0.48979, 46.6346 ], [ 0.59431, 46.63684 ], [ 0.60699, 46.34883 ], [ 0.71097, 46.35096 ], [ 0.70795, 46.42297 ], [ 0.91622, 46.42696 ], [ 0.91347, 46.49897 ], [ 1.22633, 46.50425 ], [ 1.22163, 46.64829 ], [ 1.32621, 46.64986 ], [ 1.32399, 46.72188 ], [ 1.42871, 46.72336 ], [ 1.42453, 46.8674 ], [ 1.00457, 46.86088 ], [ 1.00722, 46.78887 ], [ 0.79756, 46.78505 ], [ 0.79463, 46.85705 ], [ 0.68967, 46.85499 ], [ 0.68351, 46.99899 ], [ 0.47306, 46.99457 ], [ 0.47642, 46.92258 ], [ 0.37135, 46.92023 ], [ 0.36433, 47.0642 ], [ 0.25899, 47.06175 ], [ 0.25533, 47.13373 ], [ 0.14985, 47.13118 ], [ 0.14604, 47.20316 ], [ 0.04043, 47.20051 ] ], [ [ 0.165, 46.84326 ], [ 0.26992, 46.8458 ], [ 0.27354, 46.77381 ], [ 0.16877, 46.77127 ], [ 0.165, 46.84326 ] ] ], [ [ [ 4.14174, 46.22413 ], [ 4.14025, 46.1521 ], [ 4.24389, 46.15101 ], [ 4.24552, 46.22304 ], [ 4.14174, 46.22413 ] ] ], [ [ [ 4.13875, 46.08007 ], [ 4.13726, 46.00804 ], [ 4.24063, 46.00695 ], [ 4.24226, 46.07898 ], [ 4.13875, 46.08007 ] ] ], [ [ [ -0.51309, 45.95925 ], [ -0.5085, 45.88728 ], [ -0.40544, 45.89043 ], [ -0.40989, 45.9624 ], [ -0.51309, 45.95925 ] ] ], [ [ [ 3.31018, 46.01332 ], [ 3.30978, 45.94128 ], [ 3.41303, 45.94095 ], [ 3.41357, 46.01299 ], [ 3.31018, 46.01332 ] ] ], [ [ [ 4.43608, 45.57234 ], [ 4.43422, 45.50031 ], [ 4.53664, 45.49896 ], [ 4.53863, 45.57098 ], [ 4.43608, 45.57234 ] ] ], [ [ [ -1.20215, 45.5029 ], [ -1.18587, 45.2871 ], [ -1.08396, 45.29087 ], [ -1.09985, 45.50669 ], [ -1.20215, 45.5029 ] ] ], [ [ [ 1.26305, 45.35193 ], [ 1.26529, 45.27991 ], [ 1.3673, 45.28145 ], [ 1.36519, 45.35347 ], [ 1.26305, 45.35193 ] ] ], [ [ [ 5.64909, 45.18991 ], [ 5.64568, 45.11792 ], [ 5.74735, 45.11546 ], [ 5.7509, 45.18745 ], [ 5.64909, 45.18991 ] ] ], [ [ [ 1.57686, 45.06817 ], [ 1.57869, 44.99616 ], [ 1.68019, 44.99741 ], [ 1.67849, 45.06943 ], [ 1.57686, 45.06817 ] ] ], [ [ [ 1.3673, 45.28145 ], [ 1.36941, 45.20943 ], [ 1.26753, 45.20789 ], [ 1.26976, 45.13588 ], [ 1.16802, 45.13425 ], [ 1.17038, 45.06224 ], [ 1.06877, 45.06053 ], [ 1.07373, 44.91651 ], [ 1.47915, 44.9228 ], [ 1.47719, 44.99481 ], [ 1.3757, 44.99338 ], [ 1.37151, 45.13741 ], [ 1.57503, 45.14019 ], [ 1.57319, 45.21222 ], [ 1.4713, 45.21087 ], [ 1.46932, 45.28289 ], [ 1.3673, 45.28145 ] ] ], [ [ [ 1.68019, 44.99741 ], [ 1.68189, 44.92539 ], [ 1.78326, 44.92654 ], [ 1.7817, 44.99856 ], [ 1.68019, 44.99741 ] ] ], [ [ [ 1.4811, 44.85078 ], [ 1.48304, 44.77877 ], [ 1.58415, 44.78011 ], [ 1.58233, 44.85212 ], [ 1.4811, 44.85078 ] ] ], [ [ [ 1.88892, 44.71155 ], [ 1.89034, 44.63953 ], [ 1.99121, 44.6405 ], [ 1.9925, 44.56849 ], [ 1.89176, 44.56752 ], [ 1.89317, 44.49551 ], [ 2.09439, 44.49735 ], [ 2.09208, 44.64137 ], [ 2.19295, 44.64216 ], [ 2.19192, 44.71418 ], [ 1.88892, 44.71155 ] ] ], [ [ [ 2.70079, 43.99659 ], [ 2.70117, 43.9246 ], [ 2.80078, 43.92482 ], [ 2.80053, 43.99682 ], [ 2.70079, 43.99659 ] ] ], [ [ [ 2.30711, 43.56285 ], [ 2.30797, 43.49088 ], [ 2.40683, 43.49146 ], [ 2.40609, 43.56344 ], [ 2.30711, 43.56285 ] ] ], [ [ [ -0.74462, 43.28429 ], [ -0.73996, 43.21241 ], [ -0.64168, 43.21577 ], [ -0.64622, 43.28765 ], [ -0.74462, 43.28429 ] ] ], [ [ [ 6.33431, 43.00965 ], [ 6.33018, 42.93776 ], [ 6.42801, 42.93469 ], [ 6.43226, 43.00656 ], [ 6.33431, 43.00965 ] ] ], [ [ [ 8.84775, 42.61366 ], [ 8.84055, 42.54194 ], [ 9.03449, 42.53113 ], [ 9.04193, 42.60284 ], [ 8.84775, 42.61366 ] ] ], [ [ [ 5.1032, 46.93102 ], [ 5.1004, 46.85901 ], [ 4.99543, 46.86088 ], [ 4.9875, 46.64485 ], [ 4.77837, 46.64829 ], [ 4.76899, 46.36022 ], [ 4.66497, 46.36178 ], [ 4.66059, 46.21774 ], [ 4.55683, 46.21921 ], [ 4.54667, 45.85908 ], [ 4.64975, 45.85762 ], [ 4.64331, 45.64155 ], [ 4.54063, 45.643 ], [ 4.53863, 45.57098 ], [ 4.64118, 45.56953 ], [ 4.62639, 45.06539 ], [ 4.72801, 45.06386 ], [ 4.72357, 44.91984 ], [ 4.62222, 44.92136 ], [ 4.61806, 44.77734 ], [ 4.51696, 44.77877 ], [ 4.51502, 44.70676 ], [ 4.41404, 44.7081 ], [ 4.41585, 44.78011 ], [ 4.21362, 44.78251 ], [ 4.21052, 44.63848 ], [ 4.10966, 44.63953 ], [ 4.10824, 44.56752 ], [ 4.0075, 44.56849 ], [ 4.00494, 44.42446 ], [ 3.90445, 44.42533 ], [ 3.90101, 44.20931 ], [ 3.80091, 44.21009 ], [ 3.80193, 44.2821 ], [ 3.70169, 44.28278 ], [ 3.69991, 44.13877 ], [ 3.59993, 44.13936 ], [ 3.59917, 44.06736 ], [ 3.49931, 44.06786 ], [ 3.4968, 43.77989 ], [ 3.09936, 43.78097 ], [ 3.09924, 43.70898 ], [ 3.0, 43.70903 ], [ 3.0, 43.56506 ], [ 2.90101, 43.56502 ], [ 2.90114, 43.49304 ], [ 2.80227, 43.49291 ], [ 2.80252, 43.42093 ], [ 2.50631, 43.41999 ], [ 2.50692, 43.34802 ], [ 2.11249, 43.3455 ], [ 2.11138, 43.41747 ], [ 2.01265, 43.41661 ], [ 2.01142, 43.48858 ], [ 2.20912, 43.4902 ], [ 2.20813, 43.56218 ], [ 2.30711, 43.56285 ], [ 2.30274, 43.92278 ], [ 2.40234, 43.92337 ], [ 2.40159, 43.99536 ], [ 2.20213, 43.99409 ], [ 2.20112, 44.06609 ], [ 2.10126, 44.06531 ], [ 2.10013, 44.13731 ], [ 1.90018, 44.13549 ], [ 1.89739, 44.27949 ], [ 1.79716, 44.27844 ], [ 1.79563, 44.35044 ], [ 1.89598, 44.35149 ], [ 1.89458, 44.4235 ], [ 1.7941, 44.42245 ], [ 1.79257, 44.49445 ], [ 1.39018, 44.48932 ], [ 1.38607, 44.63332 ], [ 1.48692, 44.63475 ], [ 1.48304, 44.77877 ], [ 1.38194, 44.77734 ], [ 1.37986, 44.84935 ], [ 1.17742, 44.84621 ], [ 1.17975, 44.7742 ], [ 1.07866, 44.7725 ], [ 1.0762, 44.8445 ], [ 0.87379, 44.84081 ], [ 0.86832, 44.98481 ], [ 0.96978, 44.98671 ], [ 0.96717, 45.05872 ], [ 1.06877, 45.06053 ], [ 1.06628, 45.13254 ], [ 1.16802, 45.13425 ], [ 1.16329, 45.27828 ], [ 1.06129, 45.27656 ], [ 1.05878, 45.34857 ], [ 0.95665, 45.34676 ], [ 0.95401, 45.41877 ], [ 0.85176, 45.41685 ], [ 0.85731, 45.27284 ], [ 0.55139, 45.26655 ], [ 0.54823, 45.33855 ], [ 0.65032, 45.34074 ], [ 0.64728, 45.41275 ], [ 0.44283, 45.40827 ], [ 0.43286, 45.62427 ], [ 0.53548, 45.62656 ], [ 0.53227, 45.69857 ], [ 0.42952, 45.69627 ], [ 0.42281, 45.84027 ], [ 0.73189, 45.8469 ], [ 0.72892, 45.91891 ], [ 0.62575, 45.91679 ], [ 0.62265, 45.9888 ], [ 0.72595, 45.99092 ], [ 0.71998, 46.13494 ], [ 0.51284, 46.13059 ], [ 0.5161, 46.05859 ], [ 0.41268, 46.05627 ], [ 0.41606, 45.98427 ], [ 0.31278, 45.98187 ], [ 0.30573, 46.12586 ], [ 0.40928, 46.12827 ], [ 0.40247, 46.27227 ], [ 0.29865, 46.26986 ], [ 0.29509, 46.34185 ], [ 0.19114, 46.33934 ], [ 0.18743, 46.41133 ], [ 0.08336, 46.40872 ], [ 0.09485, 46.19275 ], [ 0.19852, 46.19535 ], [ 0.20219, 46.12336 ], [ 0.09866, 46.12076 ], [ 0.10246, 46.04877 ], [ -0.1043, 46.04329 ], [ -0.09215, 45.82734 ], [ -0.19511, 45.82448 ], [ -0.19928, 45.89646 ], [ -0.40544, 45.89043 ], [ -0.39657, 45.74649 ], [ -0.49936, 45.74334 ], [ -0.5085, 45.88728 ], [ -0.61155, 45.88403 ], [ -0.61627, 45.956 ], [ -0.51309, 45.95925 ], [ -0.5223, 46.10318 ], [ -0.7292, 46.09657 ], [ -0.73409, 46.16853 ], [ -0.42333, 46.17832 ], [ -0.41884, 46.10635 ], [ -0.00486, 46.11807 ], [ -0.00881, 46.19005 ], [ -0.11245, 46.18726 ], [ -0.11654, 46.25924 ], [ -0.22032, 46.25635 ], [ -0.23307, 46.47229 ], [ -0.4414, 46.4662 ], [ -0.44595, 46.53817 ], [ -0.55023, 46.53498 ], [ -0.54087, 46.39105 ], [ -0.64487, 46.38777 ], [ -0.64968, 46.45973 ], [ -0.85791, 46.45289 ], [ -0.86301, 46.52484 ], [ -1.07146, 46.5176 ], [ -1.07684, 46.58954 ], [ -1.18118, 46.58577 ], [ -1.17566, 46.51384 ], [ -1.38403, 46.50603 ], [ -1.37248, 46.36218 ], [ -1.16466, 46.36997 ], [ -1.15372, 46.22609 ], [ -1.36099, 46.21833 ], [ -1.36673, 46.29026 ], [ -1.57421, 46.2821 ], [ -1.5682, 46.21018 ], [ -1.4646, 46.2143 ], [ -1.45875, 46.14238 ], [ -1.14827, 46.15415 ], [ -1.13741, 46.01027 ], [ -1.24065, 46.00645 ], [ -1.2462, 46.07839 ], [ -1.45291, 46.07045 ], [ -1.44708, 45.99853 ], [ -1.34387, 46.00254 ], [ -1.33253, 45.85868 ], [ -1.22958, 45.86258 ], [ -1.21308, 45.64677 ], [ -1.11051, 45.65057 ], [ -1.09985, 45.50669 ], [ -0.99753, 45.51038 ], [ -0.96666, 45.07872 ], [ -1.16971, 45.0713 ], [ -1.15368, 44.85551 ], [ -1.25479, 44.85168 ], [ -1.26025, 44.9236 ], [ -1.36148, 44.91967 ], [ -1.31169, 44.27247 ], [ -1.41175, 44.2685 ], [ -1.38948, 43.98093 ], [ -1.48903, 43.97688 ], [ -1.46648, 43.68937 ], [ -1.56552, 43.68526 ], [ -1.55408, 43.54154 ], [ -1.65286, 43.53734 ], [ -1.64704, 43.46549 ], [ -1.74568, 43.46121 ], [ -1.73975, 43.38937 ], [ -1.83825, 43.38501 ], [ -1.83222, 43.31318 ], [ -1.63544, 43.3218 ], [ -1.62967, 43.24996 ], [ -1.53138, 43.25413 ], [ -1.53704, 43.32598 ], [ -1.24173, 43.33797 ], [ -1.23644, 43.26611 ], [ -0.74462, 43.28429 ], [ -0.7493, 43.35617 ], [ -0.65077, 43.35954 ], [ -0.64622, 43.28765 ], [ -0.35095, 43.29722 ], [ -0.35514, 43.36912 ], [ -0.25657, 43.37213 ], [ -0.26064, 43.44404 ], [ -0.06323, 43.4498 ], [ -0.05941, 43.37789 ], [ 0.03919, 43.38063 ], [ 0.04288, 43.30871 ], [ 0.14137, 43.31136 ], [ 0.14493, 43.23944 ], [ 0.2433, 43.242 ], [ 0.23641, 43.38584 ], [ 0.33503, 43.38832 ], [ 0.33836, 43.31639 ], [ 0.63391, 43.32326 ], [ 0.63686, 43.25133 ], [ 0.73527, 43.25344 ], [ 0.73244, 43.32537 ], [ 1.02808, 43.33117 ], [ 1.03299, 43.18729 ], [ 1.22962, 43.19069 ], [ 1.23182, 43.11876 ], [ 1.62466, 43.12448 ], [ 1.62637, 43.05254 ], [ 1.92068, 43.05589 ], [ 1.92202, 42.98395 ], [ 2.02, 42.98489 ], [ 2.01879, 43.05683 ], [ 2.1169, 43.05768 ], [ 2.11909, 42.9138 ], [ 2.31484, 42.91522 ], [ 2.31228, 43.13106 ], [ 2.41052, 43.13165 ], [ 2.41198, 42.98775 ], [ 2.50998, 42.98824 ], [ 2.51059, 42.91629 ], [ 2.41271, 42.9158 ], [ 2.41416, 42.77193 ], [ 2.5118, 42.77242 ], [ 2.5124, 42.70049 ], [ 2.41489, 42.7 ], [ 2.41561, 42.62808 ], [ 2.6104, 42.62897 ], [ 2.61136, 42.48513 ], [ 2.70852, 42.48544 ], [ 2.70888, 42.41353 ], [ 2.90296, 42.41389 ], [ 2.90284, 42.4858 ], [ 3.0, 42.48584 ], [ 3.0, 42.41393 ], [ 3.19408, 42.41375 ], [ 3.19456, 42.55758 ], [ 3.09728, 42.55771 ], [ 3.09825, 43.13321 ], [ 3.1965, 43.13308 ], [ 3.19674, 43.20504 ], [ 3.29511, 43.20481 ], [ 3.29548, 43.27677 ], [ 3.59095, 43.27556 ], [ 3.59169, 43.34753 ], [ 3.6903, 43.34694 ], [ 3.69116, 43.41891 ], [ 3.78989, 43.41823 ], [ 3.79088, 43.4902 ], [ 3.88973, 43.48944 ], [ 3.89085, 43.56141 ], [ 4.08879, 43.55961 ], [ 4.08743, 43.48764 ], [ 4.48278, 43.48295 ], [ 4.47908, 43.33903 ], [ 4.7748, 43.33458 ], [ 4.78371, 43.62241 ], [ 4.88277, 43.62074 ], [ 4.88041, 43.54878 ], [ 5.17717, 43.54323 ], [ 5.17445, 43.47128 ], [ 4.97686, 43.47507 ], [ 4.97439, 43.40312 ], [ 5.07306, 43.40127 ], [ 5.07047, 43.32933 ], [ 5.26756, 43.32537 ], [ 5.27039, 43.39731 ], [ 5.36905, 43.3952 ], [ 5.36314, 43.25133 ], [ 5.46154, 43.24913 ], [ 5.45542, 43.10529 ], [ 5.74985, 43.09817 ], [ 5.74643, 43.02626 ], [ 6.04042, 43.01836 ], [ 6.03665, 42.94646 ], [ 6.23235, 42.94075 ], [ 6.23636, 43.01264 ], [ 6.33431, 43.00965 ], [ 6.33846, 43.08153 ], [ 6.43653, 43.07845 ], [ 6.43226, 43.00656 ], [ 6.5302, 43.00339 ], [ 6.53458, 43.07527 ], [ 6.63263, 43.07201 ], [ 6.63715, 43.14389 ], [ 6.73531, 43.14053 ], [ 6.7493, 43.35617 ], [ 6.84781, 43.35271 ], [ 6.85262, 43.4246 ], [ 6.95124, 43.42104 ], [ 6.95619, 43.49292 ], [ 7.15364, 43.48554 ], [ 7.16406, 43.62929 ], [ 7.36195, 43.62153 ], [ 7.36743, 43.6934 ], [ 7.46648, 43.68937 ], [ 7.4721, 43.76125 ], [ 7.57126, 43.75713 ], [ 7.58278, 43.90087 ], [ 7.48337, 43.905 ], [ 7.47773, 43.83312 ], [ 7.17979, 43.84496 ], [ 7.18506, 43.91685 ], [ 7.08559, 43.92062 ], [ 7.0702, 43.70493 ], [ 6.87198, 43.71217 ], [ 6.86712, 43.64027 ], [ 6.57007, 43.65044 ], [ 6.5656, 43.57853 ], [ 6.16987, 43.59081 ], [ 6.18987, 43.95046 ], [ 5.9907, 43.95609 ], [ 6.00206, 44.17194 ], [ 5.90209, 44.17463 ], [ 5.8911, 43.95877 ], [ 5.69187, 43.96386 ], [ 5.68848, 43.89191 ], [ 5.48947, 43.89663 ], [ 5.49261, 43.96859 ], [ 5.29332, 43.97295 ], [ 5.29913, 44.11689 ], [ 5.19922, 44.11894 ], [ 5.202, 44.19092 ], [ 5.10196, 44.19288 ], [ 5.10463, 44.26487 ], [ 5.2048, 44.2629 ], [ 5.2076, 44.33488 ], [ 5.1073, 44.33685 ], [ 5.10998, 44.40884 ], [ 5.21041, 44.40687 ], [ 5.21322, 44.47886 ], [ 5.01211, 44.48271 ], [ 5.01983, 44.6987 ], [ 5.12078, 44.69681 ], [ 5.12621, 44.84081 ], [ 5.02501, 44.8427 ], [ 5.03022, 44.98671 ], [ 5.13168, 44.98481 ], [ 5.13442, 45.05682 ], [ 5.33759, 45.05274 ], [ 5.3406, 45.12474 ], [ 5.23889, 45.12683 ], [ 5.24178, 45.19883 ], [ 5.03807, 45.20273 ], [ 5.04071, 45.27474 ], [ 4.93871, 45.27656 ], [ 4.94122, 45.34857 ], [ 5.14546, 45.34484 ], [ 5.14824, 45.41685 ], [ 4.94374, 45.42059 ], [ 4.94626, 45.4926 ], [ 5.04865, 45.49078 ], [ 5.05397, 45.63481 ], [ 5.46452, 45.62656 ], [ 5.47095, 45.77057 ], [ 5.36806, 45.77278 ], [ 5.37425, 45.91679 ], [ 5.27108, 45.91891 ], [ 5.27405, 45.99092 ], [ 5.17074, 45.99295 ], [ 5.1679, 45.92093 ], [ 4.96152, 45.9247 ], [ 4.95896, 45.85268 ], [ 4.8559, 45.85442 ], [ 4.85832, 45.92644 ], [ 4.75512, 45.92809 ], [ 4.76203, 46.14416 ], [ 4.86564, 46.1425 ], [ 4.86809, 46.21452 ], [ 5.17929, 46.20898 ], [ 5.18503, 46.353 ], [ 5.28903, 46.35096 ], [ 5.29205, 46.42297 ], [ 5.18792, 46.42501 ], [ 5.1937, 46.56903 ], [ 5.29811, 46.56698 ], [ 5.30115, 46.63899 ], [ 5.40569, 46.63684 ], [ 5.41207, 46.78084 ], [ 5.30726, 46.78299 ], [ 5.31033, 46.85499 ], [ 5.41528, 46.85283 ], [ 5.4185, 46.92483 ], [ 5.1032, 46.93102 ] ], [ [ -1.04474, 46.15789 ], [ -0.94121, 46.16153 ], [ -0.93604, 46.08958 ], [ -1.03944, 46.08594 ], [ -1.04474, 46.15789 ] ], [ [ 4.51502, 44.70676 ], [ 4.61599, 44.70533 ], [ 4.61393, 44.63332 ], [ 4.51308, 44.63475 ], [ 4.51502, 44.70676 ] ], [ [ -0.40619, 44.23221 ], [ -0.20605, 44.23823 ], [ -0.20199, 44.16629 ], [ -0.40187, 44.16027 ], [ -0.40619, 44.23221 ] ], [ [ 1.70024, 44.1333 ], [ 1.80021, 44.13444 ], [ 1.80173, 44.06245 ], [ 1.70189, 44.06131 ], [ 1.70024, 44.1333 ] ], [ [ 3.69991, 44.13877 ], [ 3.79989, 44.13809 ], [ 3.79888, 44.06609 ], [ 3.69903, 44.06677 ], [ 3.69991, 44.13877 ] ], [ [ 5.38995, 43.89885 ], [ 5.48947, 43.89663 ], [ 5.48634, 43.82467 ], [ 5.38695, 43.82689 ], [ 5.38995, 43.89885 ] ], [ [ 6.14229, 43.08744 ], [ 6.24038, 43.08453 ], [ 6.23636, 43.01264 ], [ 6.13839, 43.01554 ], [ 6.14229, 43.08744 ] ] ], [ [ [ 8.64654, 42.55239 ], [ 8.63268, 42.40893 ], [ 8.53588, 42.41401 ], [ 8.52909, 42.34228 ], [ 8.62577, 42.33721 ], [ 8.61888, 42.26549 ], [ 8.52232, 42.27056 ], [ 8.51556, 42.19884 ], [ 8.61201, 42.19378 ], [ 8.60515, 42.12207 ], [ 8.70146, 42.11693 ], [ 8.68756, 41.97354 ], [ 8.59148, 41.97867 ], [ 8.58468, 41.90698 ], [ 8.77658, 41.89665 ], [ 8.76255, 41.75331 ], [ 8.85824, 41.74803 ], [ 8.86536, 41.81969 ], [ 8.96116, 41.81431 ], [ 8.9976, 42.17266 ], [ 8.80484, 42.18339 ], [ 8.81195, 42.25509 ], [ 8.71542, 42.26033 ], [ 8.72243, 42.33205 ], [ 8.81907, 42.3268 ], [ 8.84055, 42.54194 ], [ 8.64654, 42.55239 ] ] ], [ [ [ 8.85824, 41.74803 ], [ 8.82993, 41.46145 ], [ 8.92515, 41.45611 ], [ 8.95392, 41.74266 ], [ 8.85824, 41.74803 ] ] ] ] } },
{ "type": "Feature", "properties": { "nb_generations": 4, "surface_km2": 1984.0, "libelle": "4 generation(s) achevee(s)", "couleur": "#440154FF", "date_situation": "2026-09-17", "modele": "STENO-DJ v1", "exposition": "sunny", "k_ecorce": 0.2 }, "geometry": { "type": "MultiPolygon", "coordinates": [ [ [ [ 4.78371, 43.62241 ], [ 4.7748, 43.33458 ], [ 4.87336, 43.33292 ], [ 4.87571, 43.40487 ], [ 4.97439, 43.40312 ], [ 4.97686, 43.47507 ], [ 5.17445, 43.47128 ], [ 5.17717, 43.54323 ], [ 4.88041, 43.54878 ], [ 4.88277, 43.62074 ], [ 4.78371, 43.62241 ] ] ], [ [ [ 4.97439, 43.40312 ], [ 4.97192, 43.33117 ], [ 5.07047, 43.32933 ], [ 5.07306, 43.40127 ], [ 4.97439, 43.40312 ] ] ], [ [ [ 5.27039, 43.39731 ], [ 5.26473, 43.25344 ], [ 5.36314, 43.25133 ], [ 5.36905, 43.3952 ], [ 5.27039, 43.39731 ] ] ], [ [ [ 5.36314, 43.25133 ], [ 5.3602, 43.1794 ], [ 5.45848, 43.17721 ], [ 5.46154, 43.24913 ], [ 5.36314, 43.25133 ] ] ], [ [ [ 8.95953, 42.75174 ], [ 8.95218, 42.68001 ], [ 8.85496, 42.68539 ], [ 8.84775, 42.61366 ], [ 9.04193, 42.60284 ], [ 9.05685, 42.74627 ], [ 8.95953, 42.75174 ] ] ], [ [ [ 8.6535, 42.62412 ], [ 8.64654, 42.55239 ], [ 8.84055, 42.54194 ], [ 8.84775, 42.61366 ], [ 8.6535, 42.62412 ] ] ], [ [ [ 8.52909, 42.34228 ], [ 8.52232, 42.27056 ], [ 8.61888, 42.26549 ], [ 8.62577, 42.33721 ], [ 8.52909, 42.34228 ] ] ], [ [ [ 8.51556, 42.19884 ], [ 8.5021, 42.05542 ], [ 8.59831, 42.05037 ], [ 8.59148, 41.97867 ], [ 8.68756, 41.97354 ], [ 8.70146, 42.11693 ], [ 8.60515, 42.12207 ], [ 8.61201, 42.19378 ], [ 8.51556, 42.19884 ] ] ], [ [ [ 8.49539, 41.98372 ], [ 8.4887, 41.91202 ], [ 8.58468, 41.90698 ], [ 8.59148, 41.97867 ], [ 8.49539, 41.98372 ] ] ], [ [ [ 8.86536, 41.81969 ], [ 8.85824, 41.74803 ], [ 8.95392, 41.74266 ], [ 8.96116, 41.81431 ], [ 8.86536, 41.81969 ] ] ], [ [ [ 8.58468, 41.90698 ], [ 8.57789, 41.8353 ], [ 8.67373, 41.83018 ], [ 8.65997, 41.68684 ], [ 8.75556, 41.68165 ], [ 8.74164, 41.53835 ], [ 8.83699, 41.53309 ], [ 8.85824, 41.74803 ], [ 8.76255, 41.75331 ], [ 8.77658, 41.89665 ], [ 8.58468, 41.90698 ] ] ] ] } }
]
}
