{
"type": "FeatureCollection",
"name": "steno_generations_20260819",
"features": [
{ "type": "Feature", "properties": { "nb_generations": 0, "surface_km2": 27584.0, "libelle": "Aucune generation achevee", "couleur": "#E8E8E8", "date_situation": "2026-08-19", "modele": "STENO-DJ v1", "exposition": "sunny", "k_ecorce": 0.2 }, "geometry": { "type": "MultiPolygon", "coordinates": [ [ [ [ 9.35673, 47.28033 ], [ 9.34823, 47.20855 ], [ 9.45357, 47.20271 ], [ 9.46221, 47.27449 ], [ 9.35673, 47.28033 ] ] ], [ [ [ 9.55013, 47.12501 ], [ 9.54139, 47.05323 ], [ 9.64641, 47.04723 ], [ 9.65528, 47.119 ], [ 9.55013, 47.12501 ] ] ], [ [ [ 8.04872, 46.91166 ], [ 8.04201, 46.83978 ], [ 8.14676, 46.83514 ], [ 8.15361, 46.90701 ], [ 8.04872, 46.91166 ] ] ], [ [ [ 9.51534, 46.83789 ], [ 9.5067, 46.7661 ], [ 9.61116, 46.76012 ], [ 9.61993, 46.8319 ], [ 9.51534, 46.83789 ] ] ], [ [ [ 7.83246, 46.84878 ], [ 7.82605, 46.77689 ], [ 8.03532, 46.7679 ], [ 8.04201, 46.83978 ], [ 7.83246, 46.84878 ] ] ], [ [ [ 7.72139, 46.78124 ], [ 7.71513, 46.70934 ], [ 7.81966, 46.70499 ], [ 7.82605, 46.77689 ], [ 7.72139, 46.78124 ] ] ], [ [ [ 7.29688, 46.72577 ], [ 7.29119, 46.65384 ], [ 7.39564, 46.64988 ], [ 7.40146, 46.7218 ], [ 7.29688, 46.72577 ] ] ], [ [ [ 9.12111, 47.07631 ], [ 9.11296, 47.0045 ], [ 9.21793, 46.99888 ], [ 9.20965, 46.92708 ], [ 8.99998, 46.9382 ], [ 9.00797, 47.01002 ], [ 8.79794, 47.02078 ], [ 8.79022, 46.94895 ], [ 8.68531, 46.95418 ], [ 8.67776, 46.88233 ], [ 8.78253, 46.87711 ], [ 8.77485, 46.80527 ], [ 8.67022, 46.81049 ], [ 8.6627, 46.73864 ], [ 8.55819, 46.74376 ], [ 8.57296, 46.88746 ], [ 8.46815, 46.89249 ], [ 8.46089, 46.82063 ], [ 8.25149, 46.8304 ], [ 8.20311, 46.32726 ], [ 8.30687, 46.32247 ], [ 8.32087, 46.46622 ], [ 8.42487, 46.46132 ], [ 8.43204, 46.53319 ], [ 8.95246, 46.50724 ], [ 8.94461, 46.43541 ], [ 9.25621, 46.41873 ], [ 9.24798, 46.34692 ], [ 9.45533, 46.33534 ], [ 9.5067, 46.7661 ], [ 9.40221, 46.77198 ], [ 9.39373, 46.70018 ], [ 9.28936, 46.70596 ], [ 9.30607, 46.84957 ], [ 9.51534, 46.83789 ], [ 9.53268, 46.98145 ], [ 9.42779, 46.98736 ], [ 9.43636, 47.05915 ], [ 9.12111, 47.07631 ] ], [ [ 8.98406, 46.79456 ], [ 9.19318, 46.78346 ], [ 9.18497, 46.71165 ], [ 8.97613, 46.72273 ], [ 8.98406, 46.79456 ] ] ], [ [ [ 6.64487, 46.38777 ], [ 6.64007, 46.31581 ], [ 6.74392, 46.31244 ], [ 6.74885, 46.3844 ], [ 6.64487, 46.38777 ] ] ], [ [ [ 6.41436, 46.03438 ], [ 6.401, 45.81846 ], [ 6.50393, 45.81531 ], [ 6.51769, 46.03122 ], [ 6.41436, 46.03438 ] ] ], [ [ [ 5.84536, 45.04092 ], [ 5.8417, 44.96894 ], [ 5.9431, 44.9663 ], [ 5.94688, 45.03828 ], [ 5.84536, 45.04092 ] ] ], [ [ [ 5.72977, 44.75553 ], [ 5.7228, 44.61157 ], [ 5.92431, 44.60642 ], [ 5.92805, 44.67839 ], [ 5.82717, 44.68102 ], [ 5.83079, 44.753 ], [ 5.72977, 44.75553 ] ] ], [ [ [ 7.606, 44.18839 ], [ 7.60017, 44.1165 ], [ 7.69994, 44.11226 ], [ 7.7059, 44.18414 ], [ 7.606, 44.18839 ] ] ], [ [ [ 7.92416, 46.70055 ], [ 7.91115, 46.55676 ], [ 7.80691, 46.56119 ], [ 7.81328, 46.63309 ], [ 7.70889, 46.63743 ], [ 7.70267, 46.56552 ], [ 7.5984, 46.56976 ], [ 7.60449, 46.64168 ], [ 7.50007, 46.64583 ], [ 7.49412, 46.57391 ], [ 7.28551, 46.58191 ], [ 7.29119, 46.65384 ], [ 7.18672, 46.65771 ], [ 7.18118, 46.58577 ], [ 7.07684, 46.58954 ], [ 7.07146, 46.5176 ], [ 7.27985, 46.50998 ], [ 7.27421, 46.43805 ], [ 7.06609, 46.44566 ], [ 7.04474, 46.15789 ], [ 7.14827, 46.15415 ], [ 7.13741, 46.01027 ], [ 6.93089, 46.01763 ], [ 6.94121, 46.16153 ], [ 6.83766, 46.16508 ], [ 6.8427, 46.23703 ], [ 6.63529, 46.24385 ], [ 6.62576, 46.09992 ], [ 6.7292, 46.09657 ], [ 6.72431, 46.02461 ], [ 6.62101, 46.02796 ], [ 6.61627, 45.956 ], [ 6.71945, 45.95265 ], [ 6.70974, 45.80873 ], [ 6.50393, 45.81531 ], [ 6.49936, 45.74334 ], [ 6.60214, 45.7401 ], [ 6.59746, 45.66814 ], [ 6.39215, 45.67451 ], [ 6.38774, 45.60254 ], [ 6.2852, 45.60559 ], [ 6.26822, 45.31769 ], [ 6.37023, 45.31466 ], [ 6.36588, 45.24269 ], [ 6.46774, 45.23957 ], [ 6.46327, 45.16761 ], [ 6.15803, 45.17667 ], [ 6.17029, 45.3926 ], [ 6.06813, 45.39544 ], [ 6.06021, 45.25148 ], [ 5.9583, 45.25423 ], [ 5.95448, 45.18224 ], [ 5.85269, 45.18489 ], [ 5.84902, 45.1129 ], [ 6.05233, 45.10752 ], [ 6.04448, 44.96357 ], [ 5.9431, 44.9663 ], [ 5.93555, 44.82234 ], [ 6.1378, 44.8168 ], [ 6.12978, 44.67287 ], [ 6.23063, 44.66997 ], [ 6.22651, 44.59801 ], [ 6.42792, 44.59194 ], [ 6.4323, 44.66389 ], [ 6.53312, 44.66072 ], [ 6.53764, 44.73267 ], [ 6.63857, 44.7294 ], [ 6.62928, 44.58551 ], [ 6.52861, 44.58877 ], [ 6.51515, 44.37293 ], [ 6.41485, 44.37609 ], [ 6.40619, 44.23221 ], [ 6.50624, 44.22906 ], [ 6.5018, 44.15712 ], [ 6.60171, 44.15388 ], [ 6.59716, 44.08195 ], [ 6.69694, 44.07863 ], [ 6.70162, 44.15055 ], [ 6.90139, 44.14362 ], [ 6.90633, 44.21554 ], [ 7.1063, 44.20824 ], [ 7.11151, 44.28015 ], [ 7.01141, 44.28385 ], [ 7.01651, 44.35577 ], [ 6.91626, 44.35939 ], [ 6.93627, 44.6471 ], [ 7.13777, 44.63974 ], [ 7.14306, 44.71166 ], [ 7.04218, 44.71539 ], [ 7.05255, 44.85925 ], [ 6.85025, 44.86646 ], [ 6.85519, 44.9384 ], [ 6.7539, 44.94187 ], [ 6.75872, 45.01382 ], [ 6.65728, 45.0172 ], [ 6.66199, 45.08915 ], [ 6.86512, 45.08229 ], [ 6.8701, 45.15423 ], [ 7.07344, 45.14699 ], [ 7.07869, 45.21893 ], [ 7.18047, 45.21516 ], [ 7.19671, 45.43097 ], [ 7.09454, 45.43475 ], [ 7.09985, 45.50669 ], [ 6.99753, 45.51038 ], [ 7.00793, 45.65427 ], [ 6.90533, 45.65788 ], [ 6.91041, 45.72983 ], [ 6.80767, 45.73335 ], [ 6.81264, 45.8053 ], [ 7.22406, 45.79064 ], [ 7.22958, 45.86258 ], [ 7.43547, 45.85468 ], [ 7.44127, 45.9266 ], [ 7.85342, 45.90965 ], [ 7.85976, 45.98156 ], [ 7.96289, 45.97708 ], [ 7.98244, 46.19277 ], [ 8.08596, 46.18818 ], [ 8.13312, 46.69138 ], [ 7.92416, 46.70055 ] ], [ [ 7.47636, 46.35815 ], [ 7.99556, 46.33656 ], [ 7.98899, 46.26466 ], [ 7.88532, 46.26917 ], [ 7.87891, 46.19726 ], [ 7.77535, 46.20167 ], [ 7.78163, 46.27357 ], [ 7.57421, 46.2821 ], [ 7.5682, 46.21018 ], [ 7.36099, 46.21833 ], [ 7.35527, 46.1464 ], [ 7.14827, 46.15415 ], [ 7.15372, 46.22609 ], [ 7.25736, 46.22226 ], [ 7.26296, 46.29419 ], [ 7.47048, 46.28623 ], [ 7.47636, 46.35815 ] ], [ [ 6.70009, 45.66481 ], [ 6.80272, 45.66139 ], [ 6.79778, 45.58944 ], [ 6.69529, 45.59285 ], [ 6.70009, 45.66481 ] ], [ [ 6.38774, 45.60254 ], [ 6.49027, 45.59941 ], [ 6.48574, 45.52744 ], [ 6.58812, 45.52421 ], [ 6.57884, 45.38029 ], [ 6.47672, 45.3835 ], [ 6.48122, 45.45547 ], [ 6.37896, 45.4586 ], [ 6.38774, 45.60254 ] ], [ [ 6.59278, 45.59618 ], [ 6.69529, 45.59285 ], [ 6.69049, 45.52089 ], [ 6.58812, 45.52421 ], [ 6.59278, 45.59618 ] ], [ [ 6.44109, 44.80781 ], [ 6.54217, 44.80462 ], [ 6.53764, 44.73267 ], [ 6.43669, 44.73585 ], [ 6.44109, 44.80781 ] ], [ [ 6.51515, 44.37293 ], [ 6.61545, 44.36968 ], [ 6.61086, 44.29775 ], [ 6.51069, 44.30099 ], [ 6.51515, 44.37293 ] ] ], [ [ [ 7.1063, 44.20824 ], [ 7.09592, 44.06442 ], [ 7.4947, 44.04876 ], [ 7.50609, 44.19254 ], [ 7.1063, 44.20824 ] ] ], [ [ [ 6.90139, 44.14362 ], [ 6.89645, 44.07171 ], [ 6.9962, 44.06811 ], [ 7.00125, 44.14002 ], [ 6.90139, 44.14362 ] ] ], [ [ [ -0.82394, 42.99335 ], [ -0.81447, 42.84963 ], [ -0.71681, 42.85306 ], [ -0.71222, 42.7812 ], [ -0.61466, 42.78454 ], [ -0.6102, 42.71268 ], [ -0.51276, 42.71593 ], [ -0.5171, 42.78779 ], [ -0.22435, 42.797 ], [ -0.22037, 42.72512 ], [ -0.12288, 42.72801 ], [ -0.11903, 42.65614 ], [ 0.66019, 42.67603 ], [ 0.6573, 42.74792 ], [ 0.36467, 42.74112 ], [ 0.36141, 42.81302 ], [ 0.26376, 42.81057 ], [ 0.25697, 42.95436 ], [ 0.06122, 42.94919 ], [ 0.05757, 43.02108 ], [ -0.04042, 43.01836 ], [ -0.03288, 42.87457 ], [ -0.13062, 42.87177 ], [ -0.1345, 42.94365 ], [ -0.33018, 42.93776 ], [ -0.33431, 43.00965 ], [ -0.43226, 43.00656 ], [ -0.42801, 42.93469 ], [ -0.52582, 42.93152 ], [ -0.52146, 42.85965 ], [ -0.61914, 42.8564 ], [ -0.62362, 42.92826 ], [ -0.72142, 42.92492 ], [ -0.72604, 42.99678 ], [ -0.82394, 42.99335 ] ] ], [ [ [ 2.12235, 42.69801 ], [ 2.12343, 42.62608 ], [ 2.22082, 42.62684 ], [ 2.21986, 42.69876 ], [ 2.12235, 42.69801 ] ] ], [ [ [ 0.75208, 42.82192 ], [ 0.75486, 42.75001 ], [ 0.85243, 42.75201 ], [ 0.85508, 42.68011 ], [ 0.66019, 42.67603 ], [ 0.66308, 42.60413 ], [ 0.85772, 42.60821 ], [ 0.86036, 42.53632 ], [ 0.95757, 42.53822 ], [ 0.95505, 42.61012 ], [ 1.05239, 42.61194 ], [ 1.04999, 42.68384 ], [ 1.3424, 42.68877 ], [ 1.34444, 42.61686 ], [ 1.53916, 42.6197 ], [ 1.54276, 42.47589 ], [ 1.83416, 42.47947 ], [ 1.83272, 42.55138 ], [ 2.02725, 42.55333 ], [ 2.02364, 42.76909 ], [ 1.92601, 42.76815 ], [ 1.92734, 42.69623 ], [ 1.63485, 42.6929 ], [ 1.63316, 42.76482 ], [ 1.14516, 42.75748 ], [ 1.14287, 42.8294 ], [ 0.75208, 42.82192 ] ] ], [ [ [ 2.41633, 42.55616 ], [ 2.41705, 42.48425 ], [ 2.5142, 42.48474 ], [ 2.51361, 42.55665 ], [ 2.41633, 42.55616 ] ] ], [ [ [ 2.02844, 42.48142 ], [ 2.02964, 42.40951 ], [ 1.93261, 42.40858 ], [ 1.93392, 42.33669 ], [ 2.12774, 42.33845 ], [ 2.12667, 42.41035 ], [ 2.32073, 42.41177 ], [ 2.31989, 42.48367 ], [ 2.02844, 42.48142 ] ] ] ] } },
{ "type": "Feature", "properties": { "nb_generations": 1, "surface_km2": 211840.0, "libelle": "1 generation(s) achevee(s)", "couleur": "#FDE725FF", "date_situation": "2026-08-19", "modele": "STENO-DJ v1", "exposition": "sunny", "k_ecorce": 0.2 }, "geometry": { "type": "MultiPolygon", "coordinates": [ [ [ [ 1.90444, 49.10483 ], [ 1.90595, 49.0329 ], [ 2.01535, 49.03385 ], [ 2.01398, 49.10577 ], [ 1.90444, 49.10483 ] ] ], [ [ [ -1.91715, 48.93706 ], [ -1.91037, 48.86526 ], [ -1.80152, 48.86968 ], [ -1.80816, 48.94149 ], [ -1.91715, 48.93706 ] ] ], [ [ [ 1.46843, 49.02812 ], [ 1.47055, 48.9562 ], [ 1.57977, 48.95754 ], [ 1.5778, 49.02946 ], [ 1.46843, 49.02812 ] ] ], [ [ [ 5.28749, 48.80018 ], [ 5.28434, 48.72825 ], [ 5.39305, 48.72612 ], [ 5.39635, 48.79804 ], [ 5.28749, 48.80018 ] ] ], [ [ [ -5.01313, 48.40771 ], [ -5.00219, 48.33611 ], [ -4.89478, 48.34334 ], [ -4.90557, 48.41496 ], [ -5.01313, 48.40771 ] ] ], [ [ [ -1.10835, 48.3911 ], [ -1.10273, 48.31923 ], [ -0.99495, 48.32292 ], [ -1.00042, 48.3948 ], [ -1.10835, 48.3911 ] ] ], [ [ [ 1.14804, 48.80772 ], [ 1.15059, 48.73579 ], [ 1.04185, 48.73405 ], [ 1.04454, 48.66212 ], [ 0.82737, 48.65836 ], [ 0.83036, 48.58642 ], [ 0.93879, 48.58835 ], [ 0.95285, 48.22861 ], [ 1.06055, 48.23043 ], [ 1.04723, 48.59018 ], [ 1.15568, 48.59191 ], [ 1.15821, 48.51997 ], [ 1.37482, 48.52313 ], [ 1.37259, 48.59508 ], [ 1.26413, 48.59354 ], [ 1.26174, 48.66549 ], [ 1.47897, 48.66846 ], [ 1.47687, 48.7404 ], [ 1.36811, 48.73896 ], [ 1.36585, 48.8109 ], [ 1.14804, 48.80772 ] ] ], [ [ [ -1.52751, 48.23163 ], [ -1.52135, 48.15976 ], [ -1.41392, 48.16383 ], [ -1.41994, 48.2357 ], [ -1.52751, 48.23163 ] ] ], [ [ [ 0.84516, 48.2267 ], [ 0.84809, 48.15474 ], [ 0.95564, 48.15665 ], [ 0.95285, 48.22861 ], [ 0.84516, 48.2267 ] ] ], [ [ [ 8.87625, 47.73898 ], [ 8.86832, 47.66717 ], [ 8.97461, 47.66177 ], [ 8.98268, 47.73357 ], [ 8.87625, 47.73898 ] ] ], [ [ [ 8.44294, 47.68778 ], [ 8.4356, 47.61595 ], [ 8.54184, 47.61094 ], [ 8.54931, 47.68277 ], [ 8.44294, 47.68778 ] ] ], [ [ [ 2.54338, 51.1923 ], [ 2.54404, 51.12056 ], [ 2.0881, 51.11808 ], [ 2.08942, 51.04634 ], [ 1.748, 51.04339 ], [ 1.7498, 50.97165 ], [ 1.63617, 50.97046 ], [ 1.63813, 50.89871 ], [ 1.52467, 50.89742 ], [ 1.54143, 50.32315 ], [ 1.42926, 50.32177 ], [ 1.43593, 50.1063 ], [ 1.21256, 50.10325 ], [ 1.21509, 50.03142 ], [ 1.10357, 50.02975 ], [ 1.10625, 49.95791 ], [ 0.6609, 49.95021 ], [ 0.66419, 49.87837 ], [ 0.44188, 49.87392 ], [ 0.44548, 49.80209 ], [ 0.11256, 49.79466 ], [ 0.12065, 49.65099 ], [ 0.01001, 49.64832 ], [ 0.02669, 49.36093 ], [ -0.41329, 49.3493 ], [ -0.41806, 49.42114 ], [ -1.07853, 49.40067 ], [ -1.08423, 49.47248 ], [ -1.19441, 49.46871 ], [ -1.21797, 49.75586 ], [ -1.55026, 49.7439 ], [ -1.54388, 49.67213 ], [ -1.65445, 49.66795 ], [ -1.66099, 49.73971 ], [ -1.88239, 49.73102 ], [ -1.88925, 49.80276 ], [ -2.00007, 49.79827 ], [ -1.98606, 49.65479 ], [ -1.87554, 49.65928 ], [ -1.86872, 49.58753 ], [ -1.97908, 49.58305 ], [ -1.97213, 49.51129 ], [ -1.86192, 49.51577 ], [ -1.84836, 49.37223 ], [ -1.73844, 49.37659 ], [ -1.72527, 49.23302 ], [ -1.61563, 49.23727 ], [ -1.56486, 48.66273 ], [ -1.78172, 48.65422 ], [ -1.7883, 48.72604 ], [ -2.00538, 48.71713 ], [ -1.9985, 48.64531 ], [ -2.21521, 48.63601 ], [ -2.22239, 48.70781 ], [ -2.54774, 48.6931 ], [ -2.54012, 48.62132 ], [ -2.75663, 48.61104 ], [ -2.76454, 48.6828 ], [ -2.87291, 48.6775 ], [ -2.89723, 48.89276 ], [ -3.65828, 48.85276 ], [ -3.63996, 48.70937 ], [ -3.74829, 48.70328 ], [ -3.75758, 48.77497 ], [ -4.19122, 48.74958 ], [ -4.18134, 48.67792 ], [ -4.61396, 48.65099 ], [ -4.60351, 48.57937 ], [ -4.81936, 48.56533 ], [ -4.77672, 48.27885 ], [ -4.66939, 48.28588 ], [ -4.65894, 48.21424 ], [ -4.55173, 48.22116 ], [ -4.54146, 48.1495 ], [ -4.43437, 48.15632 ], [ -4.42426, 48.08465 ], [ -4.74504, 48.06394 ], [ -4.73453, 47.99229 ], [ -4.62778, 47.99928 ], [ -4.61745, 47.92763 ], [ -4.40415, 47.9413 ], [ -4.37417, 47.72625 ], [ -4.2679, 47.73291 ], [ -4.27773, 47.80461 ], [ -3.85184, 47.83034 ], [ -3.84258, 47.75861 ], [ -3.31038, 47.78856 ], [ -3.30186, 47.71679 ], [ -3.19549, 47.72248 ], [ -3.20386, 47.79426 ], [ -3.09733, 47.79986 ], [ -3.0891, 47.72808 ], [ -2.98268, 47.73357 ], [ -2.99077, 47.80537 ], [ -2.88419, 47.81078 ], [ -2.87625, 47.73898 ], [ -2.66331, 47.74949 ], [ -2.65567, 47.67767 ], [ -2.44294, 47.68778 ], [ -2.45029, 47.75962 ], [ -2.55681, 47.7546 ], [ -2.56433, 47.82642 ], [ -2.35098, 47.83637 ], [ -2.35823, 47.9082 ], [ -2.57187, 47.89824 ], [ -2.57943, 47.97006 ], [ -2.47248, 47.97509 ], [ -2.47991, 48.04691 ], [ -2.3728, 48.05186 ], [ -2.38011, 48.12368 ], [ -2.27283, 48.12853 ], [ -2.25139, 47.91304 ], [ -2.14452, 47.91777 ], [ -2.15151, 47.98961 ], [ -2.04448, 47.99426 ], [ -2.05133, 48.0661 ], [ -1.94414, 48.07066 ], [ -1.95087, 48.1425 ], [ -1.84352, 48.14696 ], [ -1.85012, 48.21881 ], [ -1.52751, 48.23163 ], [ -1.5399, 48.37535 ], [ -1.43203, 48.37943 ], [ -1.4381, 48.45129 ], [ -1.33007, 48.45529 ], [ -1.32415, 48.38342 ], [ -1.10835, 48.3911 ], [ -1.11397, 48.46298 ], [ -1.0059, 48.46668 ], [ -1.01139, 48.53855 ], [ -0.90316, 48.54216 ], [ -0.89781, 48.47028 ], [ -0.57346, 48.48049 ], [ -0.56369, 48.33669 ], [ -0.45584, 48.33989 ], [ -0.45112, 48.26798 ], [ -0.3434, 48.27108 ], [ -0.33885, 48.19916 ], [ -0.12367, 48.20505 ], [ -0.13221, 48.34889 ], [ -0.02431, 48.3517 ], [ -0.0326, 48.49554 ], [ 0.18382, 48.50087 ], [ 0.17995, 48.57279 ], [ 0.28833, 48.57531 ], [ 0.28086, 48.71914 ], [ 0.71566, 48.72825 ], [ 0.71251, 48.80018 ], [ 0.82138, 48.80221 ], [ 0.82438, 48.73029 ], [ 1.04185, 48.73405 ], [ 1.03372, 48.94983 ], [ 0.81535, 48.94604 ], [ 0.8032, 49.23365 ], [ 1.02279, 49.23745 ], [ 1.01727, 49.38124 ], [ 0.90717, 49.37938 ], [ 0.90425, 49.45126 ], [ 1.12476, 49.45488 ], [ 1.12738, 49.38299 ], [ 1.34762, 49.3862 ], [ 1.34992, 49.31431 ], [ 1.4599, 49.31576 ], [ 1.46418, 49.17195 ], [ 1.57385, 49.1733 ], [ 1.57583, 49.10138 ], [ 1.90444, 49.10483 ], [ 1.90291, 49.17675 ], [ 2.01261, 49.1777 ], [ 2.01398, 49.10577 ], [ 2.12353, 49.10662 ], [ 2.12231, 49.17854 ], [ 2.23202, 49.17929 ], [ 2.23095, 49.25121 ], [ 2.45067, 49.25241 ], [ 2.4499, 49.32433 ], [ 2.55992, 49.32478 ], [ 2.56053, 49.25286 ], [ 2.6704, 49.25321 ], [ 2.66948, 49.39704 ], [ 2.77965, 49.39729 ], [ 2.77996, 49.32538 ], [ 2.88998, 49.32553 ], [ 2.89013, 49.25361 ], [ 2.78026, 49.25346 ], [ 2.78087, 49.10962 ], [ 3.10956, 49.10977 ], [ 3.10941, 49.03784 ], [ 3.21882, 49.03769 ], [ 3.21822, 48.89381 ], [ 3.32733, 48.89356 ], [ 3.32687, 48.82162 ], [ 3.54478, 48.82082 ], [ 3.54554, 48.89277 ], [ 3.65464, 48.89222 ], [ 3.65736, 49.10802 ], [ 3.76692, 49.10737 ], [ 3.76798, 49.17929 ], [ 3.65828, 49.17994 ], [ 3.66011, 49.32378 ], [ 4.10014, 49.32057 ], [ 4.09709, 49.17675 ], [ 4.31646, 49.17455 ], [ 4.31464, 49.10263 ], [ 4.2051, 49.10378 ], [ 4.20343, 49.03186 ], [ 4.53157, 49.02812 ], [ 4.52945, 48.9562 ], [ 4.74788, 48.95321 ], [ 4.74546, 48.88129 ], [ 4.96356, 48.87791 ], [ 4.96628, 48.94983 ], [ 5.07546, 48.94799 ], [ 5.07834, 49.0199 ], [ 5.18767, 49.01795 ], [ 5.1907, 49.08986 ], [ 5.30018, 49.08781 ], [ 5.29699, 49.01591 ], [ 5.40631, 49.01377 ], [ 5.39966, 48.86996 ], [ 5.50867, 48.86772 ], [ 5.50176, 48.72389 ], [ 5.39305, 48.72612 ], [ 5.38648, 48.58227 ], [ 5.27807, 48.5844 ], [ 5.27494, 48.51246 ], [ 5.16667, 48.51449 ], [ 5.1637, 48.44255 ], [ 5.27183, 48.44053 ], [ 5.26562, 48.29664 ], [ 5.15779, 48.29865 ], [ 5.15484, 48.2267 ], [ 4.83174, 48.23215 ], [ 4.82925, 48.16018 ], [ 4.72168, 48.1618 ], [ 4.717, 48.01786 ], [ 4.82428, 48.01625 ], [ 4.8218, 47.94427 ], [ 4.92892, 47.94256 ], [ 4.92631, 47.87059 ], [ 5.03328, 47.86878 ], [ 5.03053, 47.7968 ], [ 4.9237, 47.79861 ], [ 4.9211, 47.72663 ], [ 5.45444, 47.71665 ], [ 5.45776, 47.78862 ], [ 5.56454, 47.78633 ], [ 5.5715, 47.93025 ], [ 5.67857, 47.92786 ], [ 5.68221, 47.99981 ], [ 5.78941, 47.99732 ], [ 5.78562, 47.92537 ], [ 5.89267, 47.92278 ], [ 5.90054, 48.06667 ], [ 6.11517, 48.06119 ], [ 6.11094, 47.98925 ], [ 6.2181, 47.98637 ], [ 6.21374, 47.91443 ], [ 6.42773, 47.90838 ], [ 6.42309, 47.83645 ], [ 6.63674, 47.83001 ], [ 6.62692, 47.68616 ], [ 6.83994, 47.67935 ], [ 6.83476, 47.60743 ], [ 6.94111, 47.60388 ], [ 6.94643, 47.6758 ], [ 7.0529, 47.67216 ], [ 7.06387, 47.81597 ], [ 7.17062, 47.81222 ], [ 7.18194, 47.95602 ], [ 7.28896, 47.95216 ], [ 7.29478, 48.02404 ], [ 7.18762, 48.02791 ], [ 7.19903, 48.17168 ], [ 7.30648, 48.16781 ], [ 7.31825, 48.31155 ], [ 7.42598, 48.30757 ], [ 7.44419, 48.52315 ], [ 7.33601, 48.52715 ], [ 7.35993, 48.81454 ], [ 7.4687, 48.81052 ], [ 7.47487, 48.88235 ], [ 7.69265, 48.874 ], [ 7.69914, 48.94582 ], [ 7.91715, 48.93706 ], [ 7.94449, 49.22422 ], [ 7.83489, 49.22867 ], [ 7.85513, 49.444 ], [ 7.74506, 49.44837 ], [ 7.75169, 49.52014 ], [ 6.97959, 49.54795 ], [ 6.97403, 49.47614 ], [ 7.08423, 49.47248 ], [ 7.06719, 49.25704 ], [ 6.73793, 49.26769 ], [ 6.74314, 49.33953 ], [ 6.6332, 49.34289 ], [ 6.63827, 49.41472 ], [ 6.52817, 49.41798 ], [ 6.5331, 49.48981 ], [ 6.31255, 49.49604 ], [ 6.29413, 49.20865 ], [ 6.40381, 49.2056 ], [ 6.39437, 49.06188 ], [ 6.50373, 49.05874 ], [ 6.48441, 48.77126 ], [ 6.59315, 48.76803 ], [ 6.58821, 48.69615 ], [ 6.69678, 48.69283 ], [ 6.6917, 48.62096 ], [ 6.90852, 48.61403 ], [ 6.89248, 48.39839 ], [ 6.67655, 48.40529 ], [ 6.66651, 48.26149 ], [ 6.55882, 48.26479 ], [ 6.56856, 48.40859 ], [ 6.35256, 48.4149 ], [ 6.34797, 48.34299 ], [ 6.2401, 48.34599 ], [ 6.23126, 48.20215 ], [ 6.12367, 48.20505 ], [ 6.13221, 48.34889 ], [ 6.02431, 48.3517 ], [ 6.02845, 48.42362 ], [ 5.92039, 48.42633 ], [ 5.9244, 48.49825 ], [ 5.70795, 48.50338 ], [ 5.73041, 48.93485 ], [ 5.83954, 48.93231 ], [ 5.84741, 49.07609 ], [ 5.73799, 49.07864 ], [ 5.75325, 49.36614 ], [ 5.97331, 49.36093 ], [ 5.97746, 49.43279 ], [ 5.86729, 49.43545 ], [ 5.8713, 49.5073 ], [ 5.76095, 49.50986 ], [ 5.76869, 49.65356 ], [ 5.87935, 49.65099 ], [ 5.88339, 49.72283 ], [ 5.66176, 49.72787 ], [ 5.66926, 49.87154 ], [ 5.55812, 49.87392 ], [ 5.56173, 49.94575 ], [ 5.22778, 49.95228 ], [ 5.22464, 49.88045 ], [ 5.11346, 49.88242 ], [ 5.11644, 49.95426 ], [ 5.0051, 49.95614 ], [ 5.01362, 50.17162 ], [ 4.67813, 50.17666 ], [ 4.67576, 50.10483 ], [ 4.56407, 50.1063 ], [ 4.56628, 50.17813 ], [ 4.34258, 50.18078 ], [ 4.34448, 50.2526 ], [ 4.23246, 50.25378 ], [ 4.23421, 50.3256 ], [ 4.34639, 50.32442 ], [ 4.35023, 50.46804 ], [ 4.23773, 50.46922 ], [ 4.23949, 50.54101 ], [ 3.33807, 50.54675 ], [ 3.33904, 50.69034 ], [ 3.22603, 50.6906 ], [ 3.22635, 50.76238 ], [ 3.0, 50.76259 ], [ 3.0, 50.90613 ], [ 3.227, 50.90593 ], [ 3.22765, 51.04944 ], [ 3.0, 51.04965 ], [ 3.0, 51.12139 ], [ 2.65803, 51.12092 ], [ 2.65753, 51.19266 ], [ 2.54338, 51.1923 ] ], [ [ 0.57014, 49.51695 ], [ 0.90131, 49.52314 ], [ 0.90425, 49.45126 ], [ 0.57353, 49.44509 ], [ 0.57014, 49.51695 ] ], [ [ 1.34531, 49.45809 ], [ 1.45559, 49.45955 ], [ 1.45775, 49.38766 ], [ 1.34762, 49.3862 ], [ 1.34531, 49.45809 ] ], [ [ 5.6469, 49.44047 ], [ 5.7571, 49.43801 ], [ 5.75325, 49.36614 ], [ 5.64321, 49.3686 ], [ 5.6469, 49.44047 ] ], [ [ 1.67987, 49.31836 ], [ 1.78986, 49.31952 ], [ 1.79154, 49.24761 ], [ 1.6817, 49.24646 ], [ 1.67987, 49.31836 ] ], [ [ 1.89986, 49.32057 ], [ 2.00986, 49.32152 ], [ 2.01124, 49.24961 ], [ 1.90139, 49.24866 ], [ 1.89986, 49.32057 ] ], [ [ 7.06719, 49.25704 ], [ 7.17691, 49.25328 ], [ 7.17111, 49.18146 ], [ 7.06154, 49.18521 ], [ 7.06719, 49.25704 ] ], [ [ 4.7576, 49.24086 ], [ 4.86741, 49.23921 ], [ 4.86223, 49.0954 ], [ 4.75273, 49.09704 ], [ 4.7576, 49.24086 ] ], [ [ 7.14234, 48.82228 ], [ 7.25115, 48.81846 ], [ 7.24529, 48.74661 ], [ 7.13664, 48.75043 ], [ 7.14234, 48.82228 ] ], [ [ 6.9139, 48.6859 ], [ 7.02243, 48.68229 ], [ 7.0169, 48.61042 ], [ 6.90852, 48.61403 ], [ 6.9139, 48.6859 ] ], [ [ -0.47007, 48.55559 ], [ -0.36176, 48.5587 ], [ -0.35715, 48.4868 ], [ -0.46531, 48.48369 ], [ -0.47007, 48.55559 ] ], [ [ 5.26562, 48.29664 ], [ 5.37344, 48.29452 ], [ 5.3702, 48.22257 ], [ 5.26253, 48.22468 ], [ 5.26562, 48.29664 ] ] ], [ [ [ 8.32217, 47.549 ], [ 8.31502, 47.47715 ], [ 8.52694, 47.46727 ], [ 8.53438, 47.53911 ], [ 8.32217, 47.549 ] ] ], [ [ [ -3.26802, 47.42966 ], [ -3.25123, 47.28608 ], [ -3.04016, 47.29728 ], [ -3.04826, 47.36908 ], [ -3.15395, 47.36352 ], [ -3.16221, 47.43532 ], [ -3.26802, 47.42966 ] ] ], [ [ [ 4.05601, 47.16146 ], [ 4.05319, 47.01743 ], [ 4.15849, 47.01642 ], [ 4.16159, 47.16045 ], [ 4.05601, 47.16146 ] ] ], [ [ [ 9.30607, 46.84957 ], [ 9.28936, 46.70596 ], [ 9.39373, 46.70018 ], [ 9.40221, 46.77198 ], [ 9.5067, 46.7661 ], [ 9.51534, 46.83789 ], [ 9.30607, 46.84957 ] ] ], [ [ [ 8.98406, 46.79456 ], [ 8.97613, 46.72273 ], [ 9.18497, 46.71165 ], [ 9.19318, 46.78346 ], [ 8.98406, 46.79456 ] ] ], [ [ [ 7.47636, 46.35815 ], [ 7.47048, 46.28623 ], [ 7.26296, 46.29419 ], [ 7.25736, 46.22226 ], [ 7.15372, 46.22609 ], [ 7.14827, 46.15415 ], [ 7.35527, 46.1464 ], [ 7.36099, 46.21833 ], [ 7.5682, 46.21018 ], [ 7.57421, 46.2821 ], [ 7.78163, 46.27357 ], [ 7.77535, 46.20167 ], [ 7.87891, 46.19726 ], [ 7.88532, 46.26917 ], [ 7.98899, 46.26466 ], [ 7.99556, 46.33656 ], [ 7.47636, 46.35815 ] ] ], [ [ [ 5.37735, 45.9888 ], [ 5.37425, 45.91679 ], [ 5.47741, 45.91458 ], [ 5.48065, 45.98658 ], [ 5.37735, 45.9888 ] ] ], [ [ [ 6.70009, 45.66481 ], [ 6.69529, 45.59285 ], [ 6.79778, 45.58944 ], [ 6.80272, 45.66139 ], [ 6.70009, 45.66481 ] ] ], [ [ [ 8.35295, 48.91836 ], [ 8.3382, 48.7748 ], [ 8.22958, 48.77961 ], [ 8.21521, 48.63601 ], [ 8.10687, 48.64071 ], [ 8.09287, 48.49709 ], [ 7.9848, 48.50168 ], [ 7.97798, 48.42985 ], [ 8.0859, 48.42527 ], [ 8.07895, 48.35344 ], [ 8.1867, 48.34877 ], [ 8.17257, 48.20512 ], [ 7.95762, 48.21435 ], [ 7.95087, 48.1425 ], [ 8.05821, 48.13794 ], [ 8.05133, 48.0661 ], [ 7.94414, 48.07066 ], [ 7.93743, 47.99881 ], [ 8.04448, 47.99426 ], [ 8.03764, 47.92241 ], [ 7.82382, 47.9314 ], [ 7.81077, 47.78767 ], [ 7.70412, 47.792 ], [ 7.69143, 47.64825 ], [ 7.90414, 47.6395 ], [ 7.89754, 47.56763 ], [ 8.10989, 47.55851 ], [ 8.10302, 47.48665 ], [ 7.67881, 47.50448 ], [ 7.67253, 47.43259 ], [ 7.35461, 47.44493 ], [ 7.36047, 47.51684 ], [ 7.25433, 47.52076 ], [ 7.24861, 47.44886 ], [ 7.14259, 47.45268 ], [ 7.14817, 47.52459 ], [ 6.9358, 47.53196 ], [ 6.93051, 47.46004 ], [ 6.82445, 47.46357 ], [ 6.81932, 47.39164 ], [ 6.50148, 47.40166 ], [ 6.49678, 47.32971 ], [ 6.39095, 47.33285 ], [ 6.38641, 47.2609 ], [ 6.17499, 47.26688 ], [ 6.17075, 47.19492 ], [ 6.06516, 47.19776 ], [ 6.06107, 47.12579 ], [ 5.95561, 47.12853 ], [ 5.94381, 46.9126 ], [ 5.73371, 46.91778 ], [ 5.73008, 46.8458 ], [ 5.62516, 46.84824 ], [ 5.61127, 46.56026 ], [ 5.71564, 46.55783 ], [ 5.71206, 46.48584 ], [ 5.60782, 46.48827 ], [ 5.58056, 45.91227 ], [ 5.68371, 45.90987 ], [ 5.6802, 45.83787 ], [ 5.7832, 45.83538 ], [ 5.79049, 45.97937 ], [ 5.68722, 45.98187 ], [ 5.69427, 46.12586 ], [ 5.90134, 46.12076 ], [ 5.90897, 46.26474 ], [ 6.01276, 46.26204 ], [ 6.01673, 46.33402 ], [ 6.12065, 46.33123 ], [ 6.12476, 46.40321 ], [ 6.22881, 46.40031 ], [ 6.23307, 46.47229 ], [ 6.33724, 46.46929 ], [ 6.34165, 46.54126 ], [ 6.44595, 46.53817 ], [ 6.45051, 46.61013 ], [ 6.55493, 46.60694 ], [ 6.55023, 46.53498 ], [ 6.75876, 46.52831 ], [ 6.7538, 46.45636 ], [ 6.85791, 46.45289 ], [ 6.85283, 46.38093 ], [ 6.74885, 46.3844 ], [ 6.74392, 46.31244 ], [ 6.64007, 46.31581 ], [ 6.64487, 46.38777 ], [ 6.54087, 46.39105 ], [ 6.53621, 46.31908 ], [ 6.43234, 46.32226 ], [ 6.42783, 46.25029 ], [ 6.22032, 46.25635 ], [ 6.21609, 46.18438 ], [ 6.31971, 46.18139 ], [ 6.31102, 46.03744 ], [ 6.20766, 46.04042 ], [ 6.21187, 46.1124 ], [ 6.00486, 46.11807 ], [ 5.997, 45.97409 ], [ 6.10024, 45.97131 ], [ 6.09215, 45.82734 ], [ 5.98918, 45.83012 ], [ 5.98528, 45.75813 ], [ 5.88243, 45.7608 ], [ 5.87121, 45.54483 ], [ 6.17852, 45.53656 ], [ 6.18265, 45.60854 ], [ 6.2852, 45.60559 ], [ 6.28948, 45.67756 ], [ 6.59746, 45.66814 ], [ 6.60214, 45.7401 ], [ 6.49936, 45.74334 ], [ 6.50393, 45.81531 ], [ 6.70974, 45.80873 ], [ 6.71945, 45.95265 ], [ 6.61627, 45.956 ], [ 6.62101, 46.02796 ], [ 6.72431, 46.02461 ], [ 6.7292, 46.09657 ], [ 6.62576, 46.09992 ], [ 6.63529, 46.24385 ], [ 6.8427, 46.23703 ], [ 6.83766, 46.16508 ], [ 6.94121, 46.16153 ], [ 6.93089, 46.01763 ], [ 7.13741, 46.01027 ], [ 7.14827, 46.15415 ], [ 7.04474, 46.15789 ], [ 7.06609, 46.44566 ], [ 7.27421, 46.43805 ], [ 7.27985, 46.50998 ], [ 7.07146, 46.5176 ], [ 7.07684, 46.58954 ], [ 7.18118, 46.58577 ], [ 7.18672, 46.65771 ], [ 7.29119, 46.65384 ], [ 7.28551, 46.58191 ], [ 7.49412, 46.57391 ], [ 7.50007, 46.64583 ], [ 7.60449, 46.64168 ], [ 7.5984, 46.56976 ], [ 7.70267, 46.56552 ], [ 7.70889, 46.63743 ], [ 7.81328, 46.63309 ], [ 7.80691, 46.56119 ], [ 7.91115, 46.55676 ], [ 7.92416, 46.70055 ], [ 8.13312, 46.69138 ], [ 8.14676, 46.83514 ], [ 8.46089, 46.82063 ], [ 8.46815, 46.89249 ], [ 8.57296, 46.88746 ], [ 8.55819, 46.74376 ], [ 8.6627, 46.73864 ], [ 8.67022, 46.81049 ], [ 8.77485, 46.80527 ], [ 8.78253, 46.87711 ], [ 8.67776, 46.88233 ], [ 8.68531, 46.95418 ], [ 8.79022, 46.94895 ], [ 8.79794, 47.02078 ], [ 9.00797, 47.01002 ], [ 8.99998, 46.9382 ], [ 9.20965, 46.92708 ], [ 9.21793, 46.99888 ], [ 9.11296, 47.0045 ], [ 9.12111, 47.07631 ], [ 9.43636, 47.05915 ], [ 9.42779, 46.98736 ], [ 9.53268, 46.98145 ], [ 9.51534, 46.83789 ], [ 9.61993, 46.8319 ], [ 9.64641, 47.04723 ], [ 9.54139, 47.05323 ], [ 9.55013, 47.12501 ], [ 9.65528, 47.119 ], [ 9.67309, 47.26253 ], [ 9.56766, 47.26856 ], [ 9.58529, 47.41209 ], [ 9.691, 47.40605 ], [ 9.782, 48.12345 ], [ 9.67486, 48.12958 ], [ 9.68395, 48.20131 ], [ 9.57665, 48.20735 ], [ 9.55878, 48.06387 ], [ 9.45174, 48.06979 ], [ 9.44299, 47.99804 ], [ 9.33607, 48.00386 ], [ 9.32748, 47.9321 ], [ 9.22068, 47.93781 ], [ 9.23759, 48.08135 ], [ 9.02335, 48.09252 ], [ 9.01517, 48.02074 ], [ 8.90816, 48.02617 ], [ 8.90015, 47.95437 ], [ 8.68636, 47.96493 ], [ 8.67865, 47.89312 ], [ 8.35823, 47.9082 ], [ 8.36551, 47.98003 ], [ 8.25852, 47.98487 ], [ 8.26566, 48.0567 ], [ 8.58701, 48.04187 ], [ 8.61753, 48.32908 ], [ 8.50985, 48.33415 ], [ 8.54012, 48.62132 ], [ 8.43184, 48.62632 ], [ 8.43931, 48.6981 ], [ 8.54774, 48.6931 ], [ 8.55538, 48.76488 ], [ 8.4468, 48.76989 ], [ 8.46185, 48.91344 ], [ 8.35295, 48.91836 ] ], [ [ 8.88419, 47.81078 ], [ 9.09733, 47.79986 ], [ 9.0891, 47.72808 ], [ 9.19549, 47.72248 ], [ 9.18714, 47.6507 ], [ 9.08089, 47.65628 ], [ 9.0727, 47.58449 ], [ 8.96657, 47.58997 ], [ 8.95854, 47.51817 ], [ 8.64045, 47.53402 ], [ 8.62531, 47.39036 ], [ 8.41371, 47.40042 ], [ 8.40646, 47.32857 ], [ 7.98359, 47.34751 ], [ 7.99029, 47.41938 ], [ 8.20204, 47.41009 ], [ 8.21604, 47.55381 ], [ 8.10989, 47.55851 ], [ 8.11678, 47.63037 ], [ 8.32935, 47.62085 ], [ 8.33654, 47.69269 ], [ 8.44294, 47.68778 ], [ 8.45029, 47.75962 ], [ 8.55681, 47.7546 ], [ 8.54931, 47.68277 ], [ 8.65567, 47.67767 ], [ 8.66331, 47.74949 ], [ 8.87625, 47.73898 ], [ 8.88419, 47.81078 ] ], [ [ 9.28489, 47.57323 ], [ 9.39095, 47.56746 ], [ 9.38236, 47.49568 ], [ 9.27644, 47.50145 ], [ 9.28489, 47.57323 ] ], [ [ 7.87783, 47.352 ], [ 7.98359, 47.34751 ], [ 7.97692, 47.27563 ], [ 7.8713, 47.28012 ], [ 7.87783, 47.352 ] ], [ [ 9.35673, 47.28033 ], [ 9.46221, 47.27449 ], [ 9.45357, 47.20271 ], [ 9.34823, 47.20855 ], [ 9.35673, 47.28033 ] ], [ [ 7.76566, 47.28451 ], [ 7.8713, 47.28012 ], [ 7.86478, 47.20824 ], [ 7.75929, 47.21262 ], [ 7.76566, 47.28451 ] ], [ [ 8.39922, 47.25672 ], [ 8.50475, 47.25175 ], [ 8.49005, 47.10805 ], [ 8.3848, 47.11301 ], [ 8.39922, 47.25672 ] ], [ [ 8.92666, 47.23091 ], [ 9.03208, 47.22547 ], [ 9.02403, 47.15365 ], [ 8.91874, 47.1591 ], [ 8.92666, 47.23091 ] ], [ [ 7.54824, 47.22111 ], [ 7.65377, 47.21691 ], [ 7.64135, 47.07312 ], [ 7.5361, 47.0773 ], [ 7.54824, 47.22111 ] ], [ [ 7.33133, 47.15729 ], [ 7.43676, 47.1533 ], [ 7.43084, 47.08139 ], [ 7.32555, 47.08538 ], [ 7.33133, 47.15729 ] ], [ [ 8.27954, 47.11787 ], [ 8.3848, 47.11301 ], [ 8.37762, 47.04115 ], [ 8.2725, 47.046 ], [ 8.27954, 47.11787 ] ], [ [ 8.04872, 46.91166 ], [ 8.15361, 46.90701 ], [ 8.14676, 46.83514 ], [ 8.04201, 46.83978 ], [ 8.04872, 46.91166 ] ], [ [ 7.83246, 46.84878 ], [ 8.04201, 46.83978 ], [ 8.03532, 46.7679 ], [ 7.82605, 46.77689 ], [ 7.83246, 46.84878 ] ], [ [ 7.72139, 46.78124 ], [ 7.82605, 46.77689 ], [ 7.81966, 46.70499 ], [ 7.71513, 46.70934 ], [ 7.72139, 46.78124 ] ], [ [ 6.77372, 46.74417 ], [ 6.87838, 46.74068 ], [ 6.87324, 46.66873 ], [ 6.76872, 46.67222 ], [ 6.77372, 46.74417 ] ], [ [ 7.29688, 46.72577 ], [ 7.40146, 46.7218 ], [ 7.39564, 46.64988 ], [ 7.29119, 46.65384 ], [ 7.29688, 46.72577 ] ], [ [ 6.84776, 46.30898 ], [ 6.95158, 46.30543 ], [ 6.94639, 46.23348 ], [ 6.8427, 46.23703 ], [ 6.84776, 46.30898 ] ], [ [ 6.41436, 46.03438 ], [ 6.51769, 46.03122 ], [ 6.50393, 45.81531 ], [ 6.401, 45.81846 ], [ 6.41436, 46.03438 ] ] ], [ [ [ 5.66975, 45.62188 ], [ 5.66629, 45.54988 ], [ 5.76875, 45.5474 ], [ 5.77235, 45.6194 ], [ 5.66975, 45.62188 ] ] ], [ [ [ 6.59278, 45.59618 ], [ 6.58812, 45.52421 ], [ 6.69049, 45.52089 ], [ 6.69529, 45.59285 ], [ 6.59278, 45.59618 ] ] ], [ [ [ 6.38774, 45.60254 ], [ 6.37896, 45.4586 ], [ 6.48122, 45.45547 ], [ 6.47672, 45.3835 ], [ 6.57884, 45.38029 ], [ 6.58812, 45.52421 ], [ 6.48574, 45.52744 ], [ 6.49027, 45.59941 ], [ 6.38774, 45.60254 ] ] ], [ [ [ 5.96596, 45.39819 ], [ 5.9583, 45.25423 ], [ 6.06021, 45.25148 ], [ 6.06813, 45.39544 ], [ 5.96596, 45.39819 ] ] ], [ [ [ 6.17852, 45.53656 ], [ 6.1744, 45.46458 ], [ 6.07211, 45.46743 ], [ 6.06813, 45.39544 ], [ 6.17029, 45.3926 ], [ 6.15803, 45.17667 ], [ 6.46327, 45.16761 ], [ 6.46774, 45.23957 ], [ 6.36588, 45.24269 ], [ 6.37023, 45.31466 ], [ 6.26822, 45.31769 ], [ 6.28094, 45.53361 ], [ 6.17852, 45.53656 ] ] ], [ [ [ 5.76875, 45.5474 ], [ 5.76516, 45.47541 ], [ 5.66283, 45.47789 ], [ 5.65594, 45.3339 ], [ 5.55386, 45.33627 ], [ 5.55056, 45.26427 ], [ 5.65251, 45.2619 ], [ 5.64909, 45.18991 ], [ 5.7509, 45.18745 ], [ 5.75445, 45.25944 ], [ 5.85638, 45.25688 ], [ 5.86378, 45.40085 ], [ 5.96596, 45.39819 ], [ 5.9698, 45.47018 ], [ 5.86749, 45.47284 ], [ 5.87121, 45.54483 ], [ 5.76875, 45.5474 ] ] ], [ [ [ 5.85638, 45.25688 ], [ 5.85269, 45.18489 ], [ 5.95448, 45.18224 ], [ 5.9583, 45.25423 ], [ 5.85638, 45.25688 ] ] ], [ [ [ 6.8701, 45.15423 ], [ 6.86512, 45.08229 ], [ 6.96666, 45.07872 ], [ 6.97177, 45.15066 ], [ 6.8701, 45.15423 ] ] ], [ [ [ 6.44109, 44.80781 ], [ 6.43669, 44.73585 ], [ 6.53764, 44.73267 ], [ 6.54217, 44.80462 ], [ 6.44109, 44.80781 ] ] ], [ [ [ 5.12078, 44.69681 ], [ 5.11807, 44.62482 ], [ 5.21888, 44.62284 ], [ 5.22171, 44.69483 ], [ 5.12078, 44.69681 ] ] ], [ [ [ 5.21605, 44.55085 ], [ 5.21322, 44.47886 ], [ 5.31377, 44.47679 ], [ 5.31672, 44.54878 ], [ 5.21605, 44.55085 ] ] ], [ [ [ 6.51515, 44.37293 ], [ 6.51069, 44.30099 ], [ 6.61086, 44.29775 ], [ 6.61545, 44.36968 ], [ 6.51515, 44.37293 ] ] ], [ [ [ 5.2048, 44.2629 ], [ 5.202, 44.19092 ], [ 5.30204, 44.18887 ], [ 5.30496, 44.26085 ], [ 5.2048, 44.2629 ] ] ], [ [ [ 1.65247, 46.14983 ], [ 1.65424, 46.0778 ], [ 1.75774, 46.07898 ], [ 1.75937, 46.00695 ], [ 1.86274, 46.00804 ], [ 1.86423, 45.936 ], [ 1.76099, 45.93492 ], [ 1.76422, 45.79086 ], [ 1.86719, 45.79194 ], [ 1.86866, 45.71991 ], [ 1.76583, 45.71883 ], [ 1.77223, 45.43071 ], [ 2.18145, 45.43445 ], [ 2.18251, 45.36241 ], [ 2.28469, 45.36311 ], [ 2.28376, 45.43515 ], [ 2.59071, 45.43669 ], [ 2.59124, 45.36465 ], [ 2.48906, 45.36423 ], [ 2.48972, 45.2922 ], [ 2.38766, 45.29169 ], [ 2.39081, 45.00356 ], [ 2.59387, 45.00449 ], [ 2.59439, 44.93246 ], [ 2.69579, 44.93279 ], [ 2.69735, 44.64469 ], [ 2.79823, 44.64492 ], [ 2.79849, 44.5729 ], [ 3.0, 44.57308 ], [ 3.0, 44.50106 ], [ 3.20125, 44.50088 ], [ 3.201, 44.42886 ], [ 3.0, 44.42905 ], [ 3.0, 44.35703 ], [ 2.69889, 44.35662 ], [ 2.69965, 44.2126 ], [ 2.59954, 44.21228 ], [ 2.60004, 44.14028 ], [ 2.90001, 44.14096 ], [ 2.89988, 44.21297 ], [ 3.0, 44.21301 ], [ 3.0, 44.28502 ], [ 3.10024, 44.28498 ], [ 3.10037, 44.35699 ], [ 3.20074, 44.35685 ], [ 3.19998, 44.14082 ], [ 3.09999, 44.14096 ], [ 3.09986, 44.06896 ], [ 3.0, 44.069 ], [ 3.0, 43.925 ], [ 3.09961, 43.92496 ], [ 3.09949, 43.85296 ], [ 3.19897, 43.85283 ], [ 3.19922, 43.92482 ], [ 3.29883, 43.9246 ], [ 3.29921, 43.99659 ], [ 3.49868, 43.99587 ], [ 3.49931, 44.06786 ], [ 3.59917, 44.06736 ], [ 3.60145, 44.28338 ], [ 3.80193, 44.2821 ], [ 3.80294, 44.3541 ], [ 3.9033, 44.35333 ], [ 3.90676, 44.56936 ], [ 4.0075, 44.56849 ], [ 4.00879, 44.6405 ], [ 4.10966, 44.63953 ], [ 4.1125, 44.78357 ], [ 4.41585, 44.78011 ], [ 4.41949, 44.92414 ], [ 4.31811, 44.92539 ], [ 4.31981, 44.99741 ], [ 4.42131, 44.99616 ], [ 4.42497, 45.14019 ], [ 4.52673, 45.13885 ], [ 4.53465, 45.42693 ], [ 4.22777, 45.43071 ], [ 4.22936, 45.50274 ], [ 4.0245, 45.5048 ], [ 4.02716, 45.64886 ], [ 3.92445, 45.64975 ], [ 3.93051, 46.00992 ], [ 3.82713, 46.01072 ], [ 3.8293, 46.15479 ], [ 3.72564, 46.1555 ], [ 3.72374, 46.01143 ], [ 3.51696, 46.01256 ], [ 3.51629, 45.94053 ], [ 3.61954, 45.94001 ], [ 3.61873, 45.86797 ], [ 3.51561, 45.86849 ], [ 3.51494, 45.79645 ], [ 3.61793, 45.79593 ], [ 3.61712, 45.7239 ], [ 3.51427, 45.72441 ], [ 3.5136, 45.65238 ], [ 3.41088, 45.6528 ], [ 3.41035, 45.58076 ], [ 3.30776, 45.58109 ], [ 3.30697, 45.43701 ], [ 3.40929, 45.43669 ], [ 3.40823, 45.29262 ], [ 3.20412, 45.29318 ], [ 3.20438, 45.36521 ], [ 3.10219, 45.36535 ], [ 3.10259, 45.58146 ], [ 3.0, 45.58151 ], [ 3.0, 45.14929 ], [ 2.89821, 45.14925 ], [ 2.89661, 46.0137 ], [ 2.79321, 46.01355 ], [ 2.79267, 46.15763 ], [ 2.689, 46.1574 ], [ 2.68941, 46.08536 ], [ 2.58588, 46.08503 ], [ 2.58643, 46.01299 ], [ 2.37965, 46.01204 ], [ 2.37883, 46.08408 ], [ 2.48236, 46.0846 ], [ 2.48168, 46.15664 ], [ 2.27436, 46.1555 ], [ 2.27531, 46.08347 ], [ 2.17179, 46.08276 ], [ 2.1707, 46.15479 ], [ 2.06705, 46.15399 ], [ 2.06827, 46.08196 ], [ 1.96476, 46.08106 ], [ 1.9634, 46.15309 ], [ 1.65247, 46.14983 ] ], [ [ 2.58643, 46.01299 ], [ 2.68982, 46.01332 ], [ 2.69063, 45.86924 ], [ 2.58751, 45.86891 ], [ 2.58643, 46.01299 ] ], [ [ 4.12547, 45.43179 ], [ 4.22777, 45.43071 ], [ 4.22618, 45.35869 ], [ 4.12402, 45.35976 ], [ 4.12547, 45.43179 ] ], [ [ 4.02184, 45.36074 ], [ 4.12402, 45.35976 ], [ 4.12256, 45.28773 ], [ 4.02052, 45.28871 ], [ 4.02184, 45.36074 ] ], [ [ 3.40823, 45.29262 ], [ 3.51028, 45.2922 ], [ 3.50897, 45.14813 ], [ 3.40718, 45.14855 ], [ 3.40823, 45.29262 ] ], [ [ 3.40199, 44.42831 ], [ 3.60298, 44.4274 ], [ 3.60222, 44.35538 ], [ 3.40148, 44.3563 ], [ 3.40199, 44.42831 ] ] ], [ [ [ 2.50257, 43.85188 ], [ 2.5032, 43.77989 ], [ 2.60256, 43.78029 ], [ 2.60206, 43.85228 ], [ 2.50257, 43.85188 ] ] ], [ [ [ 5.34362, 45.19674 ], [ 5.33759, 45.05274 ], [ 5.23601, 45.05482 ], [ 5.23313, 44.98282 ], [ 5.13168, 44.98481 ], [ 5.12894, 44.91281 ], [ 5.23027, 44.91082 ], [ 5.22741, 44.83882 ], [ 5.3286, 44.83675 ], [ 5.32562, 44.76475 ], [ 5.42667, 44.76258 ], [ 5.42356, 44.69059 ], [ 5.32264, 44.69276 ], [ 5.31672, 44.54878 ], [ 5.41738, 44.54662 ], [ 5.4143, 44.47464 ], [ 5.51483, 44.47239 ], [ 5.51164, 44.40041 ], [ 5.41123, 44.40266 ], [ 5.40817, 44.33068 ], [ 5.30789, 44.33283 ], [ 5.30496, 44.26085 ], [ 5.40512, 44.2587 ], [ 5.40207, 44.18672 ], [ 5.30204, 44.18887 ], [ 5.29622, 44.04492 ], [ 5.49576, 44.04055 ], [ 5.49261, 43.96859 ], [ 5.59225, 43.96627 ], [ 5.59552, 44.03823 ], [ 5.89475, 44.03072 ], [ 5.89842, 44.10268 ], [ 5.79856, 44.10527 ], [ 5.80565, 44.2492 ], [ 5.70553, 44.25171 ], [ 5.70897, 44.32368 ], [ 5.80922, 44.32116 ], [ 5.81279, 44.39313 ], [ 5.91316, 44.39052 ], [ 5.90946, 44.31855 ], [ 6.00969, 44.31586 ], [ 6.00587, 44.2439 ], [ 5.90577, 44.24659 ], [ 5.90209, 44.17463 ], [ 6.00206, 44.17194 ], [ 5.99827, 44.09999 ], [ 6.19794, 44.09434 ], [ 6.18184, 43.80659 ], [ 6.28116, 43.80364 ], [ 6.27292, 43.65979 ], [ 6.6691, 43.64714 ], [ 6.67371, 43.71905 ], [ 6.87198, 43.71217 ], [ 6.87685, 43.78407 ], [ 6.97609, 43.78049 ], [ 6.9811, 43.85239 ], [ 6.78235, 43.85947 ], [ 6.79191, 44.0033 ], [ 6.99115, 43.9962 ], [ 6.98612, 43.9243 ], [ 7.08559, 43.92062 ], [ 7.09075, 43.99252 ], [ 7.28992, 43.98488 ], [ 7.28451, 43.91299 ], [ 7.48337, 43.905 ], [ 7.48903, 43.97688 ], [ 7.68808, 43.96852 ], [ 7.69994, 44.11226 ], [ 7.60017, 44.1165 ], [ 7.606, 44.18839 ], [ 7.50609, 44.19254 ], [ 7.4947, 44.04876 ], [ 7.09592, 44.06442 ], [ 7.1063, 44.20824 ], [ 6.90633, 44.21554 ], [ 6.90139, 44.14362 ], [ 6.70162, 44.15055 ], [ 6.69694, 44.07863 ], [ 6.59716, 44.08195 ], [ 6.60171, 44.15388 ], [ 6.5018, 44.15712 ], [ 6.50624, 44.22906 ], [ 6.40619, 44.23221 ], [ 6.41485, 44.37609 ], [ 6.51515, 44.37293 ], [ 6.52861, 44.58877 ], [ 6.62928, 44.58551 ], [ 6.63857, 44.7294 ], [ 6.53764, 44.73267 ], [ 6.53312, 44.66072 ], [ 6.4323, 44.66389 ], [ 6.42792, 44.59194 ], [ 6.22651, 44.59801 ], [ 6.23063, 44.66997 ], [ 6.12978, 44.67287 ], [ 6.1378, 44.8168 ], [ 5.93555, 44.82234 ], [ 5.9431, 44.9663 ], [ 6.04448, 44.96357 ], [ 6.05233, 45.10752 ], [ 5.84902, 45.1129 ], [ 5.85269, 45.18489 ], [ 5.7509, 45.18745 ], [ 5.74382, 45.04347 ], [ 5.64227, 45.04592 ], [ 5.64909, 45.18991 ], [ 5.34362, 45.19674 ] ], [ [ 5.84536, 45.04092 ], [ 5.94688, 45.03828 ], [ 5.9431, 44.9663 ], [ 5.8417, 44.96894 ], [ 5.84536, 45.04092 ] ], [ [ 5.72977, 44.75553 ], [ 5.83079, 44.753 ], [ 5.82717, 44.68102 ], [ 5.92805, 44.67839 ], [ 5.92431, 44.60642 ], [ 5.7228, 44.61157 ], [ 5.72977, 44.75553 ] ], [ [ 6.2224, 44.52605 ], [ 6.32298, 44.52307 ], [ 6.31875, 44.45111 ], [ 6.21829, 44.45409 ], [ 6.2224, 44.52605 ] ], [ [ 5.91687, 44.46248 ], [ 6.01735, 44.45978 ], [ 6.01352, 44.38782 ], [ 5.91316, 44.39052 ], [ 5.91687, 44.46248 ] ], [ [ 6.90139, 44.14362 ], [ 7.00125, 44.14002 ], [ 6.9962, 44.06811 ], [ 6.89645, 44.07171 ], [ 6.90139, 44.14362 ] ] ], [ [ [ 2.70154, 43.8526 ], [ 2.70192, 43.78061 ], [ 2.60256, 43.78029 ], [ 2.60306, 43.70831 ], [ 2.50383, 43.7079 ], [ 2.50445, 43.63592 ], [ 2.40534, 43.63542 ], [ 2.40609, 43.56344 ], [ 2.50507, 43.56394 ], [ 2.50569, 43.49196 ], [ 2.11027, 43.48944 ], [ 2.11138, 43.41747 ], [ 2.60504, 43.42039 ], [ 2.60405, 43.56434 ], [ 2.80203, 43.56488 ], [ 2.80178, 43.63686 ], [ 3.0, 43.63705 ], [ 3.0, 43.78102 ], [ 2.90064, 43.78097 ], [ 2.90051, 43.85296 ], [ 2.70154, 43.8526 ] ] ], [ [ [ 2.41561, 42.62808 ], [ 2.41633, 42.55616 ], [ 2.51361, 42.55665 ], [ 2.51301, 42.62857 ], [ 2.41561, 42.62808 ] ] ], [ [ [ 1.4418, 42.61832 ], [ 1.44563, 42.47452 ], [ 1.54276, 42.47589 ], [ 1.53916, 42.6197 ], [ 1.4418, 42.61832 ] ] ], [ [ [ 2.51361, 42.55665 ], [ 2.5142, 42.48474 ], [ 2.61136, 42.48513 ], [ 2.61088, 42.55705 ], [ 2.51361, 42.55665 ] ] ], [ [ [ -1.61816, 43.10629 ], [ -1.61243, 43.03446 ], [ -1.51451, 43.03862 ], [ -1.50891, 42.96678 ], [ -1.11757, 42.9825 ], [ -1.11247, 42.91065 ], [ -0.8192, 42.92149 ], [ -0.82394, 42.99335 ], [ -0.72604, 42.99678 ], [ -0.72142, 42.92492 ], [ -0.62362, 42.92826 ], [ -0.61914, 42.8564 ], [ -0.52146, 42.85965 ], [ -0.52582, 42.93152 ], [ -0.42801, 42.93469 ], [ -0.43226, 43.00656 ], [ -0.33431, 43.00965 ], [ -0.33018, 42.93776 ], [ -0.1345, 42.94365 ], [ -0.13062, 42.87177 ], [ -0.03288, 42.87457 ], [ -0.04042, 43.01836 ], [ 0.05757, 43.02108 ], [ 0.06122, 42.94919 ], [ 0.25697, 42.95436 ], [ 0.26376, 42.81057 ], [ 0.36141, 42.81302 ], [ 0.36467, 42.74112 ], [ 0.6573, 42.74792 ], [ 0.66019, 42.67603 ], [ 0.85508, 42.68011 ], [ 0.85243, 42.75201 ], [ 0.75486, 42.75001 ], [ 0.75208, 42.82192 ], [ 1.14287, 42.8294 ], [ 1.14516, 42.75748 ], [ 1.63316, 42.76482 ], [ 1.63485, 42.6929 ], [ 1.92734, 42.69623 ], [ 1.92601, 42.76815 ], [ 2.02364, 42.76909 ], [ 2.02725, 42.55333 ], [ 1.83272, 42.55138 ], [ 1.83416, 42.47947 ], [ 1.73702, 42.47836 ], [ 1.73857, 42.40646 ], [ 2.02964, 42.40951 ], [ 2.02844, 42.48142 ], [ 2.31989, 42.48367 ], [ 2.32156, 42.33986 ], [ 2.5154, 42.34092 ], [ 2.5142, 42.48474 ], [ 2.41705, 42.48425 ], [ 2.41633, 42.55616 ], [ 2.31906, 42.55559 ], [ 2.31737, 42.69943 ], [ 2.41489, 42.7 ], [ 2.41416, 42.77193 ], [ 2.31653, 42.77135 ], [ 2.31568, 42.84329 ], [ 2.12018, 42.84186 ], [ 2.11909, 42.9138 ], [ 1.82549, 42.91099 ], [ 1.82403, 42.98293 ], [ 1.72605, 42.98181 ], [ 1.72763, 42.90987 ], [ 1.62977, 42.90867 ], [ 1.62807, 42.9806 ], [ 1.23621, 42.97489 ], [ 1.2384, 42.90296 ], [ 1.14056, 42.90131 ], [ 1.13826, 42.97324 ], [ 1.04031, 42.9715 ], [ 1.03788, 43.04342 ], [ 0.64566, 43.03556 ], [ 0.64858, 42.96364 ], [ 0.55067, 42.96146 ], [ 0.54763, 43.03337 ], [ 0.25357, 43.02626 ], [ 0.25015, 43.09817 ], [ -0.43653, 43.07845 ], [ -0.4408, 43.15033 ], [ -0.53898, 43.14715 ], [ -0.53458, 43.07527 ], [ -0.9267, 43.06168 ], [ -0.93158, 43.13354 ], [ -1.12781, 43.1262 ], [ -1.12269, 43.05435 ], [ -1.22066, 43.05055 ], [ -1.22591, 43.1224 ], [ -1.61816, 43.10629 ] ], [ [ 1.53192, 42.90738 ], [ 1.62977, 42.90867 ], [ 1.63147, 42.83674 ], [ 1.53374, 42.83545 ], [ 1.53192, 42.90738 ] ], [ [ 2.12235, 42.69801 ], [ 2.21986, 42.69876 ], [ 2.22082, 42.62684 ], [ 2.12343, 42.62608 ], [ 2.12235, 42.69801 ] ] ], [ [ [ 8.93753, 42.53658 ], [ 8.93024, 42.46487 ], [ 8.83338, 42.47022 ], [ 8.81907, 42.3268 ], [ 8.72243, 42.33205 ], [ 8.71542, 42.26033 ], [ 8.90845, 42.24976 ], [ 8.90123, 42.17807 ], [ 8.9976, 42.17266 ], [ 9.03449, 42.53113 ], [ 8.93753, 42.53658 ] ] ] ] } },
{ "type": "Feature", "properties": { "nb_generations": 2, "surface_km2": 355328.0, "libelle": "2 generation(s) achevee(s)", "couleur": "#35B779FF", "date_situation": "2026-08-19", "modele": "STENO-DJ v1", "exposition": "sunny", "k_ecorce": 0.2 }, "geometry": { "type": "MultiPolygon", "coordinates": [ [ [ [ 0.57014, 49.51695 ], [ 0.57353, 49.44509 ], [ 0.90425, 49.45126 ], [ 0.90131, 49.52314 ], [ 0.57014, 49.51695 ] ] ], [ [ [ 1.34531, 49.45809 ], [ 1.34762, 49.3862 ], [ 1.45775, 49.38766 ], [ 1.45559, 49.45955 ], [ 1.34531, 49.45809 ] ] ], [ [ [ 5.6469, 49.44047 ], [ 5.64321, 49.3686 ], [ 5.75325, 49.36614 ], [ 5.7571, 49.43801 ], [ 5.6469, 49.44047 ] ] ], [ [ [ 1.67987, 49.31836 ], [ 1.6817, 49.24646 ], [ 1.79154, 49.24761 ], [ 1.78986, 49.31952 ], [ 1.67987, 49.31836 ] ] ], [ [ [ 1.89986, 49.32057 ], [ 1.90139, 49.24866 ], [ 2.01124, 49.24961 ], [ 2.00986, 49.32152 ], [ 1.89986, 49.32057 ] ] ], [ [ [ 4.7576, 49.24086 ], [ 4.75273, 49.09704 ], [ 4.86223, 49.0954 ], [ 4.86741, 49.23921 ], [ 4.7576, 49.24086 ] ] ], [ [ [ 1.90291, 49.17675 ], [ 1.90444, 49.10483 ], [ 2.01398, 49.10577 ], [ 2.01261, 49.1777 ], [ 1.90291, 49.17675 ] ] ], [ [ [ 7.14234, 48.82228 ], [ 7.13664, 48.75043 ], [ 7.24529, 48.74661 ], [ 7.25115, 48.81846 ], [ 7.14234, 48.82228 ] ] ], [ [ [ 6.9139, 48.6859 ], [ 6.90852, 48.61403 ], [ 7.0169, 48.61042 ], [ 7.02243, 48.68229 ], [ 6.9139, 48.6859 ] ] ], [ [ [ -0.47007, 48.55559 ], [ -0.46531, 48.48369 ], [ -0.35715, 48.4868 ], [ -0.36176, 48.5587 ], [ -0.47007, 48.55559 ] ] ], [ [ [ 5.76869, 49.65356 ], [ 5.76095, 49.50986 ], [ 5.8713, 49.5073 ], [ 5.86729, 49.43545 ], [ 5.97746, 49.43279 ], [ 5.97331, 49.36093 ], [ 5.75325, 49.36614 ], [ 5.73799, 49.07864 ], [ 5.84741, 49.07609 ], [ 5.83954, 48.93231 ], [ 5.73041, 48.93485 ], [ 5.70795, 48.50338 ], [ 5.9244, 48.49825 ], [ 5.92039, 48.42633 ], [ 6.02845, 48.42362 ], [ 6.02431, 48.3517 ], [ 6.13221, 48.34889 ], [ 6.12367, 48.20505 ], [ 6.23126, 48.20215 ], [ 6.2401, 48.34599 ], [ 6.34797, 48.34299 ], [ 6.35256, 48.4149 ], [ 6.56856, 48.40859 ], [ 6.55882, 48.26479 ], [ 6.66651, 48.26149 ], [ 6.67655, 48.40529 ], [ 6.89248, 48.39839 ], [ 6.90852, 48.61403 ], [ 6.6917, 48.62096 ], [ 6.69678, 48.69283 ], [ 6.58821, 48.69615 ], [ 6.59315, 48.76803 ], [ 6.48441, 48.77126 ], [ 6.50373, 49.05874 ], [ 6.39437, 49.06188 ], [ 6.40381, 49.2056 ], [ 6.29413, 49.20865 ], [ 6.31719, 49.56788 ], [ 6.09627, 49.57371 ], [ 6.09195, 49.50187 ], [ 5.98163, 49.50464 ], [ 5.98999, 49.64832 ], [ 5.76869, 49.65356 ] ] ], [ [ [ 5.26562, 48.29664 ], [ 5.26253, 48.22468 ], [ 5.3702, 48.22257 ], [ 5.37344, 48.29452 ], [ 5.26562, 48.29664 ] ] ], [ [ [ -4.27773, 47.80461 ], [ -4.2679, 47.73291 ], [ -4.0553, 47.74596 ], [ -4.06483, 47.81767 ], [ -4.27773, 47.80461 ] ] ], [ [ [ 8.88419, 47.81078 ], [ 8.87625, 47.73898 ], [ 9.0891, 47.72808 ], [ 9.09733, 47.79986 ], [ 8.88419, 47.81078 ] ] ], [ [ [ 8.45029, 47.75962 ], [ 8.44294, 47.68778 ], [ 8.54931, 47.68277 ], [ 8.55681, 47.7546 ], [ 8.45029, 47.75962 ] ] ], [ [ [ 9.0891, 47.72808 ], [ 9.08089, 47.65628 ], [ 9.18714, 47.6507 ], [ 9.19549, 47.72248 ], [ 9.0891, 47.72808 ] ] ], [ [ [ 9.28489, 47.57323 ], [ 9.27644, 47.50145 ], [ 9.38236, 47.49568 ], [ 9.39095, 47.56746 ], [ 9.28489, 47.57323 ] ] ], [ [ [ -2.95054, 47.44636 ], [ -2.9346, 47.30273 ], [ -2.82901, 47.30809 ], [ -2.84467, 47.45173 ], [ -2.95054, 47.44636 ] ] ], [ [ [ 9.58529, 47.41209 ], [ 9.56766, 47.26856 ], [ 9.67309, 47.26253 ], [ 9.691, 47.40605 ], [ 9.58529, 47.41209 ] ] ], [ [ [ 8.66331, 47.74949 ], [ 8.65567, 47.67767 ], [ 8.54931, 47.68277 ], [ 8.54184, 47.61094 ], [ 8.4356, 47.61595 ], [ 8.44294, 47.68778 ], [ 8.33654, 47.69269 ], [ 8.32935, 47.62085 ], [ 8.11678, 47.63037 ], [ 8.10989, 47.55851 ], [ 8.21604, 47.55381 ], [ 8.20204, 47.41009 ], [ 7.99029, 47.41938 ], [ 7.98359, 47.34751 ], [ 8.40646, 47.32857 ], [ 8.41371, 47.40042 ], [ 8.62531, 47.39036 ], [ 8.64045, 47.53402 ], [ 8.95854, 47.51817 ], [ 8.96657, 47.58997 ], [ 9.0727, 47.58449 ], [ 9.08089, 47.65628 ], [ 8.86832, 47.66717 ], [ 8.87625, 47.73898 ], [ 8.66331, 47.74949 ] ], [ [ 8.32217, 47.549 ], [ 8.53438, 47.53911 ], [ 8.52694, 47.46727 ], [ 8.31502, 47.47715 ], [ 8.32217, 47.549 ] ] ], [ [ [ -3.14571, 47.29172 ], [ -3.13749, 47.21992 ], [ -3.03208, 47.22547 ], [ -3.04016, 47.29728 ], [ -3.14571, 47.29172 ] ] ], [ [ [ 7.87783, 47.352 ], [ 7.8713, 47.28012 ], [ 7.97692, 47.27563 ], [ 7.98359, 47.34751 ], [ 7.87783, 47.352 ] ] ], [ [ [ 7.76566, 47.28451 ], [ 7.75929, 47.21262 ], [ 7.86478, 47.20824 ], [ 7.8713, 47.28012 ], [ 7.76566, 47.28451 ] ] ], [ [ [ 8.92666, 47.23091 ], [ 8.91874, 47.1591 ], [ 9.02403, 47.15365 ], [ 9.03208, 47.22547 ], [ 8.92666, 47.23091 ] ] ], [ [ [ 8.39922, 47.25672 ], [ 8.3848, 47.11301 ], [ 8.49005, 47.10805 ], [ 8.50475, 47.25175 ], [ 8.39922, 47.25672 ] ] ], [ [ [ 7.54824, 47.22111 ], [ 7.5361, 47.0773 ], [ 7.64135, 47.07312 ], [ 7.65377, 47.21691 ], [ 7.54824, 47.22111 ] ] ], [ [ [ 7.33133, 47.15729 ], [ 7.32555, 47.08538 ], [ 7.43084, 47.08139 ], [ 7.43676, 47.1533 ], [ 7.33133, 47.15729 ] ] ], [ [ [ 8.27954, 47.11787 ], [ 8.2725, 47.046 ], [ 8.37762, 47.04115 ], [ 8.3848, 47.11301 ], [ 8.27954, 47.11787 ] ] ], [ [ [ -2.3491, 46.7537 ], [ -2.34201, 46.68183 ], [ -2.23758, 46.68665 ], [ -2.24452, 46.75853 ], [ -2.3491, 46.7537 ] ] ], [ [ [ 6.77372, 46.74417 ], [ 6.76872, 46.67222 ], [ 6.87324, 46.66873 ], [ 6.87838, 46.74068 ], [ 6.77372, 46.74417 ] ] ], [ [ [ 5.61127, 46.56026 ], [ 5.60782, 46.48827 ], [ 5.71206, 46.48584 ], [ 5.71564, 46.55783 ], [ 5.61127, 46.56026 ] ] ], [ [ [ 6.84776, 46.30898 ], [ 6.8427, 46.23703 ], [ 6.94639, 46.23348 ], [ 6.95158, 46.30543 ], [ 6.84776, 46.30898 ] ] ], [ [ [ 2.58643, 46.01299 ], [ 2.58751, 45.86891 ], [ 2.69063, 45.86924 ], [ 2.68982, 46.01332 ], [ 2.58643, 46.01299 ] ] ], [ [ [ 6.28948, 45.67756 ], [ 6.2852, 45.60559 ], [ 6.38774, 45.60254 ], [ 6.39215, 45.67451 ], [ 6.28948, 45.67756 ] ] ], [ [ [ 6.18265, 45.60854 ], [ 6.17852, 45.53656 ], [ 6.28094, 45.53361 ], [ 6.2852, 45.60559 ], [ 6.18265, 45.60854 ] ] ], [ [ [ 5.87121, 45.54483 ], [ 5.86749, 45.47284 ], [ 5.9698, 45.47018 ], [ 5.96596, 45.39819 ], [ 6.06813, 45.39544 ], [ 6.07211, 45.46743 ], [ 6.1744, 45.46458 ], [ 6.17852, 45.53656 ], [ 5.87121, 45.54483 ] ] ], [ [ [ 6.45051, 46.61013 ], [ 6.44595, 46.53817 ], [ 6.34165, 46.54126 ], [ 6.33724, 46.46929 ], [ 6.23307, 46.47229 ], [ 6.22881, 46.40031 ], [ 6.12476, 46.40321 ], [ 6.12065, 46.33123 ], [ 6.01673, 46.33402 ], [ 6.01276, 46.26204 ], [ 5.90897, 46.26474 ], [ 5.90134, 46.12076 ], [ 5.69427, 46.12586 ], [ 5.68722, 45.98187 ], [ 5.79049, 45.97937 ], [ 5.7832, 45.83538 ], [ 5.6802, 45.83787 ], [ 5.68371, 45.90987 ], [ 5.58056, 45.91227 ], [ 5.55386, 45.33627 ], [ 5.65594, 45.3339 ], [ 5.66283, 45.47789 ], [ 5.76516, 45.47541 ], [ 5.76875, 45.5474 ], [ 5.87121, 45.54483 ], [ 5.88243, 45.7608 ], [ 5.98528, 45.75813 ], [ 5.98918, 45.83012 ], [ 6.09215, 45.82734 ], [ 6.10024, 45.97131 ], [ 5.997, 45.97409 ], [ 6.00486, 46.11807 ], [ 6.21187, 46.1124 ], [ 6.20766, 46.04042 ], [ 6.31102, 46.03744 ], [ 6.31971, 46.18139 ], [ 6.21609, 46.18438 ], [ 6.22032, 46.25635 ], [ 6.42783, 46.25029 ], [ 6.43234, 46.32226 ], [ 6.53621, 46.31908 ], [ 6.54087, 46.39105 ], [ 6.85283, 46.38093 ], [ 6.85791, 46.45289 ], [ 6.7538, 46.45636 ], [ 6.75876, 46.52831 ], [ 6.55023, 46.53498 ], [ 6.55493, 46.60694 ], [ 6.45051, 46.61013 ] ], [ [ 5.66975, 45.62188 ], [ 5.77235, 45.6194 ], [ 5.76875, 45.5474 ], [ 5.66629, 45.54988 ], [ 5.66975, 45.62188 ] ] ], [ [ [ 4.12547, 45.43179 ], [ 4.12402, 45.35976 ], [ 4.22618, 45.35869 ], [ 4.22777, 45.43071 ], [ 4.12547, 45.43179 ] ] ], [ [ [ 5.86378, 45.40085 ], [ 5.85638, 45.25688 ], [ 5.9583, 45.25423 ], [ 5.96596, 45.39819 ], [ 5.86378, 45.40085 ] ] ], [ [ [ 4.02184, 45.36074 ], [ 4.02052, 45.28871 ], [ 4.12256, 45.28773 ], [ 4.12402, 45.35976 ], [ 4.02184, 45.36074 ] ] ], [ [ [ 5.55056, 45.26427 ], [ 5.54727, 45.19228 ], [ 5.64909, 45.18991 ], [ 5.65251, 45.2619 ], [ 5.55056, 45.26427 ] ] ], [ [ [ 5.75445, 45.25944 ], [ 5.7509, 45.18745 ], [ 5.85269, 45.18489 ], [ 5.85638, 45.25688 ], [ 5.75445, 45.25944 ] ] ], [ [ [ 3.40823, 45.29262 ], [ 3.40718, 45.14855 ], [ 3.50897, 45.14813 ], [ 3.51028, 45.2922 ], [ 3.40823, 45.29262 ] ] ], [ [ [ 5.64909, 45.18991 ], [ 5.64227, 45.04592 ], [ 5.74382, 45.04347 ], [ 5.7509, 45.18745 ], [ 5.64909, 45.18991 ] ] ], [ [ [ 6.2224, 44.52605 ], [ 6.21829, 44.45409 ], [ 6.31875, 44.45111 ], [ 6.32298, 44.52307 ], [ 6.2224, 44.52605 ] ] ], [ [ [ 5.91687, 44.46248 ], [ 5.91316, 44.39052 ], [ 6.01352, 44.38782 ], [ 6.01735, 44.45978 ], [ 5.91687, 44.46248 ] ] ], [ [ [ 3.40199, 44.42831 ], [ 3.40148, 44.3563 ], [ 3.60222, 44.35538 ], [ 3.60298, 44.4274 ], [ 3.40199, 44.42831 ] ] ], [ [ [ 5.30496, 44.26085 ], [ 5.30204, 44.18887 ], [ 5.40207, 44.18672 ], [ 5.40512, 44.2587 ], [ 5.30496, 44.26085 ] ] ], [ [ [ 6.79191, 44.0033 ], [ 6.78235, 43.85947 ], [ 6.9811, 43.85239 ], [ 6.97609, 43.78049 ], [ 6.87685, 43.78407 ], [ 6.87198, 43.71217 ], [ 6.67371, 43.71905 ], [ 6.6691, 43.64714 ], [ 6.96611, 43.6367 ], [ 6.9711, 43.7086 ], [ 7.36743, 43.6934 ], [ 7.37292, 43.76528 ], [ 7.57126, 43.75713 ], [ 7.58278, 43.90087 ], [ 7.68218, 43.89665 ], [ 7.68808, 43.96852 ], [ 7.48903, 43.97688 ], [ 7.48337, 43.905 ], [ 7.28451, 43.91299 ], [ 7.28992, 43.98488 ], [ 7.09075, 43.99252 ], [ 7.08559, 43.92062 ], [ 6.98612, 43.9243 ], [ 6.99115, 43.9962 ], [ 6.79191, 44.0033 ] ] ], [ [ [ 1.53192, 42.90738 ], [ 1.53374, 42.83545 ], [ 1.63147, 42.83674 ], [ 1.62977, 42.90867 ], [ 1.53192, 42.90738 ] ] ], [ [ [ 8.94485, 42.60829 ], [ 8.93753, 42.53658 ], [ 9.03449, 42.53113 ], [ 9.04193, 42.60284 ], [ 8.94485, 42.60829 ] ] ], [ [ [ 8.84055, 42.54194 ], [ 8.83338, 42.47022 ], [ 8.93024, 42.46487 ], [ 8.93753, 42.53658 ], [ 8.84055, 42.54194 ] ] ], [ [ [ 8.7365, 42.47548 ], [ 8.72945, 42.40376 ], [ 8.63268, 42.40893 ], [ 8.62577, 42.33721 ], [ 8.81907, 42.3268 ], [ 8.83338, 42.47022 ], [ 8.7365, 42.47548 ] ] ], [ [ [ 2.80544, 42.55758 ], [ 2.80568, 42.48566 ], [ 3.0, 42.48584 ], [ 3.0, 42.41393 ], [ 3.09704, 42.41389 ], [ 3.09728, 42.55771 ], [ 2.80544, 42.55758 ] ] ], [ [ [ 0.90425, 49.45126 ], [ 0.90717, 49.37938 ], [ 1.01727, 49.38124 ], [ 1.02279, 49.23745 ], [ 0.8032, 49.23365 ], [ 0.81535, 48.94604 ], [ 1.03372, 48.94983 ], [ 1.04185, 48.73405 ], [ 0.82438, 48.73029 ], [ 0.82138, 48.80221 ], [ 0.71251, 48.80018 ], [ 0.71566, 48.72825 ], [ 0.28086, 48.71914 ], [ 0.28833, 48.57531 ], [ 0.17995, 48.57279 ], [ 0.18382, 48.50087 ], [ -0.0326, 48.49554 ], [ -0.02431, 48.3517 ], [ -0.13221, 48.34889 ], [ -0.12367, 48.20505 ], [ -0.33885, 48.19916 ], [ -0.3434, 48.27108 ], [ -0.45112, 48.26798 ], [ -0.45584, 48.33989 ], [ -0.56369, 48.33669 ], [ -0.57346, 48.48049 ], [ -0.89781, 48.47028 ], [ -0.90316, 48.54216 ], [ -1.01139, 48.53855 ], [ -1.0059, 48.46668 ], [ -1.11397, 48.46298 ], [ -1.10835, 48.3911 ], [ -1.32415, 48.38342 ], [ -1.33007, 48.45529 ], [ -1.4381, 48.45129 ], [ -1.43203, 48.37943 ], [ -1.5399, 48.37535 ], [ -1.52751, 48.23163 ], [ -1.85012, 48.21881 ], [ -1.84352, 48.14696 ], [ -1.95087, 48.1425 ], [ -1.94414, 48.07066 ], [ -2.05133, 48.0661 ], [ -2.04448, 47.99426 ], [ -2.15151, 47.98961 ], [ -2.14452, 47.91777 ], [ -2.25139, 47.91304 ], [ -2.27283, 48.12853 ], [ -2.38011, 48.12368 ], [ -2.3728, 48.05186 ], [ -2.47991, 48.04691 ], [ -2.47248, 47.97509 ], [ -2.57943, 47.97006 ], [ -2.57187, 47.89824 ], [ -2.35823, 47.9082 ], [ -2.35098, 47.83637 ], [ -2.56433, 47.82642 ], [ -2.55681, 47.7546 ], [ -2.45029, 47.75962 ], [ -2.44294, 47.68778 ], [ -2.65567, 47.67767 ], [ -2.66331, 47.74949 ], [ -2.87625, 47.73898 ], [ -2.88419, 47.81078 ], [ -2.99077, 47.80537 ], [ -2.98268, 47.73357 ], [ -3.0891, 47.72808 ], [ -3.09733, 47.79986 ], [ -3.20386, 47.79426 ], [ -3.19549, 47.72248 ], [ -3.30186, 47.71679 ], [ -3.31038, 47.78856 ], [ -3.62977, 47.77088 ], [ -3.62083, 47.69913 ], [ -3.51453, 47.70511 ], [ -3.49699, 47.56159 ], [ -3.28489, 47.57323 ], [ -3.29336, 47.64501 ], [ -3.18714, 47.6507 ], [ -3.16221, 47.43532 ], [ -3.05639, 47.44089 ], [ -3.06453, 47.51269 ], [ -2.85253, 47.52355 ], [ -2.84467, 47.45173 ], [ -2.52694, 47.46727 ], [ -2.50475, 47.25175 ], [ -2.29367, 47.26159 ], [ -2.27954, 47.11787 ], [ -2.17425, 47.12263 ], [ -2.16735, 47.05076 ], [ -2.2725, 47.046 ], [ -2.25847, 46.90227 ], [ -2.15361, 46.90701 ], [ -2.13993, 46.76326 ], [ -2.03532, 46.7679 ], [ -2.02865, 46.69601 ], [ -1.92416, 46.70055 ], [ -1.91115, 46.55676 ], [ -1.80691, 46.56119 ], [ -1.79424, 46.41738 ], [ -1.58627, 46.42594 ], [ -1.58024, 46.35402 ], [ -1.47636, 46.35815 ], [ -1.47048, 46.28623 ], [ -1.57421, 46.2821 ], [ -1.5682, 46.21018 ], [ -1.4646, 46.2143 ], [ -1.45875, 46.14238 ], [ -1.14827, 46.15415 ], [ -1.13741, 46.01027 ], [ -1.24065, 46.00645 ], [ -1.2462, 46.07839 ], [ -1.45291, 46.07045 ], [ -1.44708, 45.99853 ], [ -1.34387, 46.00254 ], [ -1.33253, 45.85868 ], [ -1.22958, 45.86258 ], [ -1.21308, 45.64677 ], [ -1.11051, 45.65057 ], [ -1.09985, 45.50669 ], [ -1.20215, 45.5029 ], [ -1.16971, 45.0713 ], [ -1.27122, 45.06745 ], [ -1.26025, 44.9236 ], [ -1.36148, 44.91967 ], [ -1.31169, 44.27247 ], [ -1.41175, 44.2685 ], [ -1.38948, 43.98093 ], [ -1.48903, 43.97688 ], [ -1.46648, 43.68937 ], [ -1.56552, 43.68526 ], [ -1.55408, 43.54154 ], [ -1.65286, 43.53734 ], [ -1.64704, 43.46549 ], [ -1.74568, 43.46121 ], [ -1.73975, 43.38937 ], [ -1.83825, 43.38501 ], [ -1.8262, 43.24135 ], [ -1.72794, 43.2457 ], [ -1.72206, 43.17387 ], [ -1.52574, 43.18229 ], [ -1.52012, 43.11045 ], [ -1.22591, 43.1224 ], [ -1.22066, 43.05055 ], [ -1.12269, 43.05435 ], [ -1.12781, 43.1262 ], [ -0.93158, 43.13354 ], [ -0.9267, 43.06168 ], [ -0.53458, 43.07527 ], [ -0.53898, 43.14715 ], [ -0.4408, 43.15033 ], [ -0.43653, 43.07845 ], [ 0.25015, 43.09817 ], [ 0.25357, 43.02626 ], [ 0.54763, 43.03337 ], [ 0.55067, 42.96146 ], [ 0.64858, 42.96364 ], [ 0.64566, 43.03556 ], [ 1.03788, 43.04342 ], [ 1.04031, 42.9715 ], [ 1.13826, 42.97324 ], [ 1.14056, 42.90131 ], [ 1.2384, 42.90296 ], [ 1.23621, 42.97489 ], [ 1.62807, 42.9806 ], [ 1.62977, 42.90867 ], [ 1.72763, 42.90987 ], [ 1.72605, 42.98181 ], [ 1.82403, 42.98293 ], [ 1.82549, 42.91099 ], [ 2.11909, 42.9138 ], [ 2.12018, 42.84186 ], [ 2.31568, 42.84329 ], [ 2.31653, 42.77135 ], [ 2.41416, 42.77193 ], [ 2.41489, 42.7 ], [ 2.31737, 42.69943 ], [ 2.31906, 42.55559 ], [ 2.41633, 42.55616 ], [ 2.41561, 42.62808 ], [ 2.51301, 42.62857 ], [ 2.51361, 42.55665 ], [ 2.61088, 42.55705 ], [ 2.61136, 42.48513 ], [ 2.5142, 42.48474 ], [ 2.5154, 42.34092 ], [ 2.70924, 42.34163 ], [ 2.70888, 42.41353 ], [ 2.80592, 42.41375 ], [ 2.80568, 42.48566 ], [ 2.70852, 42.48544 ], [ 2.7078, 42.62928 ], [ 2.6104, 42.62897 ], [ 2.60992, 42.70089 ], [ 2.70744, 42.7012 ], [ 2.70708, 42.77313 ], [ 2.60944, 42.77282 ], [ 2.60896, 42.84476 ], [ 2.80448, 42.84529 ], [ 2.80423, 42.91723 ], [ 2.90212, 42.91737 ], [ 2.90187, 43.06126 ], [ 2.80375, 43.06112 ], [ 2.8035, 43.13308 ], [ 2.60701, 43.13254 ], [ 2.60652, 43.2045 ], [ 2.50815, 43.20409 ], [ 2.50692, 43.34802 ], [ 2.70415, 43.34874 ], [ 2.70378, 43.42071 ], [ 2.80252, 43.42093 ], [ 2.80277, 43.34896 ], [ 2.90138, 43.3491 ], [ 2.90101, 43.56502 ], [ 3.29696, 43.56466 ], [ 3.29733, 43.63664 ], [ 3.39644, 43.63632 ], [ 3.39694, 43.70831 ], [ 3.49617, 43.7079 ], [ 3.4968, 43.77989 ], [ 3.59616, 43.77939 ], [ 3.59391, 43.56344 ], [ 3.69289, 43.56285 ], [ 3.69376, 43.63483 ], [ 3.79287, 43.63415 ], [ 3.79386, 43.70614 ], [ 4.09153, 43.70356 ], [ 4.09566, 43.91951 ], [ 4.29484, 43.91733 ], [ 4.29647, 43.98932 ], [ 4.39618, 43.98809 ], [ 4.39795, 44.06008 ], [ 4.49778, 44.05876 ], [ 4.49967, 44.13075 ], [ 4.59963, 44.12934 ], [ 4.59559, 43.98536 ], [ 4.69528, 43.98386 ], [ 4.70389, 44.27181 ], [ 4.50348, 44.27474 ], [ 4.50539, 44.34674 ], [ 4.60572, 44.34532 ], [ 4.60982, 44.48932 ], [ 4.91155, 44.4845 ], [ 4.90186, 44.19654 ], [ 5.00191, 44.19476 ], [ 4.98931, 43.83487 ], [ 4.69101, 43.8399 ], [ 4.68888, 43.76793 ], [ 4.8875, 43.76467 ], [ 4.88513, 43.6927 ], [ 5.08348, 43.68909 ], [ 5.08086, 43.61713 ], [ 5.1799, 43.61518 ], [ 5.17717, 43.54323 ], [ 5.27608, 43.5412 ], [ 5.27894, 43.61315 ], [ 5.37796, 43.61103 ], [ 5.36905, 43.3952 ], [ 5.46769, 43.393 ], [ 5.46154, 43.24913 ], [ 5.55994, 43.24685 ], [ 5.55675, 43.17492 ], [ 5.75327, 43.17008 ], [ 5.74985, 43.09817 ], [ 6.24038, 43.08453 ], [ 6.24441, 43.15642 ], [ 6.4408, 43.15033 ], [ 6.44939, 43.29412 ], [ 6.54781, 43.29093 ], [ 6.55224, 43.36282 ], [ 5.96081, 43.38063 ], [ 5.96823, 43.52447 ], [ 6.46234, 43.50982 ], [ 6.46668, 43.58173 ], [ 6.6645, 43.57523 ], [ 6.6691, 43.64714 ], [ 6.27292, 43.65979 ], [ 6.28116, 43.80364 ], [ 6.18184, 43.80659 ], [ 6.19794, 44.09434 ], [ 5.99827, 44.09999 ], [ 6.00206, 44.17194 ], [ 5.90209, 44.17463 ], [ 5.90577, 44.24659 ], [ 6.00587, 44.2439 ], [ 6.00969, 44.31586 ], [ 5.90946, 44.31855 ], [ 5.91316, 44.39052 ], [ 5.81279, 44.39313 ], [ 5.80922, 44.32116 ], [ 5.70897, 44.32368 ], [ 5.70553, 44.25171 ], [ 5.80565, 44.2492 ], [ 5.79856, 44.10527 ], [ 5.89842, 44.10268 ], [ 5.89475, 44.03072 ], [ 5.59552, 44.03823 ], [ 5.59225, 43.96627 ], [ 5.49261, 43.96859 ], [ 5.49576, 44.04055 ], [ 5.29622, 44.04492 ], [ 5.30204, 44.18887 ], [ 5.202, 44.19092 ], [ 5.2048, 44.2629 ], [ 5.30496, 44.26085 ], [ 5.30789, 44.33283 ], [ 5.40817, 44.33068 ], [ 5.41123, 44.40266 ], [ 5.51164, 44.40041 ], [ 5.51483, 44.47239 ], [ 5.4143, 44.47464 ], [ 5.41738, 44.54662 ], [ 5.31672, 44.54878 ], [ 5.32264, 44.69276 ], [ 5.42356, 44.69059 ], [ 5.42667, 44.76258 ], [ 5.32562, 44.76475 ], [ 5.3286, 44.83675 ], [ 5.22741, 44.83882 ], [ 5.23027, 44.91082 ], [ 5.12894, 44.91281 ], [ 5.13168, 44.98481 ], [ 5.23313, 44.98282 ], [ 5.23601, 45.05482 ], [ 5.33759, 45.05274 ], [ 5.34362, 45.19674 ], [ 5.44545, 45.19455 ], [ 5.47741, 45.91458 ], [ 5.37425, 45.91679 ], [ 5.37735, 45.9888 ], [ 5.48065, 45.98658 ], [ 5.52358, 46.92258 ], [ 5.62865, 46.92023 ], [ 5.62516, 46.84824 ], [ 5.73008, 46.8458 ], [ 5.73371, 46.91778 ], [ 5.94381, 46.9126 ], [ 5.95561, 47.12853 ], [ 6.06107, 47.12579 ], [ 6.06516, 47.19776 ], [ 6.17075, 47.19492 ], [ 6.17499, 47.26688 ], [ 6.38641, 47.2609 ], [ 6.39095, 47.33285 ], [ 6.49678, 47.32971 ], [ 6.50148, 47.40166 ], [ 6.81932, 47.39164 ], [ 6.82445, 47.46357 ], [ 6.93051, 47.46004 ], [ 6.9358, 47.53196 ], [ 7.14817, 47.52459 ], [ 7.14259, 47.45268 ], [ 7.24861, 47.44886 ], [ 7.25433, 47.52076 ], [ 7.36047, 47.51684 ], [ 7.35461, 47.44493 ], [ 7.67253, 47.43259 ], [ 7.67881, 47.50448 ], [ 8.10302, 47.48665 ], [ 8.10989, 47.55851 ], [ 7.89754, 47.56763 ], [ 7.90414, 47.6395 ], [ 7.69143, 47.64825 ], [ 7.70412, 47.792 ], [ 7.81077, 47.78767 ], [ 7.82382, 47.9314 ], [ 8.03764, 47.92241 ], [ 8.04448, 47.99426 ], [ 7.93743, 47.99881 ], [ 7.94414, 48.07066 ], [ 8.05133, 48.0661 ], [ 8.05821, 48.13794 ], [ 7.95087, 48.1425 ], [ 7.95762, 48.21435 ], [ 8.17257, 48.20512 ], [ 8.1867, 48.34877 ], [ 8.07895, 48.35344 ], [ 8.0859, 48.42527 ], [ 7.97798, 48.42985 ], [ 7.9848, 48.50168 ], [ 8.09287, 48.49709 ], [ 8.10687, 48.64071 ], [ 8.21521, 48.63601 ], [ 8.22958, 48.77961 ], [ 8.3382, 48.7748 ], [ 8.35295, 48.91836 ], [ 8.24403, 48.92318 ], [ 8.25129, 48.99496 ], [ 8.1422, 48.99969 ], [ 8.14932, 49.07148 ], [ 7.93078, 49.08065 ], [ 7.91715, 48.93706 ], [ 7.69914, 48.94582 ], [ 7.69265, 48.874 ], [ 7.47487, 48.88235 ], [ 7.4687, 48.81052 ], [ 7.35993, 48.81454 ], [ 7.33601, 48.52715 ], [ 7.44419, 48.52315 ], [ 7.42598, 48.30757 ], [ 7.31825, 48.31155 ], [ 7.30648, 48.16781 ], [ 7.19903, 48.17168 ], [ 7.18762, 48.02791 ], [ 7.29478, 48.02404 ], [ 7.28896, 47.95216 ], [ 7.18194, 47.95602 ], [ 7.17062, 47.81222 ], [ 7.06387, 47.81597 ], [ 7.0529, 47.67216 ], [ 6.94643, 47.6758 ], [ 6.94111, 47.60388 ], [ 6.83476, 47.60743 ], [ 6.83994, 47.67935 ], [ 6.62692, 47.68616 ], [ 6.63674, 47.83001 ], [ 6.42309, 47.83645 ], [ 6.42773, 47.90838 ], [ 6.21374, 47.91443 ], [ 6.2181, 47.98637 ], [ 6.11094, 47.98925 ], [ 6.11517, 48.06119 ], [ 5.90054, 48.06667 ], [ 5.89267, 47.92278 ], [ 5.78562, 47.92537 ], [ 5.78941, 47.99732 ], [ 5.68221, 47.99981 ], [ 5.67857, 47.92786 ], [ 5.5715, 47.93025 ], [ 5.56454, 47.78633 ], [ 5.45776, 47.78862 ], [ 5.45444, 47.71665 ], [ 4.9211, 47.72663 ], [ 4.9237, 47.79861 ], [ 5.03053, 47.7968 ], [ 5.03328, 47.86878 ], [ 4.92631, 47.87059 ], [ 4.92892, 47.94256 ], [ 4.8218, 47.94427 ], [ 4.82428, 48.01625 ], [ 4.717, 48.01786 ], [ 4.72168, 48.1618 ], [ 4.82925, 48.16018 ], [ 4.83174, 48.23215 ], [ 5.15484, 48.2267 ], [ 5.15779, 48.29865 ], [ 5.26562, 48.29664 ], [ 5.27183, 48.44053 ], [ 5.1637, 48.44255 ], [ 5.16667, 48.51449 ], [ 5.27494, 48.51246 ], [ 5.27807, 48.5844 ], [ 5.38648, 48.58227 ], [ 5.39305, 48.72612 ], [ 5.50176, 48.72389 ], [ 5.50867, 48.86772 ], [ 5.39966, 48.86996 ], [ 5.40631, 49.01377 ], [ 5.29699, 49.01591 ], [ 5.30018, 49.08781 ], [ 5.1907, 49.08986 ], [ 5.18767, 49.01795 ], [ 5.07834, 49.0199 ], [ 5.07546, 48.94799 ], [ 4.96628, 48.94983 ], [ 4.96356, 48.87791 ], [ 4.74546, 48.88129 ], [ 4.74788, 48.95321 ], [ 4.52945, 48.9562 ], [ 4.53157, 49.02812 ], [ 4.20343, 49.03186 ], [ 4.2051, 49.10378 ], [ 4.31464, 49.10263 ], [ 4.31646, 49.17455 ], [ 4.09709, 49.17675 ], [ 4.10014, 49.32057 ], [ 3.66011, 49.32378 ], [ 3.65828, 49.17994 ], [ 3.76798, 49.17929 ], [ 3.76692, 49.10737 ], [ 3.65736, 49.10802 ], [ 3.65464, 48.89222 ], [ 3.54554, 48.89277 ], [ 3.54478, 48.82082 ], [ 3.32687, 48.82162 ], [ 3.32733, 48.89356 ], [ 3.21822, 48.89381 ], [ 3.21882, 49.03769 ], [ 3.10941, 49.03784 ], [ 3.10956, 49.10977 ], [ 2.78087, 49.10962 ], [ 2.78026, 49.25346 ], [ 2.89013, 49.25361 ], [ 2.88998, 49.32553 ], [ 2.77996, 49.32538 ], [ 2.77965, 49.39729 ], [ 2.66948, 49.39704 ], [ 2.6704, 49.25321 ], [ 2.56053, 49.25286 ], [ 2.55992, 49.32478 ], [ 2.4499, 49.32433 ], [ 2.45067, 49.25241 ], [ 2.23095, 49.25121 ], [ 2.23202, 49.17929 ], [ 2.12231, 49.17854 ], [ 2.12353, 49.10662 ], [ 2.01398, 49.10577 ], [ 2.01535, 49.03385 ], [ 1.90595, 49.0329 ], [ 1.90444, 49.10483 ], [ 1.57583, 49.10138 ], [ 1.57385, 49.1733 ], [ 1.46418, 49.17195 ], [ 1.4599, 49.31576 ], [ 1.34992, 49.31431 ], [ 1.34762, 49.3862 ], [ 1.12738, 49.38299 ], [ 1.12476, 49.45488 ], [ 0.90425, 49.45126 ] ], [ [ 1.46843, 49.02812 ], [ 1.5778, 49.02946 ], [ 1.57977, 48.95754 ], [ 1.47055, 48.9562 ], [ 1.46843, 49.02812 ] ], [ [ 1.14804, 48.80772 ], [ 1.36585, 48.8109 ], [ 1.36811, 48.73896 ], [ 1.47687, 48.7404 ], [ 1.47897, 48.66846 ], [ 1.26174, 48.66549 ], [ 1.26413, 48.59354 ], [ 1.37259, 48.59508 ], [ 1.37482, 48.52313 ], [ 1.15821, 48.51997 ], [ 1.15568, 48.59191 ], [ 1.04723, 48.59018 ], [ 1.06055, 48.23043 ], [ 0.95285, 48.22861 ], [ 0.93879, 48.58835 ], [ 0.83036, 48.58642 ], [ 0.82737, 48.65836 ], [ 1.04454, 48.66212 ], [ 1.04185, 48.73405 ], [ 1.15059, 48.73579 ], [ 1.14804, 48.80772 ] ], [ [ 5.28749, 48.80018 ], [ 5.39635, 48.79804 ], [ 5.39305, 48.72612 ], [ 5.28434, 48.72825 ], [ 5.28749, 48.80018 ] ], [ [ -1.10835, 48.3911 ], [ -1.00042, 48.3948 ], [ -0.99495, 48.32292 ], [ -1.10273, 48.31923 ], [ -1.10835, 48.3911 ] ], [ [ -1.52751, 48.23163 ], [ -1.41994, 48.2357 ], [ -1.41392, 48.16383 ], [ -1.52135, 48.15976 ], [ -1.52751, 48.23163 ] ], [ [ 0.84516, 48.2267 ], [ 0.95285, 48.22861 ], [ 0.95564, 48.15665 ], [ 0.84809, 48.15474 ], [ 0.84516, 48.2267 ] ], [ [ -2.16735, 47.05076 ], [ -2.06219, 47.05542 ], [ -2.05544, 46.98355 ], [ -2.16047, 46.97889 ], [ -2.16735, 47.05076 ] ], [ [ 4.05601, 47.16146 ], [ 4.16159, 47.16045 ], [ 4.15849, 47.01642 ], [ 4.05319, 47.01743 ], [ 4.05601, 47.16146 ] ], [ [ 2.89482, 46.95016 ], [ 3.0, 46.9502 ], [ 3.0, 45.58151 ], [ 3.10259, 45.58146 ], [ 3.10219, 45.36535 ], [ 3.20438, 45.36521 ], [ 3.20412, 45.29318 ], [ 3.40823, 45.29262 ], [ 3.40929, 45.43669 ], [ 3.30697, 45.43701 ], [ 3.30776, 45.58109 ], [ 3.41035, 45.58076 ], [ 3.41088, 45.6528 ], [ 3.5136, 45.65238 ], [ 3.51427, 45.72441 ], [ 3.61712, 45.7239 ], [ 3.61793, 45.79593 ], [ 3.51494, 45.79645 ], [ 3.51561, 45.86849 ], [ 3.61873, 45.86797 ], [ 3.61954, 45.94001 ], [ 3.51629, 45.94053 ], [ 3.51696, 46.01256 ], [ 3.72374, 46.01143 ], [ 3.72564, 46.1555 ], [ 3.8293, 46.15479 ], [ 3.82713, 46.01072 ], [ 3.93051, 46.00992 ], [ 3.92445, 45.64975 ], [ 4.02716, 45.64886 ], [ 4.0245, 45.5048 ], [ 4.22936, 45.50274 ], [ 4.22777, 45.43071 ], [ 4.53465, 45.42693 ], [ 4.52673, 45.13885 ], [ 4.42497, 45.14019 ], [ 4.42131, 44.99616 ], [ 4.31981, 44.99741 ], [ 4.31811, 44.92539 ], [ 4.41949, 44.92414 ], [ 4.41585, 44.78011 ], [ 4.1125, 44.78357 ], [ 4.10966, 44.63953 ], [ 4.00879, 44.6405 ], [ 4.0075, 44.56849 ], [ 3.90676, 44.56936 ], [ 3.9033, 44.35333 ], [ 3.80294, 44.3541 ], [ 3.80193, 44.2821 ], [ 3.60145, 44.28338 ], [ 3.59917, 44.06736 ], [ 3.49931, 44.06786 ], [ 3.49868, 43.99587 ], [ 3.29921, 43.99659 ], [ 3.29883, 43.9246 ], [ 3.19922, 43.92482 ], [ 3.19897, 43.85283 ], [ 3.09949, 43.85296 ], [ 3.09961, 43.92496 ], [ 3.0, 43.925 ], [ 3.0, 44.069 ], [ 3.09986, 44.06896 ], [ 3.09999, 44.14096 ], [ 3.19998, 44.14082 ], [ 3.20074, 44.35685 ], [ 3.10037, 44.35699 ], [ 3.10024, 44.28498 ], [ 3.0, 44.28502 ], [ 3.0, 44.21301 ], [ 2.89988, 44.21297 ], [ 2.90001, 44.14096 ], [ 2.60004, 44.14028 ], [ 2.59954, 44.21228 ], [ 2.69965, 44.2126 ], [ 2.69889, 44.35662 ], [ 3.0, 44.35703 ], [ 3.0, 44.42905 ], [ 3.201, 44.42886 ], [ 3.20125, 44.50088 ], [ 3.0, 44.50106 ], [ 3.0, 44.57308 ], [ 2.79849, 44.5729 ], [ 2.79823, 44.64492 ], [ 2.69735, 44.64469 ], [ 2.69579, 44.93279 ], [ 2.59439, 44.93246 ], [ 2.59387, 45.00449 ], [ 2.39081, 45.00356 ], [ 2.38766, 45.29169 ], [ 2.48972, 45.2922 ], [ 2.48906, 45.36423 ], [ 2.59124, 45.36465 ], [ 2.59071, 45.43669 ], [ 2.28376, 45.43515 ], [ 2.28469, 45.36311 ], [ 2.18251, 45.36241 ], [ 2.18145, 45.43445 ], [ 1.77223, 45.43071 ], [ 1.76583, 45.71883 ], [ 1.86866, 45.71991 ], [ 1.86719, 45.79194 ], [ 1.76422, 45.79086 ], [ 1.76099, 45.93492 ], [ 1.86423, 45.936 ], [ 1.86274, 46.00804 ], [ 1.75937, 46.00695 ], [ 1.75774, 46.07898 ], [ 1.65424, 46.0778 ], [ 1.65247, 46.14983 ], [ 1.9634, 46.15309 ], [ 1.96476, 46.08106 ], [ 2.06827, 46.08196 ], [ 2.06705, 46.15399 ], [ 2.1707, 46.15479 ], [ 2.17179, 46.08276 ], [ 2.27531, 46.08347 ], [ 2.27436, 46.1555 ], [ 2.48168, 46.15664 ], [ 2.48236, 46.0846 ], [ 2.37883, 46.08408 ], [ 2.37965, 46.01204 ], [ 2.58643, 46.01299 ], [ 2.58588, 46.08503 ], [ 2.68941, 46.08536 ], [ 2.689, 46.1574 ], [ 2.79267, 46.15763 ], [ 2.79321, 46.01355 ], [ 2.89661, 46.0137 ], [ 2.89482, 46.95016 ] ], [ [ -1.36673, 46.29026 ], [ -1.26296, 46.29419 ], [ -1.25736, 46.22226 ], [ -1.36099, 46.21833 ], [ -1.36673, 46.29026 ] ], [ [ 5.12078, 44.69681 ], [ 5.22171, 44.69483 ], [ 5.21888, 44.62284 ], [ 5.11807, 44.62482 ], [ 5.12078, 44.69681 ] ], [ [ 5.21605, 44.55085 ], [ 5.31672, 44.54878 ], [ 5.31377, 44.47679 ], [ 5.21322, 44.47886 ], [ 5.21605, 44.55085 ] ], [ [ 2.50257, 43.85188 ], [ 2.60206, 43.85228 ], [ 2.60256, 43.78029 ], [ 2.5032, 43.77989 ], [ 2.50257, 43.85188 ] ], [ [ 2.70154, 43.8526 ], [ 2.90051, 43.85296 ], [ 2.90064, 43.78097 ], [ 3.0, 43.78102 ], [ 3.0, 43.63705 ], [ 2.80178, 43.63686 ], [ 2.80203, 43.56488 ], [ 2.60405, 43.56434 ], [ 2.60504, 43.42039 ], [ 2.11138, 43.41747 ], [ 2.11027, 43.48944 ], [ 2.50569, 43.49196 ], [ 2.50507, 43.56394 ], [ 2.40609, 43.56344 ], [ 2.40534, 43.63542 ], [ 2.50445, 43.63592 ], [ 2.50383, 43.7079 ], [ 2.60306, 43.70831 ], [ 2.60256, 43.78029 ], [ 2.70192, 43.78061 ], [ 2.70154, 43.8526 ] ] ], [ [ [ 8.61888, 42.26549 ], [ 8.61201, 42.19378 ], [ 8.80484, 42.18339 ], [ 8.79067, 42.04001 ], [ 8.88683, 42.0347 ], [ 8.87966, 41.96303 ], [ 8.97568, 41.95764 ], [ 8.9976, 42.17266 ], [ 8.90123, 42.17807 ], [ 8.90845, 42.24976 ], [ 8.61888, 42.26549 ] ] ], [ [ [ 8.8725, 41.89136 ], [ 8.86536, 41.81969 ], [ 8.96116, 41.81431 ], [ 8.96841, 41.88597 ], [ 8.8725, 41.89136 ] ] ] ] } },
{ "type": "Feature", "properties": { "nb_generations": 3, "surface_km2": 19840.0, "libelle": "3 generation(s) achevee(s)", "couleur": "#31688EFF", "date_situation": "2026-08-19", "modele": "STENO-DJ v1", "exposition": "sunny", "k_ecorce": 0.2 }, "geometry": { "type": "MultiPolygon", "coordinates": [ [ [ [ 7.37292, 43.76528 ], [ 7.36743, 43.6934 ], [ 7.46648, 43.68937 ], [ 7.4721, 43.76125 ], [ 7.37292, 43.76528 ] ] ], [ [ [ 6.9711, 43.7086 ], [ 6.96611, 43.6367 ], [ 6.6691, 43.64714 ], [ 6.6645, 43.57523 ], [ 6.46668, 43.58173 ], [ 6.46234, 43.50982 ], [ 5.96823, 43.52447 ], [ 5.96081, 43.38063 ], [ 6.55224, 43.36282 ], [ 6.54781, 43.29093 ], [ 6.44939, 43.29412 ], [ 6.4408, 43.15033 ], [ 6.24441, 43.15642 ], [ 6.23636, 43.01264 ], [ 6.33431, 43.00965 ], [ 6.33846, 43.08153 ], [ 6.43653, 43.07845 ], [ 6.43226, 43.00656 ], [ 6.5302, 43.00339 ], [ 6.53458, 43.07527 ], [ 6.63263, 43.07201 ], [ 6.63715, 43.14389 ], [ 6.73531, 43.14053 ], [ 6.7493, 43.35617 ], [ 6.84781, 43.35271 ], [ 6.85262, 43.4246 ], [ 6.95124, 43.42104 ], [ 6.95619, 43.49292 ], [ 7.15364, 43.48554 ], [ 7.16406, 43.62929 ], [ 7.36195, 43.62153 ], [ 7.36743, 43.6934 ], [ 6.9711, 43.7086 ] ] ], [ [ [ 5.74985, 43.09817 ], [ 5.74643, 43.02626 ], [ 6.04042, 43.01836 ], [ 6.03665, 42.94646 ], [ 6.23235, 42.94075 ], [ 6.23636, 43.01264 ], [ 6.13839, 43.01554 ], [ 6.14229, 43.08744 ], [ 5.74985, 43.09817 ] ] ], [ [ [ 6.33431, 43.00965 ], [ 6.33018, 42.93776 ], [ 6.42801, 42.93469 ], [ 6.43226, 43.00656 ], [ 6.33431, 43.00965 ] ] ], [ [ [ 8.95953, 42.75174 ], [ 8.95218, 42.68001 ], [ 8.85496, 42.68539 ], [ 8.84775, 42.61366 ], [ 8.6535, 42.62412 ], [ 8.63268, 42.40893 ], [ 8.72945, 42.40376 ], [ 8.7365, 42.47548 ], [ 8.83338, 42.47022 ], [ 8.84055, 42.54194 ], [ 8.93753, 42.53658 ], [ 8.94485, 42.60829 ], [ 9.04193, 42.60284 ], [ 9.05685, 42.74627 ], [ 8.95953, 42.75174 ] ] ], [ [ [ 4.60982, 44.48932 ], [ 4.60572, 44.34532 ], [ 4.50539, 44.34674 ], [ 4.50348, 44.27474 ], [ 4.70389, 44.27181 ], [ 4.69528, 43.98386 ], [ 4.59559, 43.98536 ], [ 4.59963, 44.12934 ], [ 4.49967, 44.13075 ], [ 4.49778, 44.05876 ], [ 4.39795, 44.06008 ], [ 4.39618, 43.98809 ], [ 4.29647, 43.98932 ], [ 4.29484, 43.91733 ], [ 4.09566, 43.91951 ], [ 4.09153, 43.70356 ], [ 3.79386, 43.70614 ], [ 3.79287, 43.63415 ], [ 3.69376, 43.63483 ], [ 3.69289, 43.56285 ], [ 3.59391, 43.56344 ], [ 3.59616, 43.77939 ], [ 3.4968, 43.77989 ], [ 3.49617, 43.7079 ], [ 3.39694, 43.70831 ], [ 3.39644, 43.63632 ], [ 3.29733, 43.63664 ], [ 3.29696, 43.56466 ], [ 2.90101, 43.56502 ], [ 2.90138, 43.3491 ], [ 2.80277, 43.34896 ], [ 2.80252, 43.42093 ], [ 2.70378, 43.42071 ], [ 2.70415, 43.34874 ], [ 2.50692, 43.34802 ], [ 2.50815, 43.20409 ], [ 2.60652, 43.2045 ], [ 2.60701, 43.13254 ], [ 2.8035, 43.13308 ], [ 2.80375, 43.06112 ], [ 2.90187, 43.06126 ], [ 2.90212, 42.91737 ], [ 2.80423, 42.91723 ], [ 2.80448, 42.84529 ], [ 2.60896, 42.84476 ], [ 2.60944, 42.77282 ], [ 2.70708, 42.77313 ], [ 2.70744, 42.7012 ], [ 2.60992, 42.70089 ], [ 2.6104, 42.62897 ], [ 2.7078, 42.62928 ], [ 2.70852, 42.48544 ], [ 2.80568, 42.48566 ], [ 2.80544, 42.55758 ], [ 3.09728, 42.55771 ], [ 3.09825, 43.13321 ], [ 3.1965, 43.13308 ], [ 3.19674, 43.20504 ], [ 3.29511, 43.20481 ], [ 3.29548, 43.27677 ], [ 3.59095, 43.27556 ], [ 3.59169, 43.34753 ], [ 3.6903, 43.34694 ], [ 3.69116, 43.41891 ], [ 3.78989, 43.41823 ], [ 3.79088, 43.4902 ], [ 3.88973, 43.48944 ], [ 3.89085, 43.56141 ], [ 4.08879, 43.55961 ], [ 4.08743, 43.48764 ], [ 4.48278, 43.48295 ], [ 4.47908, 43.33903 ], [ 4.87336, 43.33292 ], [ 4.87571, 43.40487 ], [ 4.97439, 43.40312 ], [ 4.97192, 43.33117 ], [ 5.26756, 43.32537 ], [ 5.26473, 43.25344 ], [ 5.36314, 43.25133 ], [ 5.3602, 43.1794 ], [ 5.45848, 43.17721 ], [ 5.45542, 43.10529 ], [ 5.74985, 43.09817 ], [ 5.75327, 43.17008 ], [ 5.55675, 43.17492 ], [ 5.55994, 43.24685 ], [ 5.46154, 43.24913 ], [ 5.46769, 43.393 ], [ 5.36905, 43.3952 ], [ 5.37796, 43.61103 ], [ 5.27894, 43.61315 ], [ 5.27608, 43.5412 ], [ 5.17717, 43.54323 ], [ 5.1799, 43.61518 ], [ 5.08086, 43.61713 ], [ 5.08348, 43.68909 ], [ 4.88513, 43.6927 ], [ 4.8875, 43.76467 ], [ 4.68888, 43.76793 ], [ 4.69101, 43.8399 ], [ 4.98931, 43.83487 ], [ 5.00191, 44.19476 ], [ 4.90186, 44.19654 ], [ 4.91155, 44.4845 ], [ 4.60982, 44.48932 ] ] ], [ [ [ 3.09728, 42.55771 ], [ 3.09704, 42.41389 ], [ 3.19408, 42.41375 ], [ 3.19456, 42.55758 ], [ 3.09728, 42.55771 ] ] ], [ [ [ 2.80568, 42.48566 ], [ 2.80592, 42.41375 ], [ 2.90296, 42.41389 ], [ 2.90284, 42.4858 ], [ 2.80568, 42.48566 ] ] ], [ [ [ 8.53588, 42.41401 ], [ 8.5021, 42.05542 ], [ 8.59831, 42.05037 ], [ 8.59148, 41.97867 ], [ 8.49539, 41.98372 ], [ 8.4887, 41.91202 ], [ 8.58468, 41.90698 ], [ 8.57789, 41.8353 ], [ 8.67373, 41.83018 ], [ 8.65997, 41.68684 ], [ 8.75556, 41.68165 ], [ 8.74164, 41.53835 ], [ 8.83699, 41.53309 ], [ 8.82993, 41.46145 ], [ 8.92515, 41.45611 ], [ 8.96116, 41.81431 ], [ 8.86536, 41.81969 ], [ 8.8725, 41.89136 ], [ 8.96841, 41.88597 ], [ 8.97568, 41.95764 ], [ 8.87966, 41.96303 ], [ 8.88683, 42.0347 ], [ 8.79067, 42.04001 ], [ 8.80484, 42.18339 ], [ 8.61201, 42.19378 ], [ 8.61888, 42.26549 ], [ 8.71542, 42.26033 ], [ 8.72243, 42.33205 ], [ 8.62577, 42.33721 ], [ 8.63268, 42.40893 ], [ 8.53588, 42.41401 ] ] ] ] } }
]
}
