{
"type": "FeatureCollection",
"name": "steno_generations_20260722",
"features": [
{ "type": "Feature", "properties": { "nb_generations": 0, "surface_km2": 60096.0, "libelle": "Aucune generation achevee", "couleur": "#E8E8E8", "date_situation": "2026-07-22", "modele": "STENO-DJ v1", "exposition": "sunny", "k_ecorce": 0.2 }, "geometry": { "type": "MultiPolygon", "coordinates": [ [ [ [ 1.748, 51.04339 ], [ 1.7498, 50.97165 ], [ 1.63617, 50.97046 ], [ 1.63813, 50.89871 ], [ 2.09204, 50.90283 ], [ 2.08942, 51.04634 ], [ 1.748, 51.04339 ] ] ], [ [ [ 1.98002, 50.83019 ], [ 1.98148, 50.75842 ], [ 1.86833, 50.75745 ], [ 1.86995, 50.68567 ], [ 1.75696, 50.68459 ], [ 1.75873, 50.61281 ], [ 1.87156, 50.61388 ], [ 1.87317, 50.54209 ], [ 1.98584, 50.54306 ], [ 1.98729, 50.47126 ], [ 2.32484, 50.47356 ], [ 2.32291, 50.61717 ], [ 2.09723, 50.61573 ], [ 2.09334, 50.83107 ], [ 1.98002, 50.83019 ] ] ], [ [ [ 1.21509, 50.03142 ], [ 1.21761, 49.95958 ], [ 1.44034, 49.96262 ], [ 1.43814, 50.03447 ], [ 1.21509, 50.03142 ] ] ], [ [ [ 0.44548, 49.80209 ], [ 0.44906, 49.73025 ], [ 0.5599, 49.73252 ], [ 0.55647, 49.80436 ], [ 0.44548, 49.80209 ] ] ], [ [ [ 0.22742, 49.7254 ], [ 0.23131, 49.65356 ], [ 0.34197, 49.65603 ], [ 0.33824, 49.72787 ], [ 0.22742, 49.7254 ] ] ], [ [ [ -2.00007, 49.79827 ], [ -1.98606, 49.65479 ], [ -1.87554, 49.65928 ], [ -1.86872, 49.58753 ], [ -1.97908, 49.58305 ], [ -1.97213, 49.51129 ], [ -1.86192, 49.51577 ], [ -1.85513, 49.444 ], [ -1.74506, 49.44837 ], [ -1.75834, 49.59191 ], [ -1.42708, 49.60444 ], [ -1.42089, 49.53266 ], [ -1.31059, 49.53663 ], [ -1.29258, 49.32124 ], [ -1.07285, 49.32886 ], [ -1.08423, 49.47248 ], [ -1.19441, 49.46871 ], [ -1.21797, 49.75586 ], [ -1.55026, 49.7439 ], [ -1.54388, 49.67213 ], [ -1.65445, 49.66795 ], [ -1.66099, 49.73971 ], [ -1.88239, 49.73102 ], [ -1.88925, 49.80276 ], [ -2.00007, 49.79827 ] ], [ [ -1.43329, 49.67622 ], [ -1.32268, 49.6802 ], [ -1.31663, 49.60842 ], [ -1.42708, 49.60444 ], [ -1.43329, 49.67622 ] ] ], [ [ [ -3.62175, 48.56596 ], [ -3.61268, 48.49424 ], [ -3.50477, 48.50021 ], [ -3.51369, 48.57194 ], [ -3.62175, 48.56596 ] ] ], [ [ [ 7.09155, 48.17546 ], [ 7.08599, 48.10357 ], [ 7.19331, 48.0998 ], [ 7.19903, 48.17168 ], [ 7.09155, 48.17546 ] ] ], [ [ [ 8.57187, 47.89824 ], [ 8.56433, 47.82642 ], [ 8.67097, 47.82131 ], [ 8.67865, 47.89312 ], [ 8.57187, 47.89824 ] ] ], [ [ [ 6.97865, 48.10724 ], [ 6.97324, 48.03535 ], [ 6.86603, 48.03892 ], [ 6.85033, 47.82319 ], [ 6.95711, 47.81963 ], [ 6.96247, 47.89154 ], [ 7.17627, 47.88412 ], [ 7.18194, 47.95602 ], [ 7.0749, 47.95978 ], [ 7.08599, 48.10357 ], [ 6.97865, 48.10724 ] ] ], [ [ [ 8.28001, 48.20036 ], [ 8.27283, 48.12853 ], [ 8.16553, 48.13329 ], [ 8.15851, 48.06145 ], [ 8.05133, 48.0661 ], [ 8.04448, 47.99426 ], [ 8.15151, 47.98961 ], [ 8.14452, 47.91777 ], [ 7.93074, 47.92695 ], [ 7.9174, 47.78323 ], [ 8.02402, 47.7787 ], [ 8.01724, 47.70685 ], [ 8.12369, 47.70222 ], [ 8.13062, 47.77408 ], [ 8.23719, 47.76935 ], [ 8.25139, 47.91304 ], [ 8.35823, 47.9082 ], [ 8.36551, 47.98003 ], [ 8.25852, 47.98487 ], [ 8.26566, 48.0567 ], [ 8.47991, 48.04691 ], [ 8.48737, 48.11873 ], [ 8.38011, 48.12368 ], [ 8.38744, 48.1955 ], [ 8.28001, 48.20036 ] ] ], [ [ [ 8.94256, 47.37455 ], [ 8.9346, 47.30273 ], [ 9.04016, 47.29728 ], [ 9.04826, 47.36908 ], [ 8.94256, 47.37455 ] ] ], [ [ [ 7.13149, 47.30884 ], [ 7.12596, 47.23692 ], [ 6.91473, 47.24425 ], [ 6.90949, 47.17232 ], [ 6.69849, 47.17926 ], [ 6.69355, 47.10731 ], [ 6.58816, 47.11063 ], [ 6.58338, 47.03868 ], [ 6.37286, 47.04502 ], [ 6.36836, 46.97306 ], [ 6.26322, 46.97609 ], [ 6.25888, 46.90412 ], [ 6.04885, 46.90987 ], [ 6.04479, 46.8379 ], [ 5.9399, 46.84062 ], [ 5.92822, 46.62468 ], [ 5.82374, 46.6273 ], [ 5.82, 46.55531 ], [ 5.71564, 46.55783 ], [ 5.70848, 46.41385 ], [ 5.81257, 46.41133 ], [ 5.80886, 46.33934 ], [ 5.70491, 46.34185 ], [ 5.69781, 46.19786 ], [ 5.90515, 46.19275 ], [ 5.9128, 46.33673 ], [ 6.01673, 46.33402 ], [ 6.02071, 46.40601 ], [ 6.12476, 46.40321 ], [ 6.12889, 46.47519 ], [ 6.23307, 46.47229 ], [ 6.23734, 46.54426 ], [ 6.34165, 46.54126 ], [ 6.35051, 46.6852 ], [ 6.45508, 46.6821 ], [ 6.46426, 46.82602 ], [ 6.67392, 46.81951 ], [ 6.67881, 46.89147 ], [ 6.78376, 46.88806 ], [ 6.7888, 46.96001 ], [ 6.89387, 46.95651 ], [ 6.89907, 47.02845 ], [ 7.10946, 47.02115 ], [ 7.11494, 47.09307 ], [ 7.22025, 47.08927 ], [ 7.2259, 47.16119 ], [ 7.33133, 47.15729 ], [ 7.33713, 47.22921 ], [ 7.54824, 47.22111 ], [ 7.55434, 47.29301 ], [ 7.13149, 47.30884 ] ] ], [ [ [ 5.59072, 46.12827 ], [ 5.58732, 46.05627 ], [ 5.69074, 46.05387 ], [ 5.69427, 46.12586 ], [ 5.59072, 46.12827 ] ] ], [ [ [ 6.08812, 45.75536 ], [ 6.0841, 45.68338 ], [ 5.87868, 45.68881 ], [ 5.87494, 45.61682 ], [ 5.97752, 45.61415 ], [ 5.97366, 45.54217 ], [ 6.0761, 45.53941 ], [ 6.08009, 45.61139 ], [ 6.18265, 45.60854 ], [ 6.19095, 45.7525 ], [ 6.08812, 45.75536 ] ] ], [ [ [ 3.72091, 45.79532 ], [ 3.7181, 45.57922 ], [ 3.82068, 45.57851 ], [ 3.81961, 45.50648 ], [ 3.92206, 45.50569 ], [ 3.92445, 45.64975 ], [ 3.82175, 45.65055 ], [ 3.82389, 45.79462 ], [ 3.72091, 45.79532 ] ] ], [ [ [ 5.76516, 45.47541 ], [ 5.75801, 45.33143 ], [ 5.65594, 45.3339 ], [ 5.65251, 45.2619 ], [ 5.85638, 45.25688 ], [ 5.86749, 45.47284 ], [ 5.76516, 45.47541 ] ] ], [ [ [ 2.69143, 45.72516 ], [ 2.69264, 45.50905 ], [ 2.79509, 45.50928 ], [ 2.79588, 45.29318 ], [ 2.48972, 45.2922 ], [ 2.49169, 45.0761 ], [ 2.59335, 45.07652 ], [ 2.59387, 45.00449 ], [ 2.89847, 45.00519 ], [ 2.89714, 45.72554 ], [ 2.69143, 45.72516 ] ] ], [ [ [ 3.71071, 45.00296 ], [ 3.70889, 44.85891 ], [ 3.81015, 44.85822 ], [ 3.81224, 45.00227 ], [ 3.71071, 45.00296 ] ] ], [ [ [ 5.34362, 45.19674 ], [ 5.3406, 45.12474 ], [ 5.4423, 45.12256 ], [ 5.43602, 44.97856 ], [ 5.23313, 44.98282 ], [ 5.23027, 44.91082 ], [ 5.33159, 44.90874 ], [ 5.3286, 44.83675 ], [ 5.42978, 44.83458 ], [ 5.42667, 44.76258 ], [ 5.52771, 44.76033 ], [ 5.54727, 45.19228 ], [ 5.34362, 45.19674 ] ] ], [ [ [ 3.10127, 44.86113 ], [ 3.10114, 44.7891 ], [ 2.79771, 44.78896 ], [ 2.79797, 44.71694 ], [ 2.89899, 44.71708 ], [ 2.89912, 44.64506 ], [ 3.0, 44.6451 ], [ 3.0, 44.57308 ], [ 3.20151, 44.5729 ], [ 3.20254, 44.86099 ], [ 3.10127, 44.86113 ] ] ], [ [ [ 5.73327, 44.82751 ], [ 5.72977, 44.75553 ], [ 5.52771, 44.76033 ], [ 5.52126, 44.61635 ], [ 5.7228, 44.61157 ], [ 5.71933, 44.53959 ], [ 5.81996, 44.53707 ], [ 5.81637, 44.4651 ], [ 5.91687, 44.46248 ], [ 5.92059, 44.53445 ], [ 6.0212, 44.53174 ], [ 6.02892, 44.67568 ], [ 5.92805, 44.67839 ], [ 5.9318, 44.75037 ], [ 5.83079, 44.753 ], [ 5.83442, 44.82497 ], [ 5.73327, 44.82751 ] ] ], [ [ [ 4.01789, 45.14465 ], [ 4.01267, 44.85656 ], [ 3.81015, 44.85822 ], [ 3.80912, 44.7862 ], [ 3.70798, 44.78689 ], [ 3.70889, 44.85891 ], [ 3.60762, 44.85951 ], [ 3.6084, 44.93154 ], [ 3.50701, 44.93205 ], [ 3.50766, 45.00407 ], [ 3.40613, 45.00449 ], [ 3.40665, 45.07652 ], [ 3.20333, 45.07708 ], [ 3.20307, 45.00505 ], [ 3.3046, 45.00481 ], [ 3.30265, 44.64469 ], [ 3.50442, 44.64395 ], [ 3.50377, 44.57193 ], [ 3.70527, 44.57083 ], [ 3.70437, 44.49881 ], [ 3.60375, 44.49941 ], [ 3.60298, 44.4274 ], [ 3.80397, 44.42611 ], [ 3.80602, 44.57014 ], [ 3.90676, 44.56936 ], [ 3.90792, 44.64137 ], [ 4.00879, 44.6405 ], [ 4.01008, 44.71252 ], [ 4.11108, 44.71155 ], [ 4.1125, 44.78357 ], [ 4.31474, 44.78135 ], [ 4.31642, 44.85337 ], [ 4.21518, 44.85452 ], [ 4.22144, 45.14261 ], [ 4.01789, 45.14465 ] ] ], [ [ [ 5.51483, 44.47239 ], [ 5.51164, 44.40041 ], [ 5.61203, 44.39807 ], [ 5.61536, 44.47005 ], [ 5.51483, 44.47239 ] ] ], [ [ [ 6.01352, 44.38782 ], [ 6.00969, 44.31586 ], [ 6.10991, 44.31307 ], [ 6.11386, 44.38502 ], [ 6.01352, 44.38782 ] ] ], [ [ [ 3.39996, 44.14028 ], [ 3.39945, 44.06827 ], [ 3.49931, 44.06786 ], [ 3.49994, 44.13987 ], [ 3.39996, 44.14028 ] ] ], [ [ [ 5.69869, 44.10778 ], [ 5.69528, 44.03582 ], [ 5.79502, 44.03332 ], [ 5.79856, 44.10527 ], [ 5.69869, 44.10778 ] ] ], [ [ [ 9.25961, 47.35787 ], [ 9.25123, 47.28608 ], [ 9.04016, 47.29728 ], [ 9.03208, 47.22547 ], [ 9.13749, 47.21992 ], [ 9.12929, 47.14812 ], [ 9.23453, 47.14248 ], [ 9.22622, 47.07068 ], [ 9.01599, 47.08184 ], [ 9.02403, 47.15365 ], [ 8.60276, 47.17484 ], [ 8.59528, 47.103 ], [ 8.70049, 47.09785 ], [ 8.67776, 46.88233 ], [ 8.57296, 46.88746 ], [ 8.58038, 46.95931 ], [ 8.37046, 46.96929 ], [ 8.36332, 46.89743 ], [ 8.25847, 46.90227 ], [ 8.26548, 46.97414 ], [ 8.05544, 46.98355 ], [ 8.06219, 47.05542 ], [ 7.8518, 47.06446 ], [ 7.83246, 46.84878 ], [ 7.62285, 46.8574 ], [ 7.61059, 46.71359 ], [ 7.71513, 46.70934 ], [ 7.70889, 46.63743 ], [ 7.50007, 46.64583 ], [ 7.50604, 46.71774 ], [ 7.40146, 46.7218 ], [ 7.40731, 46.79372 ], [ 7.19784, 46.80157 ], [ 7.19227, 46.72964 ], [ 7.08766, 46.73341 ], [ 7.07684, 46.58954 ], [ 6.86812, 46.59678 ], [ 6.84776, 46.30898 ], [ 6.74392, 46.31244 ], [ 6.74885, 46.3844 ], [ 6.54087, 46.39105 ], [ 6.53621, 46.31908 ], [ 6.43234, 46.32226 ], [ 6.42783, 46.25029 ], [ 6.32408, 46.25337 ], [ 6.31971, 46.18139 ], [ 6.42333, 46.17832 ], [ 6.41884, 46.10635 ], [ 6.62576, 46.09992 ], [ 6.62101, 46.02796 ], [ 6.20766, 46.04042 ], [ 6.19095, 45.7525 ], [ 6.39657, 45.74649 ], [ 6.38774, 45.60254 ], [ 6.2852, 45.60559 ], [ 6.26822, 45.31769 ], [ 6.1662, 45.32062 ], [ 6.1744, 45.46458 ], [ 6.07211, 45.46743 ], [ 6.06416, 45.32346 ], [ 5.96212, 45.32621 ], [ 5.95448, 45.18224 ], [ 5.85269, 45.18489 ], [ 5.84536, 45.04092 ], [ 5.74382, 45.04347 ], [ 5.73678, 44.8995 ], [ 5.83805, 44.89695 ], [ 5.83442, 44.82497 ], [ 5.93555, 44.82234 ], [ 5.9318, 44.75037 ], [ 6.0328, 44.74765 ], [ 6.02892, 44.67568 ], [ 6.12978, 44.67287 ], [ 6.12579, 44.60091 ], [ 6.22651, 44.59801 ], [ 6.2224, 44.52605 ], [ 6.42355, 44.51999 ], [ 6.41919, 44.44804 ], [ 6.31875, 44.45111 ], [ 6.31453, 44.37916 ], [ 6.2142, 44.38214 ], [ 6.21012, 44.31019 ], [ 6.10991, 44.31307 ], [ 6.10203, 44.16916 ], [ 6.30194, 44.16332 ], [ 6.30612, 44.23527 ], [ 6.40619, 44.23221 ], [ 6.39757, 44.08833 ], [ 6.29776, 44.09138 ], [ 6.29359, 44.01944 ], [ 6.79191, 44.0033 ], [ 6.7967, 44.07521 ], [ 6.89645, 44.07171 ], [ 6.89153, 43.99979 ], [ 6.99115, 43.9962 ], [ 7.00125, 44.14002 ], [ 7.10111, 44.13633 ], [ 7.09592, 44.06442 ], [ 7.29534, 44.05677 ], [ 7.28992, 43.98488 ], [ 7.48903, 43.97688 ], [ 7.50039, 44.12065 ], [ 7.60017, 44.1165 ], [ 7.58856, 43.97274 ], [ 7.68808, 43.96852 ], [ 7.7059, 44.18414 ], [ 7.1063, 44.20824 ], [ 7.11151, 44.28015 ], [ 7.01141, 44.28385 ], [ 7.01651, 44.35577 ], [ 6.91626, 44.35939 ], [ 6.93627, 44.6471 ], [ 7.13777, 44.63974 ], [ 7.14306, 44.71166 ], [ 7.04218, 44.71539 ], [ 7.05255, 44.85925 ], [ 6.85025, 44.86646 ], [ 6.85519, 44.9384 ], [ 6.7539, 44.94187 ], [ 6.75872, 45.01382 ], [ 6.65728, 45.0172 ], [ 6.66199, 45.08915 ], [ 6.96666, 45.07872 ], [ 6.97177, 45.15066 ], [ 7.07344, 45.14699 ], [ 7.07869, 45.21893 ], [ 7.18047, 45.21516 ], [ 7.19671, 45.43097 ], [ 7.09454, 45.43475 ], [ 7.09985, 45.50669 ], [ 6.99753, 45.51038 ], [ 7.00793, 45.65427 ], [ 6.90533, 45.65788 ], [ 6.91041, 45.72983 ], [ 6.80767, 45.73335 ], [ 6.81264, 45.8053 ], [ 7.22406, 45.79064 ], [ 7.22958, 45.86258 ], [ 7.43547, 45.85468 ], [ 7.44127, 45.9266 ], [ 7.85342, 45.90965 ], [ 7.85976, 45.98156 ], [ 7.96289, 45.97708 ], [ 7.98244, 46.19277 ], [ 8.08596, 46.18818 ], [ 8.14676, 46.83514 ], [ 8.25149, 46.8304 ], [ 8.20311, 46.32726 ], [ 8.30687, 46.32247 ], [ 8.32087, 46.46622 ], [ 8.42487, 46.46132 ], [ 8.43204, 46.53319 ], [ 8.95246, 46.50724 ], [ 8.94461, 46.43541 ], [ 9.25621, 46.41873 ], [ 9.24798, 46.34692 ], [ 9.45533, 46.33534 ], [ 9.5067, 46.7661 ], [ 9.61116, 46.76012 ], [ 9.62874, 46.90368 ], [ 9.524, 46.90967 ], [ 9.53268, 46.98145 ], [ 9.63756, 46.97545 ], [ 9.66417, 47.19076 ], [ 9.55888, 47.19679 ], [ 9.55013, 47.12501 ], [ 9.44495, 47.13093 ], [ 9.46221, 47.27449 ], [ 9.56766, 47.26856 ], [ 9.57646, 47.34033 ], [ 9.25961, 47.35787 ] ], [ [ 6.84776, 46.30898 ], [ 6.95158, 46.30543 ], [ 6.94639, 46.23348 ], [ 6.8427, 46.23703 ], [ 6.84776, 46.30898 ] ], [ [ 7.26296, 46.29419 ], [ 7.47048, 46.28623 ], [ 7.4646, 46.2143 ], [ 7.25736, 46.22226 ], [ 7.26296, 46.29419 ] ], [ [ 7.15372, 46.22609 ], [ 7.25736, 46.22226 ], [ 7.25178, 46.15032 ], [ 7.14827, 46.15415 ], [ 7.15372, 46.22609 ] ], [ [ 6.94121, 46.16153 ], [ 7.14827, 46.15415 ], [ 7.14283, 46.08221 ], [ 6.93604, 46.08958 ], [ 6.94121, 46.16153 ] ], [ [ 6.51309, 45.95925 ], [ 6.61627, 45.956 ], [ 6.61155, 45.88403 ], [ 6.5085, 45.88728 ], [ 6.51309, 45.95925 ] ], [ [ 6.38335, 45.53057 ], [ 6.48574, 45.52744 ], [ 6.48122, 45.45547 ], [ 6.37896, 45.4586 ], [ 6.38335, 45.53057 ] ], [ [ 6.26822, 45.31769 ], [ 6.37023, 45.31466 ], [ 6.36588, 45.24269 ], [ 6.264, 45.24571 ], [ 6.26822, 45.31769 ] ], [ [ 6.42792, 44.59194 ], [ 6.52861, 44.58877 ], [ 6.52411, 44.51682 ], [ 6.42355, 44.51999 ], [ 6.42792, 44.59194 ] ] ], [ [ [ -1.12269, 43.05435 ], [ -1.11757, 42.9825 ], [ -1.01971, 42.9862 ], [ -1.0247, 43.05806 ], [ -1.12269, 43.05435 ] ] ], [ [ [ 0.55067, 42.96146 ], [ 0.5537, 42.88955 ], [ 0.6515, 42.89173 ], [ 0.64858, 42.96364 ], [ 0.55067, 42.96146 ] ] ], [ [ [ -0.63263, 43.07201 ], [ -0.62812, 43.00013 ], [ -1.01971, 42.9862 ], [ -1.01473, 42.91435 ], [ -0.8192, 42.92149 ], [ -0.81447, 42.84963 ], [ -0.71681, 42.85306 ], [ -0.71222, 42.7812 ], [ -0.61466, 42.78454 ], [ -0.6102, 42.71268 ], [ -0.51276, 42.71593 ], [ -0.5171, 42.78779 ], [ -0.22435, 42.797 ], [ -0.22037, 42.72512 ], [ -0.12288, 42.72801 ], [ -0.11903, 42.65614 ], [ 0.66019, 42.67603 ], [ 0.66308, 42.60413 ], [ 0.85772, 42.60821 ], [ 0.86036, 42.53632 ], [ 0.95757, 42.53822 ], [ 0.95505, 42.61012 ], [ 1.05239, 42.61194 ], [ 1.04999, 42.68384 ], [ 1.3424, 42.68877 ], [ 1.34444, 42.61686 ], [ 1.4418, 42.61832 ], [ 1.44563, 42.47452 ], [ 1.73702, 42.47836 ], [ 1.73857, 42.40646 ], [ 1.83559, 42.40757 ], [ 1.83416, 42.47947 ], [ 1.9313, 42.48049 ], [ 1.93392, 42.33669 ], [ 2.12774, 42.33845 ], [ 2.12667, 42.41035 ], [ 2.41776, 42.41234 ], [ 2.41705, 42.48425 ], [ 2.5142, 42.48474 ], [ 2.51361, 42.55665 ], [ 2.22178, 42.55492 ], [ 2.22082, 42.62684 ], [ 2.31822, 42.6275 ], [ 2.31653, 42.77135 ], [ 2.02364, 42.76909 ], [ 2.02243, 42.84102 ], [ 1.82694, 42.83906 ], [ 1.82549, 42.91099 ], [ 1.62977, 42.90867 ], [ 1.63147, 42.83674 ], [ 1.53374, 42.83545 ], [ 1.5301, 42.97931 ], [ 1.43213, 42.97793 ], [ 1.43408, 42.906 ], [ 1.33623, 42.90452 ], [ 1.33829, 42.8326 ], [ 1.14287, 42.8294 ], [ 1.14056, 42.90131 ], [ 0.7493, 42.89383 ], [ 0.75208, 42.82192 ], [ 0.55673, 42.81764 ], [ 0.5537, 42.88955 ], [ 0.45592, 42.88727 ], [ 0.45276, 42.95918 ], [ 0.35487, 42.95682 ], [ 0.35158, 43.02872 ], [ -0.04042, 43.01836 ], [ -0.03665, 42.94646 ], [ -0.1345, 42.94365 ], [ -0.13839, 43.01554 ], [ -0.23636, 43.01264 ], [ -0.24038, 43.08453 ], [ -0.63263, 43.07201 ] ], [ [ 0.25697, 42.95436 ], [ 0.35487, 42.95682 ], [ 0.36141, 42.81302 ], [ 0.26376, 42.81057 ], [ 0.25697, 42.95436 ] ], [ [ 1.63147, 42.83674 ], [ 1.7292, 42.83794 ], [ 1.73078, 42.76602 ], [ 1.63316, 42.76482 ], [ 1.63147, 42.83674 ] ] ], [ [ [ 8.83338, 42.47022 ], [ 8.81195, 42.25509 ], [ 8.90845, 42.24976 ], [ 8.90123, 42.17807 ], [ 8.9976, 42.17266 ], [ 9.02708, 42.45943 ], [ 8.83338, 42.47022 ] ] ] ] } },
{ "type": "Feature", "properties": { "nb_generations": 1, "surface_km2": 507392.0, "libelle": "1 generation(s) achevee(s)", "couleur": "#FDE725FF", "date_situation": "2026-07-22", "modele": "STENO-DJ v1", "exposition": "sunny", "k_ecorce": 0.2 }, "geometry": { "type": "MultiPolygon", "coordinates": [ [ [ [ -1.43329, 49.67622 ], [ -1.42708, 49.60444 ], [ -1.31663, 49.60842 ], [ -1.32268, 49.6802 ], [ -1.43329, 49.67622 ] ] ], [ [ [ -1.91715, 48.93706 ], [ -1.91037, 48.86526 ], [ -1.80152, 48.86968 ], [ -1.80816, 48.94149 ], [ -1.91715, 48.93706 ] ] ], [ [ [ -5.01313, 48.40771 ], [ -5.00219, 48.33611 ], [ -4.89478, 48.34334 ], [ -4.90557, 48.41496 ], [ -5.01313, 48.40771 ] ] ], [ [ [ -2.95054, 47.44636 ], [ -2.9346, 47.30273 ], [ -2.82901, 47.30809 ], [ -2.84467, 47.45173 ], [ -2.95054, 47.44636 ] ] ], [ [ [ -3.26802, 47.42966 ], [ -3.25123, 47.28608 ], [ -3.14571, 47.29172 ], [ -3.13749, 47.21992 ], [ -3.03208, 47.22547 ], [ -3.04826, 47.36908 ], [ -3.15395, 47.36352 ], [ -3.16221, 47.43532 ], [ -3.26802, 47.42966 ] ] ], [ [ [ 9.53268, 46.98145 ], [ 9.524, 46.90967 ], [ 9.62874, 46.90368 ], [ 9.63756, 46.97545 ], [ 9.53268, 46.98145 ] ] ], [ [ [ -2.3491, 46.7537 ], [ -2.34201, 46.68183 ], [ -2.23758, 46.68665 ], [ -2.24452, 46.75853 ], [ -2.3491, 46.7537 ] ] ], [ [ [ 6.84776, 46.30898 ], [ 6.8427, 46.23703 ], [ 6.94639, 46.23348 ], [ 6.95158, 46.30543 ], [ 6.84776, 46.30898 ] ] ], [ [ [ 7.26296, 46.29419 ], [ 7.25736, 46.22226 ], [ 7.4646, 46.2143 ], [ 7.47048, 46.28623 ], [ 7.26296, 46.29419 ] ] ], [ [ [ 7.15372, 46.22609 ], [ 7.14827, 46.15415 ], [ 7.25178, 46.15032 ], [ 7.25736, 46.22226 ], [ 7.15372, 46.22609 ] ] ], [ [ [ 6.94121, 46.16153 ], [ 6.93604, 46.08958 ], [ 7.14283, 46.08221 ], [ 7.14827, 46.15415 ], [ 6.94121, 46.16153 ] ] ], [ [ [ 6.51309, 45.95925 ], [ 6.5085, 45.88728 ], [ 6.61155, 45.88403 ], [ 6.61627, 45.956 ], [ 6.51309, 45.95925 ] ] ], [ [ [ 6.38335, 45.53057 ], [ 6.37896, 45.4586 ], [ 6.48122, 45.45547 ], [ 6.48574, 45.52744 ], [ 6.38335, 45.53057 ] ] ], [ [ [ 6.26822, 45.31769 ], [ 6.264, 45.24571 ], [ 6.36588, 45.24269 ], [ 6.37023, 45.31466 ], [ 6.26822, 45.31769 ] ] ], [ [ [ 3.70889, 44.85891 ], [ 3.70798, 44.78689 ], [ 3.80912, 44.7862 ], [ 3.81015, 44.85822 ], [ 3.70889, 44.85891 ] ] ], [ [ [ 5.83442, 44.82497 ], [ 5.83079, 44.753 ], [ 5.9318, 44.75037 ], [ 5.93555, 44.82234 ], [ 5.83442, 44.82497 ] ] ], [ [ [ 5.9318, 44.75037 ], [ 5.92805, 44.67839 ], [ 6.02892, 44.67568 ], [ 6.0328, 44.74765 ], [ 5.9318, 44.75037 ] ] ], [ [ [ 6.42792, 44.59194 ], [ 6.42355, 44.51999 ], [ 6.52411, 44.51682 ], [ 6.52861, 44.58877 ], [ 6.42792, 44.59194 ] ] ], [ [ [ 0.59793, 44.18672 ], [ 0.60097, 44.11475 ], [ 0.70087, 44.11689 ], [ 0.69796, 44.18887 ], [ 0.59793, 44.18672 ] ] ], [ [ [ 0.80634, 43.975 ], [ 0.8091, 43.90303 ], [ 0.90864, 43.90498 ], [ 0.906, 43.97695 ], [ 0.80634, 43.975 ] ] ], [ [ [ 5.18539, 43.7591 ], [ 5.18264, 43.68714 ], [ 5.38095, 43.68298 ], [ 5.38394, 43.75494 ], [ 5.18539, 43.7591 ] ] ], [ [ [ 5.38095, 43.68298 ], [ 5.37796, 43.61103 ], [ 5.47698, 43.60882 ], [ 5.48009, 43.68077 ], [ 5.38095, 43.68298 ] ] ], [ [ [ 5.37201, 43.46714 ], [ 5.36905, 43.3952 ], [ 5.46769, 43.393 ], [ 5.47078, 43.46493 ], [ 5.37201, 43.46714 ] ] ], [ [ [ -1.11757, 42.9825 ], [ -1.11247, 42.91065 ], [ -1.01473, 42.91435 ], [ -1.01971, 42.9862 ], [ -1.11757, 42.9825 ] ] ], [ [ [ 2.80399, 42.98918 ], [ 2.80423, 42.91723 ], [ 2.90212, 42.91737 ], [ 2.902, 42.98931 ], [ 2.80399, 42.98918 ] ] ], [ [ [ 0.25697, 42.95436 ], [ 0.26376, 42.81057 ], [ 0.36141, 42.81302 ], [ 0.35487, 42.95682 ], [ 0.25697, 42.95436 ] ] ], [ [ [ 1.63147, 42.83674 ], [ 1.63316, 42.76482 ], [ 1.73078, 42.76602 ], [ 1.7292, 42.83794 ], [ 1.63147, 42.83674 ] ] ], [ [ [ 8.94485, 42.60829 ], [ 8.93753, 42.53658 ], [ 8.84055, 42.54194 ], [ 8.83338, 42.47022 ], [ 9.02708, 42.45943 ], [ 9.04193, 42.60284 ], [ 8.94485, 42.60829 ] ] ], [ [ [ 2.90272, 42.55771 ], [ 2.90284, 42.4858 ], [ 3.0, 42.48584 ], [ 3.0, 42.55776 ], [ 2.90272, 42.55771 ] ] ], [ [ [ 1.83416, 42.47947 ], [ 1.83559, 42.40757 ], [ 1.93261, 42.40858 ], [ 1.9313, 42.48049 ], [ 1.83416, 42.47947 ] ] ], [ [ [ 2.54338, 51.1923 ], [ 2.54404, 51.12056 ], [ 2.0881, 51.11808 ], [ 2.09204, 50.90283 ], [ 1.52467, 50.89742 ], [ 1.54143, 50.32315 ], [ 1.42926, 50.32177 ], [ 1.43593, 50.1063 ], [ 1.21256, 50.10325 ], [ 1.21509, 50.03142 ], [ 1.10357, 50.02975 ], [ 1.10625, 49.95791 ], [ 0.6609, 49.95021 ], [ 0.66419, 49.87837 ], [ 0.44188, 49.87392 ], [ 0.44548, 49.80209 ], [ 0.11256, 49.79466 ], [ 0.12065, 49.65099 ], [ 0.01001, 49.64832 ], [ 0.02669, 49.36093 ], [ -0.41329, 49.3493 ], [ -0.41806, 49.42114 ], [ -1.07853, 49.40067 ], [ -1.07285, 49.32886 ], [ -1.29258, 49.32124 ], [ -1.31059, 49.53663 ], [ -1.42089, 49.53266 ], [ -1.42708, 49.60444 ], [ -1.75834, 49.59191 ], [ -1.74506, 49.44837 ], [ -1.85513, 49.444 ], [ -1.84836, 49.37223 ], [ -1.73844, 49.37659 ], [ -1.72527, 49.23302 ], [ -1.61563, 49.23727 ], [ -1.56486, 48.66273 ], [ -1.78172, 48.65422 ], [ -1.7883, 48.72604 ], [ -2.00538, 48.71713 ], [ -1.9985, 48.64531 ], [ -2.21521, 48.63601 ], [ -2.22239, 48.70781 ], [ -2.54774, 48.6931 ], [ -2.54012, 48.62132 ], [ -2.75663, 48.61104 ], [ -2.76454, 48.6828 ], [ -2.87291, 48.6775 ], [ -2.89723, 48.89276 ], [ -3.65828, 48.85276 ], [ -3.63996, 48.70937 ], [ -3.74829, 48.70328 ], [ -3.75758, 48.77497 ], [ -4.19122, 48.74958 ], [ -4.18134, 48.67792 ], [ -4.61396, 48.65099 ], [ -4.60351, 48.57937 ], [ -4.81936, 48.56533 ], [ -4.77672, 48.27885 ], [ -4.66939, 48.28588 ], [ -4.65894, 48.21424 ], [ -4.55173, 48.22116 ], [ -4.54146, 48.1495 ], [ -4.43437, 48.15632 ], [ -4.42426, 48.08465 ], [ -4.74504, 48.06394 ], [ -4.73453, 47.99229 ], [ -4.62778, 47.99928 ], [ -4.61745, 47.92763 ], [ -4.40415, 47.9413 ], [ -4.37417, 47.72625 ], [ -4.0553, 47.74596 ], [ -4.06483, 47.81767 ], [ -3.85184, 47.83034 ], [ -3.84258, 47.75861 ], [ -3.62977, 47.77088 ], [ -3.62083, 47.69913 ], [ -3.51453, 47.70511 ], [ -3.49699, 47.56159 ], [ -3.28489, 47.57323 ], [ -3.29336, 47.64501 ], [ -3.18714, 47.6507 ], [ -3.16221, 47.43532 ], [ -3.05639, 47.44089 ], [ -3.06453, 47.51269 ], [ -2.85253, 47.52355 ], [ -2.84467, 47.45173 ], [ -2.52694, 47.46727 ], [ -2.50475, 47.25175 ], [ -2.29367, 47.26159 ], [ -2.27954, 47.11787 ], [ -2.17425, 47.12263 ], [ -2.16735, 47.05076 ], [ -2.2725, 47.046 ], [ -2.25847, 46.90227 ], [ -2.15361, 46.90701 ], [ -2.13993, 46.76326 ], [ -2.03532, 46.7679 ], [ -2.02865, 46.69601 ], [ -1.92416, 46.70055 ], [ -1.91115, 46.55676 ], [ -1.80691, 46.56119 ], [ -1.79424, 46.41738 ], [ -1.58627, 46.42594 ], [ -1.58024, 46.35402 ], [ -1.47636, 46.35815 ], [ -1.47048, 46.28623 ], [ -1.57421, 46.2821 ], [ -1.5682, 46.21018 ], [ -1.4646, 46.2143 ], [ -1.45875, 46.14238 ], [ -1.14827, 46.15415 ], [ -1.13741, 46.01027 ], [ -1.24065, 46.00645 ], [ -1.2462, 46.07839 ], [ -1.45291, 46.07045 ], [ -1.44708, 45.99853 ], [ -1.34387, 46.00254 ], [ -1.33253, 45.85868 ], [ -1.22958, 45.86258 ], [ -1.21308, 45.64677 ], [ -1.11051, 45.65057 ], [ -1.09985, 45.50669 ], [ -1.20215, 45.5029 ], [ -1.16971, 45.0713 ], [ -1.27122, 45.06745 ], [ -1.26025, 44.9236 ], [ -1.36148, 44.91967 ], [ -1.35589, 44.84775 ], [ -1.25479, 44.85168 ], [ -1.24935, 44.77976 ], [ -1.14836, 44.78359 ], [ -1.14306, 44.71166 ], [ -1.04218, 44.71539 ], [ -1.03702, 44.64346 ], [ -0.93627, 44.6471 ], [ -0.93125, 44.57517 ], [ -1.13249, 44.56782 ], [ -1.13777, 44.63974 ], [ -1.33921, 44.63201 ], [ -1.32816, 44.48819 ], [ -1.12722, 44.4959 ], [ -1.11151, 44.28015 ], [ -1.21161, 44.27636 ], [ -1.19034, 43.98874 ], [ -1.28992, 43.98488 ], [ -1.27374, 43.76922 ], [ -0.97609, 43.78049 ], [ -0.9711, 43.7086 ], [ -0.87198, 43.71217 ], [ -0.86712, 43.64027 ], [ -1.16406, 43.62929 ], [ -1.15884, 43.55741 ], [ -1.06, 43.56116 ], [ -1.05492, 43.48928 ], [ -1.25235, 43.48171 ], [ -1.24703, 43.40984 ], [ -1.3456, 43.40592 ], [ -1.35104, 43.47779 ], [ -1.44972, 43.47378 ], [ -1.45529, 43.54564 ], [ -1.65286, 43.53734 ], [ -1.64123, 43.39364 ], [ -1.83825, 43.38501 ], [ -1.8262, 43.24135 ], [ -1.72794, 43.2457 ], [ -1.72206, 43.17387 ], [ -1.52574, 43.18229 ], [ -1.52012, 43.11045 ], [ -1.61816, 43.10629 ], [ -1.61243, 43.03446 ], [ -1.51451, 43.03862 ], [ -1.50891, 42.96678 ], [ -1.11757, 42.9825 ], [ -1.12269, 43.05435 ], [ -1.0247, 43.05806 ], [ -1.01971, 42.9862 ], [ -0.62812, 43.00013 ], [ -0.63263, 43.07201 ], [ -0.24038, 43.08453 ], [ -0.23636, 43.01264 ], [ -0.13839, 43.01554 ], [ -0.1345, 42.94365 ], [ -0.03665, 42.94646 ], [ -0.04042, 43.01836 ], [ 0.35158, 43.02872 ], [ 0.35487, 42.95682 ], [ 0.45276, 42.95918 ], [ 0.45592, 42.88727 ], [ 0.5537, 42.88955 ], [ 0.55673, 42.81764 ], [ 0.75208, 42.82192 ], [ 0.7493, 42.89383 ], [ 1.14056, 42.90131 ], [ 1.14287, 42.8294 ], [ 1.33829, 42.8326 ], [ 1.33623, 42.90452 ], [ 1.43408, 42.906 ], [ 1.43213, 42.97793 ], [ 1.5301, 42.97931 ], [ 1.53374, 42.83545 ], [ 1.63147, 42.83674 ], [ 1.62977, 42.90867 ], [ 1.82549, 42.91099 ], [ 1.82694, 42.83906 ], [ 2.02243, 42.84102 ], [ 2.02364, 42.76909 ], [ 2.31653, 42.77135 ], [ 2.31822, 42.6275 ], [ 2.22082, 42.62684 ], [ 2.22178, 42.55492 ], [ 2.51361, 42.55665 ], [ 2.5142, 42.48474 ], [ 2.41705, 42.48425 ], [ 2.41776, 42.41234 ], [ 2.32073, 42.41177 ], [ 2.32156, 42.33986 ], [ 2.70924, 42.34163 ], [ 2.70888, 42.41353 ], [ 2.80592, 42.41375 ], [ 2.80568, 42.48566 ], [ 2.61136, 42.48513 ], [ 2.6104, 42.62897 ], [ 2.41561, 42.62808 ], [ 2.41489, 42.7 ], [ 2.60992, 42.70089 ], [ 2.60944, 42.77282 ], [ 2.5118, 42.77242 ], [ 2.5112, 42.84436 ], [ 2.60896, 42.84476 ], [ 2.60847, 42.9167 ], [ 2.70635, 42.91701 ], [ 2.70562, 43.0609 ], [ 2.50937, 43.06019 ], [ 2.50815, 43.20409 ], [ 2.31142, 43.20302 ], [ 2.31228, 43.13106 ], [ 2.21404, 43.13039 ], [ 2.21306, 43.20235 ], [ 2.01634, 43.20073 ], [ 2.01512, 43.27269 ], [ 1.91664, 43.27175 ], [ 1.91529, 43.34371 ], [ 1.81669, 43.34267 ], [ 1.81373, 43.4866 ], [ 1.91257, 43.48764 ], [ 1.91121, 43.55961 ], [ 2.01018, 43.56055 ], [ 2.00893, 43.63253 ], [ 1.81075, 43.63054 ], [ 1.81224, 43.55857 ], [ 1.71328, 43.55744 ], [ 1.71166, 43.62941 ], [ 1.61258, 43.62819 ], [ 1.61084, 43.70016 ], [ 1.80925, 43.70252 ], [ 1.80776, 43.7745 ], [ 1.9071, 43.77554 ], [ 1.90847, 43.70356 ], [ 2.20614, 43.70614 ], [ 2.20713, 43.63415 ], [ 2.30624, 43.63483 ], [ 2.30711, 43.56285 ], [ 2.10915, 43.56141 ], [ 2.11027, 43.48944 ], [ 2.01142, 43.48858 ], [ 2.01389, 43.34465 ], [ 2.60554, 43.34842 ], [ 2.60504, 43.42039 ], [ 2.80252, 43.42093 ], [ 2.80227, 43.49291 ], [ 2.90114, 43.49304 ], [ 2.90101, 43.56502 ], [ 3.09899, 43.56502 ], [ 3.09924, 43.70898 ], [ 3.29771, 43.70862 ], [ 3.29808, 43.78061 ], [ 3.59616, 43.77939 ], [ 3.59541, 43.7074 ], [ 3.69464, 43.70681 ], [ 3.69551, 43.7788 ], [ 3.79486, 43.77812 ], [ 3.79888, 44.06609 ], [ 3.89874, 44.06531 ], [ 3.89987, 44.13731 ], [ 3.99985, 44.13645 ], [ 4.00239, 44.28045 ], [ 4.10261, 44.27949 ], [ 4.10683, 44.49551 ], [ 4.20743, 44.49445 ], [ 4.20898, 44.56646 ], [ 4.30971, 44.56532 ], [ 4.31306, 44.70934 ], [ 4.41404, 44.7081 ], [ 4.40684, 44.42006 ], [ 4.60777, 44.41732 ], [ 4.60982, 44.48932 ], [ 4.50923, 44.49074 ], [ 4.51308, 44.63475 ], [ 4.71477, 44.63181 ], [ 4.72136, 44.84783 ], [ 4.82258, 44.84621 ], [ 4.83198, 45.13425 ], [ 5.03545, 45.13073 ], [ 5.03022, 44.98671 ], [ 4.92875, 44.98852 ], [ 4.92134, 44.7725 ], [ 4.82025, 44.7742 ], [ 4.81792, 44.7022 ], [ 4.91888, 44.7005 ], [ 4.91399, 44.5565 ], [ 4.81329, 44.5582 ], [ 4.81098, 44.4862 ], [ 5.01211, 44.48271 ], [ 5.00955, 44.41072 ], [ 5.10998, 44.40884 ], [ 5.1073, 44.33685 ], [ 5.007, 44.33873 ], [ 5.00191, 44.19476 ], [ 5.10196, 44.19288 ], [ 5.0993, 44.1209 ], [ 5.19922, 44.11894 ], [ 5.19644, 44.04697 ], [ 5.09665, 44.04893 ], [ 5.094, 43.97695 ], [ 5.29332, 43.97295 ], [ 5.29043, 43.90099 ], [ 5.09136, 43.90498 ], [ 5.08873, 43.83301 ], [ 5.38695, 43.82689 ], [ 5.38394, 43.75494 ], [ 5.48321, 43.75272 ], [ 5.48009, 43.68077 ], [ 5.57923, 43.67846 ], [ 5.57599, 43.60652 ], [ 5.47698, 43.60882 ], [ 5.47388, 43.53687 ], [ 5.57276, 43.53457 ], [ 5.56954, 43.46264 ], [ 5.6683, 43.46025 ], [ 5.65501, 43.17255 ], [ 6.04798, 43.16216 ], [ 6.05178, 43.23406 ], [ 6.24845, 43.22832 ], [ 6.24441, 43.15642 ], [ 6.34261, 43.15342 ], [ 6.34678, 43.22532 ], [ 6.44509, 43.22222 ], [ 6.44939, 43.29412 ], [ 6.25251, 43.30022 ], [ 6.25657, 43.37213 ], [ 5.8622, 43.38328 ], [ 5.86937, 43.52713 ], [ 6.06707, 43.52172 ], [ 6.07091, 43.59365 ], [ 6.26882, 43.58787 ], [ 6.26473, 43.51595 ], [ 6.36354, 43.51293 ], [ 6.36776, 43.58485 ], [ 6.6645, 43.57523 ], [ 6.6691, 43.64714 ], [ 6.96611, 43.6367 ], [ 6.9711, 43.7086 ], [ 7.16929, 43.70118 ], [ 7.17453, 43.77307 ], [ 7.27374, 43.76922 ], [ 7.26837, 43.69733 ], [ 7.36743, 43.6934 ], [ 7.37292, 43.76528 ], [ 7.4721, 43.76125 ], [ 7.47773, 43.83312 ], [ 7.57701, 43.829 ], [ 7.58278, 43.90087 ], [ 7.68218, 43.89665 ], [ 7.68808, 43.96852 ], [ 7.58856, 43.97274 ], [ 7.60017, 44.1165 ], [ 7.50039, 44.12065 ], [ 7.48903, 43.97688 ], [ 7.28992, 43.98488 ], [ 7.29534, 44.05677 ], [ 7.09592, 44.06442 ], [ 7.10111, 44.13633 ], [ 7.00125, 44.14002 ], [ 6.99115, 43.9962 ], [ 6.89153, 43.99979 ], [ 6.89645, 44.07171 ], [ 6.7967, 44.07521 ], [ 6.79191, 44.0033 ], [ 6.29359, 44.01944 ], [ 6.29776, 44.09138 ], [ 6.39757, 44.08833 ], [ 6.40619, 44.23221 ], [ 6.30612, 44.23527 ], [ 6.30194, 44.16332 ], [ 6.10203, 44.16916 ], [ 6.10991, 44.31307 ], [ 6.21012, 44.31019 ], [ 6.2142, 44.38214 ], [ 6.31453, 44.37916 ], [ 6.31875, 44.45111 ], [ 6.41919, 44.44804 ], [ 6.42355, 44.51999 ], [ 6.2224, 44.52605 ], [ 6.22651, 44.59801 ], [ 6.12579, 44.60091 ], [ 6.12978, 44.67287 ], [ 6.02892, 44.67568 ], [ 6.0212, 44.53174 ], [ 5.92059, 44.53445 ], [ 5.91687, 44.46248 ], [ 5.81637, 44.4651 ], [ 5.81996, 44.53707 ], [ 5.71933, 44.53959 ], [ 5.7228, 44.61157 ], [ 5.52126, 44.61635 ], [ 5.52771, 44.76033 ], [ 5.72977, 44.75553 ], [ 5.73327, 44.82751 ], [ 5.83442, 44.82497 ], [ 5.83805, 44.89695 ], [ 5.73678, 44.8995 ], [ 5.74382, 45.04347 ], [ 5.84536, 45.04092 ], [ 5.85269, 45.18489 ], [ 5.95448, 45.18224 ], [ 5.96212, 45.32621 ], [ 6.06416, 45.32346 ], [ 6.07211, 45.46743 ], [ 6.1744, 45.46458 ], [ 6.1662, 45.32062 ], [ 6.26822, 45.31769 ], [ 6.2852, 45.60559 ], [ 6.38774, 45.60254 ], [ 6.39657, 45.74649 ], [ 6.19095, 45.7525 ], [ 6.20766, 46.04042 ], [ 6.62101, 46.02796 ], [ 6.62576, 46.09992 ], [ 6.41884, 46.10635 ], [ 6.42333, 46.17832 ], [ 6.31971, 46.18139 ], [ 6.32408, 46.25337 ], [ 6.42783, 46.25029 ], [ 6.43234, 46.32226 ], [ 6.53621, 46.31908 ], [ 6.54087, 46.39105 ], [ 6.74885, 46.3844 ], [ 6.74392, 46.31244 ], [ 6.84776, 46.30898 ], [ 6.86812, 46.59678 ], [ 7.07684, 46.58954 ], [ 7.08766, 46.73341 ], [ 7.19227, 46.72964 ], [ 7.19784, 46.80157 ], [ 7.40731, 46.79372 ], [ 7.40146, 46.7218 ], [ 7.50604, 46.71774 ], [ 7.50007, 46.64583 ], [ 7.70889, 46.63743 ], [ 7.71513, 46.70934 ], [ 7.61059, 46.71359 ], [ 7.62285, 46.8574 ], [ 7.83246, 46.84878 ], [ 7.8518, 47.06446 ], [ 8.06219, 47.05542 ], [ 8.05544, 46.98355 ], [ 8.26548, 46.97414 ], [ 8.25847, 46.90227 ], [ 8.36332, 46.89743 ], [ 8.37046, 46.96929 ], [ 8.58038, 46.95931 ], [ 8.57296, 46.88746 ], [ 8.67776, 46.88233 ], [ 8.70049, 47.09785 ], [ 8.59528, 47.103 ], [ 8.60276, 47.17484 ], [ 9.02403, 47.15365 ], [ 9.01599, 47.08184 ], [ 9.22622, 47.07068 ], [ 9.23453, 47.14248 ], [ 9.12929, 47.14812 ], [ 9.13749, 47.21992 ], [ 9.03208, 47.22547 ], [ 9.04016, 47.29728 ], [ 9.25123, 47.28608 ], [ 9.25961, 47.35787 ], [ 9.57646, 47.34033 ], [ 9.56766, 47.26856 ], [ 9.46221, 47.27449 ], [ 9.44495, 47.13093 ], [ 9.55013, 47.12501 ], [ 9.55888, 47.19679 ], [ 9.66417, 47.19076 ], [ 9.782, 48.12345 ], [ 9.67486, 48.12958 ], [ 9.68395, 48.20131 ], [ 9.57665, 48.20735 ], [ 9.55878, 48.06387 ], [ 9.45174, 48.06979 ], [ 9.44299, 47.99804 ], [ 9.33607, 48.00386 ], [ 9.32748, 47.9321 ], [ 9.22068, 47.93781 ], [ 9.23759, 48.08135 ], [ 9.02335, 48.09252 ], [ 9.01517, 48.02074 ], [ 8.90816, 48.02617 ], [ 8.90015, 47.95437 ], [ 8.68636, 47.96493 ], [ 8.67097, 47.82131 ], [ 8.56433, 47.82642 ], [ 8.57187, 47.89824 ], [ 8.25139, 47.91304 ], [ 8.23719, 47.76935 ], [ 8.13062, 47.77408 ], [ 8.12369, 47.70222 ], [ 8.01724, 47.70685 ], [ 8.02402, 47.7787 ], [ 7.9174, 47.78323 ], [ 7.93074, 47.92695 ], [ 8.14452, 47.91777 ], [ 8.15151, 47.98961 ], [ 8.04448, 47.99426 ], [ 8.05133, 48.0661 ], [ 8.15851, 48.06145 ], [ 8.16553, 48.13329 ], [ 8.27283, 48.12853 ], [ 8.28001, 48.20036 ], [ 8.38744, 48.1955 ], [ 8.38011, 48.12368 ], [ 8.48737, 48.11873 ], [ 8.47991, 48.04691 ], [ 8.58701, 48.04187 ], [ 8.61753, 48.32908 ], [ 8.50985, 48.33415 ], [ 8.54012, 48.62132 ], [ 8.43184, 48.62632 ], [ 8.43931, 48.6981 ], [ 8.54774, 48.6931 ], [ 8.55538, 48.76488 ], [ 8.4468, 48.76989 ], [ 8.46185, 48.91344 ], [ 8.24403, 48.92318 ], [ 8.25129, 48.99496 ], [ 8.1422, 48.99969 ], [ 8.14932, 49.07148 ], [ 7.93078, 49.08065 ], [ 7.94449, 49.22422 ], [ 7.83489, 49.22867 ], [ 7.85513, 49.444 ], [ 7.74506, 49.44837 ], [ 7.75169, 49.52014 ], [ 6.97959, 49.54795 ], [ 6.97403, 49.47614 ], [ 7.08423, 49.47248 ], [ 7.06719, 49.25704 ], [ 6.73793, 49.26769 ], [ 6.74314, 49.33953 ], [ 6.6332, 49.34289 ], [ 6.63827, 49.41472 ], [ 6.52817, 49.41798 ], [ 6.5331, 49.48981 ], [ 6.31255, 49.49604 ], [ 6.31719, 49.56788 ], [ 6.09627, 49.57371 ], [ 6.09195, 49.50187 ], [ 5.98163, 49.50464 ], [ 5.98999, 49.64832 ], [ 5.87935, 49.65099 ], [ 5.88339, 49.72283 ], [ 5.66176, 49.72787 ], [ 5.66926, 49.87154 ], [ 5.55812, 49.87392 ], [ 5.56173, 49.94575 ], [ 5.22778, 49.95228 ], [ 5.22464, 49.88045 ], [ 5.11346, 49.88242 ], [ 5.11644, 49.95426 ], [ 5.0051, 49.95614 ], [ 5.01362, 50.17162 ], [ 4.67813, 50.17666 ], [ 4.67576, 50.10483 ], [ 4.56407, 50.1063 ], [ 4.56628, 50.17813 ], [ 4.34258, 50.18078 ], [ 4.34448, 50.2526 ], [ 4.23246, 50.25378 ], [ 4.23421, 50.3256 ], [ 4.34639, 50.32442 ], [ 4.35023, 50.46804 ], [ 4.23773, 50.46922 ], [ 4.23949, 50.54101 ], [ 3.33807, 50.54675 ], [ 3.33904, 50.69034 ], [ 3.22603, 50.6906 ], [ 3.22635, 50.76238 ], [ 3.0, 50.76259 ], [ 3.0, 50.90613 ], [ 3.227, 50.90593 ], [ 3.22765, 51.04944 ], [ 3.0, 51.04965 ], [ 3.0, 51.12139 ], [ 2.65803, 51.12092 ], [ 2.65753, 51.19266 ], [ 2.54338, 51.1923 ] ], [ [ 1.98002, 50.83019 ], [ 2.09334, 50.83107 ], [ 2.09723, 50.61573 ], [ 2.32291, 50.61717 ], [ 2.32484, 50.47356 ], [ 1.98729, 50.47126 ], [ 1.98584, 50.54306 ], [ 1.87317, 50.54209 ], [ 1.87156, 50.61388 ], [ 1.75873, 50.61281 ], [ 1.75696, 50.68459 ], [ 1.86995, 50.68567 ], [ 1.86833, 50.75745 ], [ 1.98148, 50.75842 ], [ 1.98002, 50.83019 ] ], [ [ 1.21509, 50.03142 ], [ 1.43814, 50.03447 ], [ 1.44034, 49.96262 ], [ 1.21761, 49.95958 ], [ 1.21509, 50.03142 ] ], [ [ 0.44548, 49.80209 ], [ 0.55647, 49.80436 ], [ 0.5599, 49.73252 ], [ 0.44906, 49.73025 ], [ 0.44548, 49.80209 ] ], [ [ 0.22742, 49.7254 ], [ 0.33824, 49.72787 ], [ 0.34197, 49.65603 ], [ 0.23131, 49.65356 ], [ 0.22742, 49.7254 ] ], [ [ 7.06719, 49.25704 ], [ 7.17691, 49.25328 ], [ 7.17111, 49.18146 ], [ 7.06154, 49.18521 ], [ 7.06719, 49.25704 ] ], [ [ -3.62175, 48.56596 ], [ -3.51369, 48.57194 ], [ -3.50477, 48.50021 ], [ -3.61268, 48.49424 ], [ -3.62175, 48.56596 ] ], [ [ 7.09155, 48.17546 ], [ 7.19903, 48.17168 ], [ 7.19331, 48.0998 ], [ 7.08599, 48.10357 ], [ 7.09155, 48.17546 ] ], [ [ 6.97865, 48.10724 ], [ 7.08599, 48.10357 ], [ 7.0749, 47.95978 ], [ 7.18194, 47.95602 ], [ 7.17627, 47.88412 ], [ 6.96247, 47.89154 ], [ 6.95711, 47.81963 ], [ 6.85033, 47.82319 ], [ 6.86603, 48.03892 ], [ 6.97324, 48.03535 ], [ 6.97865, 48.10724 ] ], [ [ 8.98268, 47.73357 ], [ 9.0891, 47.72808 ], [ 9.08089, 47.65628 ], [ 8.97461, 47.66177 ], [ 8.98268, 47.73357 ] ], [ [ 8.94256, 47.37455 ], [ 9.04826, 47.36908 ], [ 9.04016, 47.29728 ], [ 8.9346, 47.30273 ], [ 8.94256, 47.37455 ] ], [ [ 7.13149, 47.30884 ], [ 7.55434, 47.29301 ], [ 7.54824, 47.22111 ], [ 7.33713, 47.22921 ], [ 7.33133, 47.15729 ], [ 7.2259, 47.16119 ], [ 7.22025, 47.08927 ], [ 7.11494, 47.09307 ], [ 7.10946, 47.02115 ], [ 6.89907, 47.02845 ], [ 6.89387, 46.95651 ], [ 6.7888, 46.96001 ], [ 6.78376, 46.88806 ], [ 6.67881, 46.89147 ], [ 6.67392, 46.81951 ], [ 6.46426, 46.82602 ], [ 6.45508, 46.6821 ], [ 6.35051, 46.6852 ], [ 6.34165, 46.54126 ], [ 6.23734, 46.54426 ], [ 6.23307, 46.47229 ], [ 6.12889, 46.47519 ], [ 6.12476, 46.40321 ], [ 6.02071, 46.40601 ], [ 6.01673, 46.33402 ], [ 5.9128, 46.33673 ], [ 5.90515, 46.19275 ], [ 5.69781, 46.19786 ], [ 5.70491, 46.34185 ], [ 5.80886, 46.33934 ], [ 5.81257, 46.41133 ], [ 5.70848, 46.41385 ], [ 5.71564, 46.55783 ], [ 5.82, 46.55531 ], [ 5.82374, 46.6273 ], [ 5.92822, 46.62468 ], [ 5.9399, 46.84062 ], [ 6.04479, 46.8379 ], [ 6.04885, 46.90987 ], [ 6.25888, 46.90412 ], [ 6.26322, 46.97609 ], [ 6.36836, 46.97306 ], [ 6.37286, 47.04502 ], [ 6.58338, 47.03868 ], [ 6.58816, 47.11063 ], [ 6.69355, 47.10731 ], [ 6.69849, 47.17926 ], [ 6.90949, 47.17232 ], [ 6.91473, 47.24425 ], [ 7.12596, 47.23692 ], [ 7.13149, 47.30884 ] ], [ [ -2.16735, 47.05076 ], [ -2.06219, 47.05542 ], [ -2.05544, 46.98355 ], [ -2.16047, 46.97889 ], [ -2.16735, 47.05076 ] ], [ [ 2.89482, 46.95016 ], [ 3.0, 46.9502 ], [ 3.0, 45.14929 ], [ 2.89821, 45.14925 ], [ 2.89847, 45.00519 ], [ 2.59387, 45.00449 ], [ 2.59335, 45.07652 ], [ 2.49169, 45.0761 ], [ 2.48972, 45.2922 ], [ 2.79588, 45.29318 ], [ 2.79509, 45.50928 ], [ 2.69264, 45.50905 ], [ 2.69143, 45.72516 ], [ 2.89714, 45.72554 ], [ 2.89482, 46.95016 ] ], [ [ 5.52358, 46.92258 ], [ 5.62865, 46.92023 ], [ 5.59072, 46.12827 ], [ 5.69427, 46.12586 ], [ 5.69074, 46.05387 ], [ 5.58732, 46.05627 ], [ 5.52771, 44.76033 ], [ 5.42667, 44.76258 ], [ 5.42978, 44.83458 ], [ 5.3286, 44.83675 ], [ 5.33159, 44.90874 ], [ 5.23027, 44.91082 ], [ 5.23313, 44.98282 ], [ 5.43602, 44.97856 ], [ 5.4423, 45.12256 ], [ 5.3406, 45.12474 ], [ 5.34362, 45.19674 ], [ 5.44545, 45.19455 ], [ 5.52358, 46.92258 ] ], [ [ -1.36673, 46.29026 ], [ -1.26296, 46.29419 ], [ -1.25736, 46.22226 ], [ -1.36099, 46.21833 ], [ -1.36673, 46.29026 ] ], [ [ -0.29806, 45.82151 ], [ -0.19511, 45.82448 ], [ -0.19095, 45.7525 ], [ -0.08812, 45.75536 ], [ -0.0841, 45.68338 ], [ -0.28948, 45.67756 ], [ -0.2852, 45.60559 ], [ -0.38774, 45.60254 ], [ -0.39657, 45.74649 ], [ -0.29376, 45.74954 ], [ -0.29806, 45.82151 ] ], [ [ 4.75283, 45.85607 ], [ 4.95896, 45.85268 ], [ 4.95641, 45.78067 ], [ 4.85348, 45.78241 ], [ 4.85106, 45.71039 ], [ 4.74826, 45.71203 ], [ 4.75283, 45.85607 ] ], [ [ 3.72091, 45.79532 ], [ 3.82389, 45.79462 ], [ 3.82175, 45.65055 ], [ 3.92445, 45.64975 ], [ 3.92206, 45.50569 ], [ 3.81961, 45.50648 ], [ 3.82068, 45.57851 ], [ 3.7181, 45.57922 ], [ 3.72091, 45.79532 ] ], [ [ 6.08812, 45.75536 ], [ 6.19095, 45.7525 ], [ 6.18265, 45.60854 ], [ 6.08009, 45.61139 ], [ 6.0761, 45.53941 ], [ 5.97366, 45.54217 ], [ 5.97752, 45.61415 ], [ 5.87494, 45.61682 ], [ 5.87868, 45.68881 ], [ 6.0841, 45.68338 ], [ 6.08812, 45.75536 ] ], [ [ 5.76516, 45.47541 ], [ 5.86749, 45.47284 ], [ 5.85638, 45.25688 ], [ 5.65251, 45.2619 ], [ 5.65594, 45.3339 ], [ 5.75801, 45.33143 ], [ 5.76516, 45.47541 ] ], [ [ -0.98719, 45.36649 ], [ -0.88512, 45.37008 ], [ -0.8701, 45.15423 ], [ -0.76841, 45.15772 ], [ -0.76356, 45.08577 ], [ -0.96666, 45.07872 ], [ -0.98719, 45.36649 ] ], [ [ -0.57421, 45.30833 ], [ -0.37023, 45.31466 ], [ -0.36154, 45.17072 ], [ -0.15803, 45.17667 ], [ -0.15396, 45.10469 ], [ 0.04932, 45.11026 ], [ 0.05312, 45.03828 ], [ -0.0484, 45.03554 ], [ -0.04058, 44.89159 ], [ 0.26322, 44.8995 ], [ 0.26673, 44.82751 ], [ -0.34001, 44.8109 ], [ -0.34429, 44.88286 ], [ -0.54671, 44.87658 ], [ -0.53764, 44.73267 ], [ -0.43669, 44.73585 ], [ -0.4323, 44.66389 ], [ -0.33147, 44.66698 ], [ -0.32722, 44.59502 ], [ 0.17644, 44.60904 ], [ 0.18004, 44.53707 ], [ 0.28067, 44.53959 ], [ 0.28759, 44.39565 ], [ 0.08684, 44.39052 ], [ 0.08313, 44.46248 ], [ -0.21829, 44.45409 ], [ -0.2224, 44.52605 ], [ -0.32298, 44.52307 ], [ -0.31875, 44.45111 ], [ -0.41919, 44.44804 ], [ -0.42792, 44.59194 ], [ -0.52861, 44.58877 ], [ -0.53312, 44.66072 ], [ -0.63392, 44.65745 ], [ -0.63857, 44.7294 ], [ -0.73949, 44.72603 ], [ -0.74908, 44.86992 ], [ -0.6479, 44.8733 ], [ -0.65259, 44.94525 ], [ -0.55126, 44.94853 ], [ -0.57421, 45.30833 ] ], [ [ -1.16971, 45.0713 ], [ -1.06819, 45.07506 ], [ -1.05255, 44.85925 ], [ -1.15368, 44.85551 ], [ -1.16971, 45.0713 ] ], [ [ 4.01789, 45.14465 ], [ 4.22144, 45.14261 ], [ 4.21518, 44.85452 ], [ 4.31642, 44.85337 ], [ 4.31474, 44.78135 ], [ 4.1125, 44.78357 ], [ 4.11108, 44.71155 ], [ 4.01008, 44.71252 ], [ 4.00879, 44.6405 ], [ 3.90792, 44.64137 ], [ 3.90676, 44.56936 ], [ 3.80602, 44.57014 ], [ 3.80397, 44.42611 ], [ 3.60298, 44.4274 ], [ 3.60375, 44.49941 ], [ 3.70437, 44.49881 ], [ 3.70527, 44.57083 ], [ 3.50377, 44.57193 ], [ 3.50442, 44.64395 ], [ 3.30265, 44.64469 ], [ 3.3046, 45.00481 ], [ 3.20307, 45.00505 ], [ 3.20333, 45.07708 ], [ 3.40665, 45.07652 ], [ 3.40613, 45.00449 ], [ 3.50766, 45.00407 ], [ 3.50701, 44.93205 ], [ 3.6084, 44.93154 ], [ 3.60762, 44.85951 ], [ 3.70889, 44.85891 ], [ 3.71071, 45.00296 ], [ 3.81224, 45.00227 ], [ 3.81015, 44.85822 ], [ 4.01267, 44.85656 ], [ 4.01789, 45.14465 ] ], [ [ 3.10127, 44.86113 ], [ 3.20254, 44.86099 ], [ 3.20151, 44.5729 ], [ 3.0, 44.57308 ], [ 3.0, 44.6451 ], [ 2.89912, 44.64506 ], [ 2.89899, 44.71708 ], [ 2.79797, 44.71694 ], [ 2.79771, 44.78896 ], [ 3.10114, 44.7891 ], [ 3.10127, 44.86113 ] ], [ [ 0.0682, 44.75037 ], [ 0.16921, 44.753 ], [ 0.17283, 44.68102 ], [ 0.07195, 44.67839 ], [ 0.0682, 44.75037 ] ], [ [ 0.17283, 44.68102 ], [ 0.37461, 44.68599 ], [ 0.37797, 44.61401 ], [ 0.17644, 44.60904 ], [ 0.17283, 44.68102 ] ], [ [ 0.98532, 44.5547 ], [ 1.18671, 44.5582 ], [ 1.18902, 44.4862 ], [ 0.98789, 44.48271 ], [ 0.98532, 44.5547 ] ], [ [ 5.51483, 44.47239 ], [ 5.61536, 44.47005 ], [ 5.61203, 44.39807 ], [ 5.51164, 44.40041 ], [ 5.51483, 44.47239 ] ], [ [ 0.28759, 44.39565 ], [ 0.38797, 44.39807 ], [ 0.3946, 44.25413 ], [ 0.29447, 44.25171 ], [ 0.28759, 44.39565 ] ], [ [ 6.01352, 44.38782 ], [ 6.11386, 44.38502 ], [ 6.10991, 44.31307 ], [ 6.00969, 44.31586 ], [ 6.01352, 44.38782 ] ], [ [ 1.09331, 44.34051 ], [ 1.19363, 44.34221 ], [ 1.19592, 44.27021 ], [ 1.39631, 44.27332 ], [ 1.39835, 44.20133 ], [ 1.49843, 44.20274 ], [ 1.49652, 44.27474 ], [ 1.59673, 44.27606 ], [ 1.60205, 44.06008 ], [ 1.4024, 44.05735 ], [ 1.40643, 43.91338 ], [ 1.506, 43.91479 ], [ 1.50788, 43.84281 ], [ 1.70679, 43.84535 ], [ 1.70842, 43.77336 ], [ 1.50976, 43.77083 ], [ 1.51536, 43.55491 ], [ 1.41641, 43.55352 ], [ 1.42037, 43.40959 ], [ 1.32167, 43.40811 ], [ 1.31324, 43.69596 ], [ 1.21405, 43.69438 ], [ 1.2118, 43.76635 ], [ 1.1125, 43.76467 ], [ 1.11012, 43.83664 ], [ 0.91127, 43.83301 ], [ 0.9139, 43.76105 ], [ 1.0132, 43.7629 ], [ 1.01569, 43.69094 ], [ 0.7182, 43.68511 ], [ 0.71533, 43.75706 ], [ 0.61606, 43.75494 ], [ 0.61305, 43.82689 ], [ 0.51366, 43.82467 ], [ 0.50424, 44.04055 ], [ 0.40448, 44.03823 ], [ 0.40775, 43.96627 ], [ 0.1089, 43.95877 ], [ 0.10525, 44.03072 ], [ 0.20498, 44.03332 ], [ 0.19435, 44.2492 ], [ 0.29447, 44.25171 ], [ 0.29789, 44.17974 ], [ 0.59793, 44.18672 ], [ 0.59488, 44.2587 ], [ 0.7952, 44.2629 ], [ 0.798, 44.19092 ], [ 0.89804, 44.19288 ], [ 0.89537, 44.26487 ], [ 1.09573, 44.26852 ], [ 1.09331, 44.34051 ] ], [ [ 3.39996, 44.14028 ], [ 3.49994, 44.13987 ], [ 3.49931, 44.06786 ], [ 3.39945, 44.06827 ], [ 3.39996, 44.14028 ] ], [ [ 5.69869, 44.10778 ], [ 5.79856, 44.10527 ], [ 5.79502, 44.03332 ], [ 5.69528, 44.03582 ], [ 5.69869, 44.10778 ] ], [ [ 1.90572, 43.84752 ], [ 2.00519, 43.84847 ], [ 2.00644, 43.77649 ], [ 1.9071, 43.77554 ], [ 1.90572, 43.84752 ] ], [ [ -0.77285, 43.71565 ], [ -0.47539, 43.72556 ], [ -0.47103, 43.65365 ], [ -0.57007, 43.65044 ], [ -0.5656, 43.57853 ], [ -0.76339, 43.57185 ], [ -0.77285, 43.71565 ] ], [ [ 5.68172, 43.74801 ], [ 6.07864, 43.73751 ], [ 6.07477, 43.66558 ], [ 5.67835, 43.67606 ], [ 5.68172, 43.74801 ] ], [ [ 1.01569, 43.69094 ], [ 1.11487, 43.6927 ], [ 1.11723, 43.62074 ], [ 1.01818, 43.61898 ], [ 1.01569, 43.69094 ] ], [ [ -1.54271, 43.39783 ], [ -1.44416, 43.40192 ], [ -1.43862, 43.33006 ], [ -1.53704, 43.32598 ], [ -1.54271, 43.39783 ] ], [ [ -1.14845, 43.41366 ], [ -1.04985, 43.4174 ], [ -1.0448, 43.34552 ], [ -1.14327, 43.34179 ], [ -1.14845, 43.41366 ] ], [ [ 2.1158, 43.12963 ], [ 2.21404, 43.13039 ], [ 2.21501, 43.05844 ], [ 2.1169, 43.05768 ], [ 2.1158, 43.12963 ] ], [ [ 0.55067, 42.96146 ], [ 0.64858, 42.96364 ], [ 0.6515, 42.89173 ], [ 0.5537, 42.88955 ], [ 0.55067, 42.96146 ] ] ], [ [ [ 8.7365, 42.47548 ], [ 8.71542, 42.26033 ], [ 8.61888, 42.26549 ], [ 8.61201, 42.19378 ], [ 8.80484, 42.18339 ], [ 8.79775, 42.1117 ], [ 8.99028, 42.10098 ], [ 8.9976, 42.17266 ], [ 8.90123, 42.17807 ], [ 8.90845, 42.24976 ], [ 8.81195, 42.25509 ], [ 8.83338, 42.47022 ], [ 8.7365, 42.47548 ] ] ], [ [ [ 8.88683, 42.0347 ], [ 8.87966, 41.96303 ], [ 8.97568, 41.95764 ], [ 8.98297, 42.0293 ], [ 8.88683, 42.0347 ] ] ] ] } },
{ "type": "Feature", "properties": { "nb_generations": 2, "surface_km2": 47104.0, "libelle": "2 generation(s) achevee(s)", "couleur": "#35B779FF", "date_situation": "2026-07-22", "modele": "STENO-DJ v1", "exposition": "sunny", "k_ecorce": 0.2 }, "geometry": { "type": "MultiPolygon", "coordinates": [ [ [ [ 4.75283, 45.85607 ], [ 4.74826, 45.71203 ], [ 4.85106, 45.71039 ], [ 4.85348, 45.78241 ], [ 4.95641, 45.78067 ], [ 4.95896, 45.85268 ], [ 4.75283, 45.85607 ] ] ], [ [ [ -0.29806, 45.82151 ], [ -0.29376, 45.74954 ], [ -0.39657, 45.74649 ], [ -0.38774, 45.60254 ], [ -0.2852, 45.60559 ], [ -0.28948, 45.67756 ], [ -0.0841, 45.68338 ], [ -0.08812, 45.75536 ], [ -0.19095, 45.7525 ], [ -0.19511, 45.82448 ], [ -0.29806, 45.82151 ] ] ], [ [ [ -0.98719, 45.36649 ], [ -0.96666, 45.07872 ], [ -0.76356, 45.08577 ], [ -0.76841, 45.15772 ], [ -0.8701, 45.15423 ], [ -0.88512, 45.37008 ], [ -0.98719, 45.36649 ] ] ], [ [ [ -1.16971, 45.0713 ], [ -1.15368, 44.85551 ], [ -1.05255, 44.85925 ], [ -1.06819, 45.07506 ], [ -1.16971, 45.0713 ] ] ], [ [ [ 0.0682, 44.75037 ], [ 0.07195, 44.67839 ], [ 0.17283, 44.68102 ], [ 0.16921, 44.753 ], [ 0.0682, 44.75037 ] ] ], [ [ [ -1.35589, 44.84775 ], [ -1.33921, 44.63201 ], [ -1.13777, 44.63974 ], [ -1.13249, 44.56782 ], [ -0.93125, 44.57517 ], [ -0.93627, 44.6471 ], [ -1.03702, 44.64346 ], [ -1.04218, 44.71539 ], [ -1.14306, 44.71166 ], [ -1.14836, 44.78359 ], [ -1.24935, 44.77976 ], [ -1.25479, 44.85168 ], [ -1.35589, 44.84775 ] ] ], [ [ [ 0.17283, 44.68102 ], [ 0.17644, 44.60904 ], [ 0.37797, 44.61401 ], [ 0.37461, 44.68599 ], [ 0.17283, 44.68102 ] ] ], [ [ [ 0.98532, 44.5547 ], [ 0.98789, 44.48271 ], [ 1.18902, 44.4862 ], [ 1.18671, 44.5582 ], [ 0.98532, 44.5547 ] ] ], [ [ [ -0.57421, 45.30833 ], [ -0.55126, 44.94853 ], [ -0.65259, 44.94525 ], [ -0.6479, 44.8733 ], [ -0.74908, 44.86992 ], [ -0.73949, 44.72603 ], [ -0.63857, 44.7294 ], [ -0.63392, 44.65745 ], [ -0.53312, 44.66072 ], [ -0.52861, 44.58877 ], [ -0.42792, 44.59194 ], [ -0.41919, 44.44804 ], [ -0.31875, 44.45111 ], [ -0.32298, 44.52307 ], [ -0.2224, 44.52605 ], [ -0.21829, 44.45409 ], [ 0.08313, 44.46248 ], [ 0.08684, 44.39052 ], [ 0.28759, 44.39565 ], [ 0.28067, 44.53959 ], [ 0.18004, 44.53707 ], [ 0.17644, 44.60904 ], [ -0.32722, 44.59502 ], [ -0.33147, 44.66698 ], [ -0.4323, 44.66389 ], [ -0.43669, 44.73585 ], [ -0.53764, 44.73267 ], [ -0.54671, 44.87658 ], [ -0.34429, 44.88286 ], [ -0.34001, 44.8109 ], [ 0.26673, 44.82751 ], [ 0.26322, 44.8995 ], [ -0.04058, 44.89159 ], [ -0.0484, 45.03554 ], [ 0.05312, 45.03828 ], [ 0.04932, 45.11026 ], [ -0.15396, 45.10469 ], [ -0.15803, 45.17667 ], [ -0.36154, 45.17072 ], [ -0.37023, 45.31466 ], [ -0.57421, 45.30833 ] ] ], [ [ [ 0.28759, 44.39565 ], [ 0.29447, 44.25171 ], [ 0.3946, 44.25413 ], [ 0.38797, 44.39807 ], [ 0.28759, 44.39565 ] ] ], [ [ [ 7.47773, 43.83312 ], [ 7.4721, 43.76125 ], [ 7.57126, 43.75713 ], [ 7.57701, 43.829 ], [ 7.47773, 43.83312 ] ] ], [ [ [ 1.90572, 43.84752 ], [ 1.9071, 43.77554 ], [ 2.00644, 43.77649 ], [ 2.00519, 43.84847 ], [ 1.90572, 43.84752 ] ] ], [ [ [ 7.37292, 43.76528 ], [ 7.36743, 43.6934 ], [ 7.46648, 43.68937 ], [ 7.4721, 43.76125 ], [ 7.37292, 43.76528 ] ] ], [ [ [ 5.38394, 43.75494 ], [ 5.38095, 43.68298 ], [ 5.48009, 43.68077 ], [ 5.48321, 43.75272 ], [ 5.38394, 43.75494 ] ] ], [ [ [ 5.68172, 43.74801 ], [ 5.67835, 43.67606 ], [ 6.07477, 43.66558 ], [ 6.07864, 43.73751 ], [ 5.68172, 43.74801 ] ] ], [ [ [ -0.77285, 43.71565 ], [ -0.76339, 43.57185 ], [ -0.5656, 43.57853 ], [ -0.57007, 43.65044 ], [ -0.47103, 43.65365 ], [ -0.47539, 43.72556 ], [ -0.77285, 43.71565 ] ] ], [ [ [ 1.01569, 43.69094 ], [ 1.01818, 43.61898 ], [ 1.11723, 43.62074 ], [ 1.11487, 43.6927 ], [ 1.01569, 43.69094 ] ] ], [ [ [ 5.48009, 43.68077 ], [ 5.47698, 43.60882 ], [ 5.57599, 43.60652 ], [ 5.57923, 43.67846 ], [ 5.48009, 43.68077 ] ] ], [ [ [ -1.32816, 44.48819 ], [ -1.31169, 44.27247 ], [ -1.41175, 44.2685 ], [ -1.38948, 43.98093 ], [ -1.48903, 43.97688 ], [ -1.46648, 43.68937 ], [ -1.56552, 43.68526 ], [ -1.55408, 43.54154 ], [ -1.45529, 43.54564 ], [ -1.44972, 43.47378 ], [ -1.35104, 43.47779 ], [ -1.3456, 43.40592 ], [ -1.24703, 43.40984 ], [ -1.25235, 43.48171 ], [ -1.05492, 43.48928 ], [ -1.06, 43.56116 ], [ -1.15884, 43.55741 ], [ -1.16406, 43.62929 ], [ -0.86712, 43.64027 ], [ -0.87198, 43.71217 ], [ -0.9711, 43.7086 ], [ -0.97609, 43.78049 ], [ -1.27374, 43.76922 ], [ -1.28992, 43.98488 ], [ -1.19034, 43.98874 ], [ -1.21161, 44.27636 ], [ -1.11151, 44.28015 ], [ -1.12722, 44.4959 ], [ -1.32816, 44.48819 ] ] ], [ [ [ -1.74568, 43.46121 ], [ -1.73975, 43.38937 ], [ -1.64123, 43.39364 ], [ -1.64704, 43.46549 ], [ -1.74568, 43.46121 ] ] ], [ [ [ 1.09331, 44.34051 ], [ 1.09573, 44.26852 ], [ 0.89537, 44.26487 ], [ 0.89804, 44.19288 ], [ 0.798, 44.19092 ], [ 0.7952, 44.2629 ], [ 0.59488, 44.2587 ], [ 0.59793, 44.18672 ], [ 0.29789, 44.17974 ], [ 0.29447, 44.25171 ], [ 0.19435, 44.2492 ], [ 0.20498, 44.03332 ], [ 0.10525, 44.03072 ], [ 0.1089, 43.95877 ], [ 0.40775, 43.96627 ], [ 0.40448, 44.03823 ], [ 0.50424, 44.04055 ], [ 0.51366, 43.82467 ], [ 0.61305, 43.82689 ], [ 0.61606, 43.75494 ], [ 0.71533, 43.75706 ], [ 0.7182, 43.68511 ], [ 1.01569, 43.69094 ], [ 1.0132, 43.7629 ], [ 0.9139, 43.76105 ], [ 0.91127, 43.83301 ], [ 1.11012, 43.83664 ], [ 1.1125, 43.76467 ], [ 1.2118, 43.76635 ], [ 1.21405, 43.69438 ], [ 1.31324, 43.69596 ], [ 1.32167, 43.40811 ], [ 1.42037, 43.40959 ], [ 1.41641, 43.55352 ], [ 1.51536, 43.55491 ], [ 1.50976, 43.77083 ], [ 1.70842, 43.77336 ], [ 1.70679, 43.84535 ], [ 1.50788, 43.84281 ], [ 1.506, 43.91479 ], [ 1.40643, 43.91338 ], [ 1.4024, 44.05735 ], [ 1.60205, 44.06008 ], [ 1.59673, 44.27606 ], [ 1.49652, 44.27474 ], [ 1.49843, 44.20274 ], [ 1.39835, 44.20133 ], [ 1.39631, 44.27332 ], [ 1.19592, 44.27021 ], [ 1.19363, 44.34221 ], [ 1.09331, 44.34051 ] ], [ [ 0.59793, 44.18672 ], [ 0.69796, 44.18887 ], [ 0.70087, 44.11689 ], [ 0.60097, 44.11475 ], [ 0.59793, 44.18672 ] ], [ [ 0.80634, 43.975 ], [ 0.906, 43.97695 ], [ 0.90864, 43.90498 ], [ 0.8091, 43.90303 ], [ 0.80634, 43.975 ] ] ], [ [ [ -1.54271, 43.39783 ], [ -1.53704, 43.32598 ], [ -1.43862, 43.33006 ], [ -1.44416, 43.40192 ], [ -1.54271, 43.39783 ] ] ], [ [ [ -1.14845, 43.41366 ], [ -1.14327, 43.34179 ], [ -1.0448, 43.34552 ], [ -1.04985, 43.4174 ], [ -1.14845, 43.41366 ] ] ], [ [ [ 2.1158, 43.12963 ], [ 2.1169, 43.05768 ], [ 2.21501, 43.05844 ], [ 2.21404, 43.13039 ], [ 2.1158, 43.12963 ] ] ], [ [ [ 6.33431, 43.00965 ], [ 6.33018, 42.93776 ], [ 6.42801, 42.93469 ], [ 6.43226, 43.00656 ], [ 6.33431, 43.00965 ] ] ], [ [ [ 4.83198, 45.13425 ], [ 4.82258, 44.84621 ], [ 4.72136, 44.84783 ], [ 4.71477, 44.63181 ], [ 4.51308, 44.63475 ], [ 4.50923, 44.49074 ], [ 4.60982, 44.48932 ], [ 4.60777, 44.41732 ], [ 4.40684, 44.42006 ], [ 4.41404, 44.7081 ], [ 4.31306, 44.70934 ], [ 4.30971, 44.56532 ], [ 4.20898, 44.56646 ], [ 4.20743, 44.49445 ], [ 4.10683, 44.49551 ], [ 4.10261, 44.27949 ], [ 4.00239, 44.28045 ], [ 3.99985, 44.13645 ], [ 3.89987, 44.13731 ], [ 3.89874, 44.06531 ], [ 3.79888, 44.06609 ], [ 3.79486, 43.77812 ], [ 3.69551, 43.7788 ], [ 3.69464, 43.70681 ], [ 3.59541, 43.7074 ], [ 3.59616, 43.77939 ], [ 3.29808, 43.78061 ], [ 3.29771, 43.70862 ], [ 3.09924, 43.70898 ], [ 3.09899, 43.56502 ], [ 2.90101, 43.56502 ], [ 2.90114, 43.49304 ], [ 2.80227, 43.49291 ], [ 2.80252, 43.42093 ], [ 2.60504, 43.42039 ], [ 2.60554, 43.34842 ], [ 2.01389, 43.34465 ], [ 2.01142, 43.48858 ], [ 2.11027, 43.48944 ], [ 2.10915, 43.56141 ], [ 2.30711, 43.56285 ], [ 2.30624, 43.63483 ], [ 2.20713, 43.63415 ], [ 2.20614, 43.70614 ], [ 1.90847, 43.70356 ], [ 1.9071, 43.77554 ], [ 1.80776, 43.7745 ], [ 1.80925, 43.70252 ], [ 1.61084, 43.70016 ], [ 1.61258, 43.62819 ], [ 1.71166, 43.62941 ], [ 1.71328, 43.55744 ], [ 1.81224, 43.55857 ], [ 1.81075, 43.63054 ], [ 2.00893, 43.63253 ], [ 2.01018, 43.56055 ], [ 1.91121, 43.55961 ], [ 1.91257, 43.48764 ], [ 1.81373, 43.4866 ], [ 1.81669, 43.34267 ], [ 1.91529, 43.34371 ], [ 1.91664, 43.27175 ], [ 2.01512, 43.27269 ], [ 2.01634, 43.20073 ], [ 2.21306, 43.20235 ], [ 2.21404, 43.13039 ], [ 2.31228, 43.13106 ], [ 2.31142, 43.20302 ], [ 2.50815, 43.20409 ], [ 2.50937, 43.06019 ], [ 2.70562, 43.0609 ], [ 2.70635, 42.91701 ], [ 2.60847, 42.9167 ], [ 2.60896, 42.84476 ], [ 2.5112, 42.84436 ], [ 2.5118, 42.77242 ], [ 2.60944, 42.77282 ], [ 2.60992, 42.70089 ], [ 2.41489, 42.7 ], [ 2.41561, 42.62808 ], [ 2.6104, 42.62897 ], [ 2.61136, 42.48513 ], [ 2.80568, 42.48566 ], [ 2.80592, 42.41375 ], [ 2.90296, 42.41389 ], [ 2.90272, 42.55771 ], [ 3.0, 42.55776 ], [ 3.0, 42.41393 ], [ 3.19408, 42.41375 ], [ 3.19456, 42.55758 ], [ 3.09728, 42.55771 ], [ 3.09825, 43.13321 ], [ 3.1965, 43.13308 ], [ 3.19674, 43.20504 ], [ 3.29511, 43.20481 ], [ 3.29548, 43.27677 ], [ 3.59095, 43.27556 ], [ 3.59169, 43.34753 ], [ 3.6903, 43.34694 ], [ 3.69116, 43.41891 ], [ 3.78989, 43.41823 ], [ 3.79088, 43.4902 ], [ 3.88973, 43.48944 ], [ 3.89085, 43.56141 ], [ 4.08879, 43.55961 ], [ 4.08743, 43.48764 ], [ 4.48278, 43.48295 ], [ 4.47908, 43.33903 ], [ 4.87336, 43.33292 ], [ 4.87571, 43.40487 ], [ 4.97439, 43.40312 ], [ 4.97192, 43.33117 ], [ 5.26756, 43.32537 ], [ 5.26473, 43.25344 ], [ 5.36314, 43.25133 ], [ 5.3602, 43.1794 ], [ 5.45848, 43.17721 ], [ 5.45542, 43.10529 ], [ 5.74985, 43.09817 ], [ 5.74643, 43.02626 ], [ 6.04042, 43.01836 ], [ 6.03665, 42.94646 ], [ 6.23235, 42.94075 ], [ 6.23636, 43.01264 ], [ 6.33431, 43.00965 ], [ 6.33846, 43.08153 ], [ 6.43653, 43.07845 ], [ 6.43226, 43.00656 ], [ 6.5302, 43.00339 ], [ 6.53458, 43.07527 ], [ 6.63263, 43.07201 ], [ 6.63715, 43.14389 ], [ 6.73531, 43.14053 ], [ 6.7493, 43.35617 ], [ 6.84781, 43.35271 ], [ 6.85262, 43.4246 ], [ 6.95124, 43.42104 ], [ 6.95619, 43.49292 ], [ 7.15364, 43.48554 ], [ 7.16406, 43.62929 ], [ 7.36195, 43.62153 ], [ 7.36743, 43.6934 ], [ 7.26837, 43.69733 ], [ 7.27374, 43.76922 ], [ 7.17453, 43.77307 ], [ 7.16929, 43.70118 ], [ 6.9711, 43.7086 ], [ 6.96611, 43.6367 ], [ 6.6691, 43.64714 ], [ 6.6645, 43.57523 ], [ 6.36776, 43.58485 ], [ 6.36354, 43.51293 ], [ 6.26473, 43.51595 ], [ 6.26882, 43.58787 ], [ 6.07091, 43.59365 ], [ 6.06707, 43.52172 ], [ 5.86937, 43.52713 ], [ 5.8622, 43.38328 ], [ 6.25657, 43.37213 ], [ 6.25251, 43.30022 ], [ 6.44939, 43.29412 ], [ 6.44509, 43.22222 ], [ 6.34678, 43.22532 ], [ 6.34261, 43.15342 ], [ 6.24441, 43.15642 ], [ 6.24845, 43.22832 ], [ 6.05178, 43.23406 ], [ 6.04798, 43.16216 ], [ 5.65501, 43.17255 ], [ 5.6683, 43.46025 ], [ 5.56954, 43.46264 ], [ 5.57276, 43.53457 ], [ 5.47388, 43.53687 ], [ 5.47698, 43.60882 ], [ 5.37796, 43.61103 ], [ 5.38095, 43.68298 ], [ 5.18264, 43.68714 ], [ 5.18539, 43.7591 ], [ 5.38394, 43.75494 ], [ 5.38695, 43.82689 ], [ 5.08873, 43.83301 ], [ 5.09136, 43.90498 ], [ 5.29043, 43.90099 ], [ 5.29332, 43.97295 ], [ 5.094, 43.97695 ], [ 5.09665, 44.04893 ], [ 5.19644, 44.04697 ], [ 5.19922, 44.11894 ], [ 5.0993, 44.1209 ], [ 5.10196, 44.19288 ], [ 5.00191, 44.19476 ], [ 5.007, 44.33873 ], [ 5.1073, 44.33685 ], [ 5.10998, 44.40884 ], [ 5.00955, 44.41072 ], [ 5.01211, 44.48271 ], [ 4.81098, 44.4862 ], [ 4.81329, 44.5582 ], [ 4.91399, 44.5565 ], [ 4.91888, 44.7005 ], [ 4.81792, 44.7022 ], [ 4.82025, 44.7742 ], [ 4.92134, 44.7725 ], [ 4.92875, 44.98852 ], [ 5.03022, 44.98671 ], [ 5.03545, 45.13073 ], [ 4.83198, 45.13425 ] ], [ [ 5.37201, 43.46714 ], [ 5.47078, 43.46493 ], [ 5.46769, 43.393 ], [ 5.36905, 43.3952 ], [ 5.37201, 43.46714 ] ], [ [ 6.14229, 43.08744 ], [ 6.24038, 43.08453 ], [ 6.23636, 43.01264 ], [ 6.13839, 43.01554 ], [ 6.14229, 43.08744 ] ], [ [ 2.80399, 42.98918 ], [ 2.902, 42.98931 ], [ 2.90212, 42.91737 ], [ 2.80423, 42.91723 ], [ 2.80399, 42.98918 ] ] ], [ [ [ 8.95953, 42.75174 ], [ 8.95218, 42.68001 ], [ 8.85496, 42.68539 ], [ 8.84775, 42.61366 ], [ 8.6535, 42.62412 ], [ 8.63268, 42.40893 ], [ 8.53588, 42.41401 ], [ 8.5021, 42.05542 ], [ 8.59831, 42.05037 ], [ 8.59148, 41.97867 ], [ 8.49539, 41.98372 ], [ 8.4887, 41.91202 ], [ 8.58468, 41.90698 ], [ 8.57789, 41.8353 ], [ 8.67373, 41.83018 ], [ 8.65997, 41.68684 ], [ 8.75556, 41.68165 ], [ 8.74164, 41.53835 ], [ 8.83699, 41.53309 ], [ 8.82993, 41.46145 ], [ 8.92515, 41.45611 ], [ 8.97568, 41.95764 ], [ 8.87966, 41.96303 ], [ 8.88683, 42.0347 ], [ 8.98297, 42.0293 ], [ 8.99028, 42.10098 ], [ 8.79775, 42.1117 ], [ 8.80484, 42.18339 ], [ 8.61201, 42.19378 ], [ 8.61888, 42.26549 ], [ 8.71542, 42.26033 ], [ 8.7365, 42.47548 ], [ 8.83338, 42.47022 ], [ 8.84055, 42.54194 ], [ 8.93753, 42.53658 ], [ 8.94485, 42.60829 ], [ 9.04193, 42.60284 ], [ 9.05685, 42.74627 ], [ 8.95953, 42.75174 ] ] ] ] } }
]
}
